County,Market Name,Location,Address Line 1,City,State,Zip,Contact,Phone,Market Link,Operation Hours,Operation Season,Operating Months,FMNP,EBT/SNAP,Latitude,Longitude,Location Points
Albany,Altamont Farmers' Market,Altamont Free Library 181 Main St.,181 Main Street,Altamont,NY,12009,Linda Cure,5184563150,,Thu - Tue 11am-6pm Sat/Sun 10am-2pm,July 1 - September 1,M,Y,N,42.70149,-74.03254,"(42.70149, -74.03254)"
Albany,Capital District Farmers' Market,Pavillion at 381 BroadwayMenands,381 Broadway,Menands,NY,12204,Al Lansing,5184640889,,Saturday  9am-1pm,May 3 - October 25,P/M,Y,Y,42.69621,-73.72001,"(42.69621, -73.72001)"
Albany,CDCG Veggie Mobile - Friday,"South Mall Towers 101 S. Pearl St., Albany",101 South Pearl Street,Albany,NY,12207,EJ Krans,5182748685,http://www.cdcg.org,Fri 11am-12:15pm,Year-round,YR,Y,Y,42.6465,-73.75482,"(42.6465, -73.75482)"
Albany,CDCG Veggie Mobile - Saturday,"Steamboat Square Apartments20 Rensselaer St., Albany",20 Rensselaer Street,Albany,NY,12202,EJ Krans,5182748685,http://www.cdcg.org,Sat 1:15pm-2pm,Year-round,YR,Y,Y,42.64093,-73.75363,"(42.64093, -73.75363)"
Albany,CDCG Veggie Mobile - Saturday,"Arbor Hill/West HillsHenry Johnson Blvd & 2nd St., Albany",Henry Johnson Boulevard and 2nd Street,Albany,NY,12210,EJ Krans,5182748685,http://www.cdcg.org,Sat 12:15pm-1pm,Year-round,YR,Y,Y,42.66226,-73.76013,"(42.66226, -73.76013)"
Albany,CDCG Veggie Mobile - Thursday,"St. Sophia's Church440 Whitehall Rd., Albany",440 Whitehall Road,Albany,NY,12208,EJ Krans,5182748685,http://www.cdcg.org,Thu 12:30pm-1:30pm,Year-round,YR,Y,Y,42.65197,-73.81477,"(42.65197, -73.81477)"
Albany,CDCG Veggie Mobile - Tuesday,"Howe LibrarySchuyler & Broad St., Albany",Schuyler St and Broad Street,Albany,NY,12202,EJ Krans,5182748685,http://www.cdcg.org,Tue 3pm-3:45pm,Year-round,YR,Y,Y,42.64112,-73.75802,"(42.64112, -73.75802)"
Albany,CDCG Veggie Mobile - Tuesday,"Koinonia Primary Care533 Clinton Ave. at N. Lake, Albany",533 Clinton Avenue,Albany,NY,12206,EJ Krans,5182748685,http://www.cdcg.org,Tue 2pm-2:45pm,Year-round,YR,Y,Y,42.66508,-73.76804,"(42.66508, -73.76804)"
Albany,CDCG Veggie Mobile - Tuesday,"Ida Yarbrough270 N. Pearl Street, Albany",270 North Pearl Street,Albany,NY,12207,EJ Krans,5182748685,http://www.cdcg.org,Tue 12:15pm-1:00pm,Year-round,YR,Y,Y,42.65916,-73.74875,"(42.65916, -73.74875)"
Albany,CDCG Veggie Mobile - Tuesday,"Whitney Young Health Ctr920 Lark Drive, Albany",920 Lark Drive,Albany,NY,12210,EJ Krans,5182748685,http://www.cdcg.org,Tue 11am-12 Noon,Year-round,YR,Y,Y,42.66215,-73.74859,"(42.66215, -73.74859)"
Albany,CDCG Veggie Mobile - Wednesday,"North Albany YMCA616 N. Pearl St., Albany",616 North Pearl Street,Albany,NY,12204,EJ Krans,5182748685,http://www.cdcg.org,Wed 4:45pm-5:45pm,Year-round,YR,Y,Y,42.67368,-73.73953,"(42.67368, -73.73953)"
Albany,CDCG Veggie Mobile - Wednesday,"Thurlow Terrace2 Thurlow Terrace, Albany",2 Thurlow Terrace,Albany,NY,12203,EJ Krans,5182748685,http://www.cdcg.org,Wed 12 Noon-1pm,Year-round,YR,Y,Y,42.66032,-73.77248,"(42.66032, -73.77248)"
Albany,CDCG Veggie Mobile - Wednesday,"Cohoes Senior Center100 Cayuga Plaza, Cohoes",100 Cayuga Plaza,Cohoes,NY,12047,EJ Krans,5182748685,http://www.cdcg.org,Wed 3pm-4pm,Year-round,YR,Y,Y,42.77712,-73.70101,"(42.77712, -73.70101)"
Albany,CDPHP Farmers' Market,"CDPHP prkg lot, off Washington Ave. 500 Patroon Creek Blvd., Albany",500 Patroon Creek Bvld.,Albany,NY,12206,Tom Gallagher,5187653500,http://www.cdphp.com,Thursday  11am-1:30pm,May 29 - October 2,P/M,Y,N,42.68485,-73.80513,"(42.68485, -73.80513)"
Albany,Cohoes Farmers' Market,Remsen St. btwn Ontario & Oneida Sts.,185 Remsen St,Cohoes,NY,12047,Amanda Kenton,5182332119,http://www.cohoesfarmersmarket.com,Friday  4pm-7pm,June 13 - October 3,M,Y,Y,42.77161,-73.70068,"(42.77161, -73.70068)"
Albany,Colonie Crossings Farmers' Market,580 Albany Shaker Rd. Loudonville,580 Albany Shaker Rd,Colonie,NY,12211,Alicia Osur,5187832760,http://www.colonie.org,Saturday  9am-1pm,May 17 - September 13,P/M,Y,N,42.71016,-73.78029,"(42.71016, -73.78029)"
Albany,Delmar Farmers' Market,Bethlehem Central Middle School332 Kenwood Avenue,332 Kenwood Avenue,Delmar,NY,12054,Paul Tick,5182104727,http://www.delmarmarket.org,Saturday 9am - 1pm,May 31 - December 20,P/M/X,Y,N,42.61953,-73.82515,"(42.61953, -73.82515)"
Albany,Downtown Albany Farmers' Market,SUNY Plaza,SUNY Administration Plaza Park,Albany,NY,12207,Frank Stanton,5187568228,,Thursday  11am-2pm,May - October,P/M,Y,Y,42.64807,-73.75018,"(42.64807, -73.75018)"
Albany,Empire State Plaza Farmers' Market,Empire State Plaza,170 State St,Albany,NY,12210,Jason Rumpf,5184732982,http://www.empirestateplaza.org,"Wednesday  10am-2pmFriday 10am-2pm, May-Oct",Year-round,YR,Y,Y,42.65093,-73.75709,"(42.65093, -73.75709)"
Albany,Empire State Plaza WINTER Farmers' Market,"South Concourse, IndoorEmpire State Plaza",Empire State Plaza,Albany,NY,12210,Jason Rumpf,5184732982,http://www.empirestateplaza.org,"Wednesday 10am - 2pmTuesday Nov 26, week of Thanksgiving",October 30 - April 30,M/W/P,N,N,42.64994,-73.76089,"(42.64994, -73.76089)"
Albany,Farm to Preschool III Farmers' Market,Cohoes Community Center22-40 Remsen St.,22-40 Remsen Street,Cohoes,NY,12047,Darlene Yule,5184267181,http://www.facebook.com/Farm2Preschool,Monday 2:30pm-5:30pm,June 16 - September 15,M,Y,Y,42.7756,-73.70149,"(42.7756, -73.70149)"
Albany,First United Methodist Church Farmers' Market,"Church Parking Lot 428 Kenwood Ave., Delmar",428 Kenwood Ave,Delmar,NY,12054,Annette Van Auken,5187322991,,Tuesday  2:30pm-6pm,April 29 - November 25,P/M,Y,N,42.62265,-73.83631,"(42.62265, -73.83631)"
Albany,Harriman State Campus Farmers' Market,"Harriman State Office Campusbehind Bldg. 8A, Albany",1220 Washington Ave,Albany,NY,12203,Jason Rumpf,5184732982,http://www.empirestateplaza.org,Thursday  10am-2pm,May 8 - October 9,P/M,Y,N,42.68035,-73.81041,"(42.68035, -73.81041)"
Albany,Voorheesville Farmers' Market,First United Methodist lot 68 Maple Ave.,68 Maple Ave,Voorheesville,NY,12186,Dianne Luci,5187654536,,Wed  3:30pm - 6:30pm,June 18 - October 1,M,Y,N,42.64892,-73.92991,"(42.64892, -73.92991)"
Allegany,Angelica Farmers' Market,Park Circle,28 Park Cir,Angelica,NY,14709,Bob Jones,5854667422,,Saturday  9am-1pm,June 14 - September 27,M,Y,N,42.30553,-78.01631,"(42.30553, -78.01631)"
Allegany,Belmont Farmers' Market,"Grange Hall Lawn 32 Willets Ave, Rt 19",32 Willets Ave,Belmont,NY,14813,Phyllis Couture,7169423710,,Thursday  11am-5pm,May 22 - October 30,P/M,Y,Y,42.22613,-78.03994,"(42.22613, -78.03994)"
Bronx,Bissel Gardens Farmers' Market,Baychester Ave. & E. 241 St.,Baychester Ave and East 241st St,Bronx,NY,10470,Heather Warren-Dombrowa,3474272547,http://www.justfood.org,Sat/Wed  9am-5pm,July 12 - November 22,M,Y,Y,40.90151,-73.84702,"(40.90151, -73.84702)"
Bronx,Bronx Borough Hall Greenmarket,"Grand Concourse, 161st & 162nd Sts.",901 Grand Concourse,Bronx,NY,10452,Chelsea Whittaker,2127887476,http://www.grownyc.org,Tuesday  8am-4pm,June 3 - November 25,M,Y,Y,40.82715,-73.92276,"(40.82715, -73.92276)"
Bronx,Harvest Home Co-op City Farmers' Market,Ash Loop & Aldrich Street,Co-Op City Blvd and Bellamy Loop,Bronx,NY,10475,Maritza Owens,2128283361,http://www.harvesthomefm.org,Wednesday  8am-4pm,July 9 - November 26,M,Y,Y,40.87368,-73.82447,"(40.87368, -73.82447)"
Bronx,Harvest Home Forest Ave. Farmers' Market,"Forest Ave., Westchester Ave. &  E. 156th St.",East 156st St and Forest Ave,Bronx,NY,10455,Maritza Owens,2128283361,http://www.harvesthomefm.org,Wednesday  8am-4pm,July 9 - September 10,M,Y,Y,40.81732,-73.90651,"(40.81732, -73.90651)"
Bronx,Harvest Home Jacobi  Hospital Farmers' Market,1400 Pelham Parkway,1400 Pelham Pkwy,Bronx,NY,10461,Maritza Owens,2128283361,http://www.harvesthomefm.org,Tue/Fri  8am-4pm,June 10 - November 25,M,Y,Y,40.85431,-73.8467,"(40.85431, -73.8467)"
Bronx,Harvest Home Jerome Ave. Farmers' Market,"Mullaly Park, River & McClellan Aves.",Jerome Ave and East 170th St,Bronx,NY,10452,Maritza Owens,2128283361,http://www.harvesthomefm.org,Friday  8am-4pm,June 27 - November 21,M,Y,Y,40.84025,-73.91766,"(40.84025, -73.91766)"
Bronx,Harvest Home Mt. Eden Farmers' Market,"Mt. Eden & Morris Aves., near Bronx-Lebanon Hospital",Mt Eden Pkwy and Morris Ave,Bronx,NY,10457,Maritza Owens,2128283361,http://www.harvesthomefm.org,Tue/Thu  8am-4pm,May 20 - November 25,P/M,Y,Y,40.84305,-73.90947,"(40.84305, -73.90947)"
Bronx,Harvest Home N. Central Bronx Farmers' Market,Mosholu Parkway North & Jerome Ave.,Jerome Ave and East Mosholu Pkwy North,Bronx,NY,10467,Maritza Owens,2128283361,http://www.harvesthomefm.org,Wednesday  8am-4pm,July 9 - November 26,M,Y,Y,40.88046,-73.88385,"(40.88046, -73.88385)"
Bronx,Harvest Home St. Mary's Farmers' Market,Between St. Anns & Jackson Aves.,St Mary's Park,Bronx,NY,10455,Maritza Owens,2128283361,http://www.harvesthomefm.org,Thursday  8am-4pm,July 10 - November 20,M,Y,Y,40.81099,-73.91173,"(40.81099, -73.91173)"
Bronx,Harvest Home Sunday Farmers' Market,"Grand Concourse & E. 165th St.,  at Bronx Museum of the Arts",Grand Concourse and East 165st St,Bronx,NY,10456,Maritza Owens,2128283361,http://www.harvesthomefm.org,Sunday  8am-4pm,June 29 - November 23,M,Y,Y,40.83102,-73.90953,"(40.83102, -73.90953)"
Bronx,Heights Community Farmers' Market,University Ave. and W. 181 St.,University Ave and W 181st Street,Bronx,NY,10453,Kimberley Wong,7189335300,http://www.bronxworks.org,Thursday  9am-3pm,July 10 - November 20,M,Y,Y,40.85658,-73.90768,"(40.85658, -73.90768)"
Bronx,Herban Farmers' Market at Williamsbridge Square,"Williamsbridge Square Park,White Plains Rd. & East Gun Hill Rd.",White Plains Road and East Gun Hill Road,Bronx,NY,10467,Tupacamaru Tiwoni,6463517611,http://www.125thstreetfarmersmarket.com,Wednesday  10am-5pm,July 2 - November 12,M,Y,Y,40.87734,-73.8663,"(40.87734, -73.8663)"
Bronx,Hunts Point Farmers' Market,"Plaza at Hunts Point Ave.,Southern Blvd., E. 163rd & Bruckner Blvd.",Southern Blvd and East 163rd St,Bronx,NY,10459,Doug Ornstein,9149234837,http://www.downtoearthmarkets.com,Wed/Sat  8:30am-4pm,July 9 - November 22,M,Y,Y,40.82098,-73.89151,"(40.82098, -73.89151)"
Bronx,Kingsbridge Heights Youth Market,"Kingsbridge Heights Comm. Ctr,3101 Kingsbridge Terrace",3101 Kingsbridge Terrace,Bronx,NY,10463,Jane Folloro,7188840700,http://www.khcc-nyc.org,Friday  11am-5pm,July 11 - August 22,M,Y,Y,40.87758,-73.90071,"(40.87758, -73.90071)"
Bronx,La Familia Verde Farmers' Market,"Tremont Park, on Tremont Ave.,btwn LaFontaine & Arthur Aves.",East Tremont Ave and Arthur Ave,Bronx,NY,10457,Heidi Hynes,7185831765,http://www.lafamiliaverde.org,Tuesday  8am-3pm,July 8 - November 11,M,Y,Y,40.84643,-73.89334,"(40.84643, -73.89334)"
Bronx,"Learn it, Grow it, Eat it Youthmarket","169th St. & Boston Rd., McKinley Square",E. 169th St. and Boston Rd.,Bronx,NY,10456,Kory Petrovic,2127887476,http://www.grownyc.org/youthmarket,Wed  10am-2:30pm,July 9 - November 26,M,Y,Y,40.83121,-73.90022,"(40.83121, -73.90022)"
Bronx,Lincoln Hospital Greenmarket,149th St. btwn Park & Morris Aves.,East 149th St and Morris Ave,Bronx,NY,10451,Chelsea Whittaker,2127887476,http://www.grownyc.org,Tue/Fri  8am-3pm,June 27 - November 25,M,Y,Y,40.81739,-73.92274,"(40.81739, -73.92274)"
Bronx,Marble Hill Youthmarket,225th St. & Broadwaybtwn Marshalls & Applebees,W. 225th and Broadway & Exterior,Bronx,NY,10463,Jackie Bach,2127883818,http://www.grownyc.org/youthmarket,Thursday  2pm-6pm,July 10 - November 20,M,Y,Y,40.8746,-73.90961,"(40.8746, -73.90961)"
Bronx,Montefiore Youthmarket,E 210th St. & Bainbridge Ave.,East 210th Street and Bainbridge Avenue,Bronx,NY,10467,Jackie Bach,2127883818,http://www.grownyc.org/youthmarket,Thursday  1pm-7pm,July 10 - November 20,M,Y,Y,40.87958,-73.879,"(40.87958, -73.879)"
Bronx,Mott Haven Farmers' Market,Padre Plaza Community Garden139th St. & St. Anne's Ave.,E. 139th & 283 St. Saint Anns Ave,Bronx,NY,10454,Sheila Young,7189241143,,Wednesday 10am-4pm,July 9 - November 12,M,Y,Y,40.80782,-73.91697,"(40.80782, -73.91697)"
Bronx,New York Botanical Garden Greenmarket,"Mosholu Gate on Southern Blvd., Mosholu Pkwy & Bedford Park Blvd.",Southern Blvd between Mosholu Pkwy & Bedford Park Blvd,Bronx,NY,10458,Chelsea Whittaker,2127887476,http://www.grownyc.org,Wednesday  9am-3pm,June 18 - November 26,M,Y,Y,40.86776,-73.87952,"(40.86776, -73.87952)"
Bronx,Northeast Bronx Farmers' Market,"Haffen Park, Hammersley & Wickham Aves.",Hammersley Ave and Wickham Ave,Bronx,NY,10469,Nate Dukes,7188629687,,Thu/Fri/Sat  8am-4pm,July - November,M,N,N,40.87268,-73.83912,"(40.87268, -73.83912)"
Bronx,Parkchester/ Virginia Park Greenmarket,Westchester Ave. & White Plains Rd.,Westchester Ave and White Plains Rd,Bronx,NY,10472,Chelsea Whittaker,2127887476,http://www.grownyc.org,Friday  8am-4pm,June 13 - November 21,M,Y,Y,40.83301,-73.86277,"(40.83301, -73.86277)"
Bronx,Poe Park Greenmarket,"192nd St. & Grand Concourse,btwn Grand Concourse & Valentine Ave.",Grand Concourse and Valentine E.192nd St,Bronx,NY,10458,Chelsea Whittaker,2127887476,http://www.grownyc.org,Tuesday  8am-3pm,July 1 - November 25,M,Y,Y,40.86423,-73.89572,"(40.86423, -73.89572)"
Bronx,Riverdale Neighborhood House Youthmarket,"W. 256th St. & Mosholu, RiverdaleNeighborhood House Property",W 256th St. & Mosholu,Bronx,NY,10466,Jackie Bach,2127883818,http://www.grownyc.org/youthmarket,Thursday  3pm-7pm,July 10 - November 20,M,Y,Y,40.90388,-73.90313,"(40.90388, -73.90313)"
Bronx,Riverdale Y Sunday Farmers' Market,"Independence Ave,W. 237th St.",Independence Ave and W 237 Street,Bronx,NY,10463,Phyllis Steele,7185488200,http://www.riverdaley.org/sundaymarket,Sunday  9am-2pm,May 11 - November 16,P/M,Y,N,40.88836,-73.91311,"(40.88836, -73.91311)"
Bronx,South Bronx Farmers' Market,"138th Street, Mott Haven,btwn Willis & Alexander Aves.",330-398 East 138th Street,Bronx,NY,10454,Rose Placencia-Knepper,9176798654,http://www.southbronxfarmersmarket.com,Saturday  10am-4pm,June 14 - November 22,M,Y,Y,40.80913,-73.92297,"(40.80913, -73.92297)"
Bronx,Taqwa Community Farmers' Market,"90 W. 164th St. & Ogden Ave., in garden",90 West 164th St & Ogden Ave.,Bronx,NY,10452,Kadeesha Williams,2126121528,,Saturday  8am-4pm,June 28 - November 15,M,Y,N,40.83251,-73.92886,"(40.83251, -73.92886)"
Bronx,Wholesale Greenmarket,"Halleck St. & Viele Ave., Auxilary Lot",Halleck Street and Viele Avenue,Bronx,NY,10474,Chelsea Whittaker,2127887476,http://www.grownyc.org,"Tue - Sat, 2am - 8am",May - November,M,Y,N,40.80752,-73.87989,"(40.80752, -73.87989)"
Broome,Binghamton/Otsiningo Park Farmers' Market,"Otsiningo Park, Upper Front St., Binghamton 13905","Bevier St and Otsiningo Park,",Binghamton,NY,13905,Peter D. Reynolds,6078623599,,Saturday  9am-1pm,May 3 - October 25,P/M,Y,Y,42.12016,-75.90461,"(42.12016, -75.90461)"
Broome,Binghamton/Otsiningo WINTER Farmers' Market,"Metro Center Lobby, 49 Court St.Pyramid Brokerage",49 Court St.,Binghamton,NY,13901,Lauren Tonti,6072356631,,1st & 3rd Sat. 9pm to 12 Noon,November 8 - April 18,X/W/P,N,N,42.09938,-75.91211,"(42.09938, -75.91211)"
Broome,Downtown Binghamton Farmers' Market,Court House Square 98 Collier St.,98 Collier St,Binghamton,NY,13901,Eric Denk,6072069471,http://www.binghamtonfarmersmarket.com,Tue/Fri  9am-2pm,June 6 - October 31,M,Y,Y,42.09866,-75.91161,"(42.09866, -75.91161)"
Broome,Koo Koose Farmers' Market,"Park on Front Street, near flag polenear Village Hall & Movie Theater",147 NYS Bicycle Route 17,Deposit,NY,13754,Dorothy Crantz,6074672956,,Saturday  9am-1pm,June - September,M,Y,N,42.0608,-75.42562,"(42.0608, -75.42562)"
Broome,Vestal Farmers' Market,"Library parking lot, near museum320 Vestal Pkwy E (Rt. 434)",320 Vestal Pkwy,Vestal,NY,13850,Lisa Bloodnick,6076254141,,Sat/Wed  9am-1pm,May 24 - November 26,P/M,Y,N,42.08533,-76.05903,"(42.08533, -76.05903)"
Cattaraugus,Franklinville Farmers' Market,13 Park Square (Route 16),13 Park Sq,Franklinville,NY,14737,Phyllis Couture,7169423710,,Wednesday  3pm-6pm,May 21 - October 29,P/M,Y,Y,42.33772,-78.45771,"(42.33772, -78.45771)"
Cattaraugus,Olean Southern Tier Farmers' Market,"Tractor Supply Store 1900 Constitution Ave., Olean",1900 Constitution Ave,Olean,NY,14760,Phyllis Couture,7169423710,,Friday  2pm-6pm,May 16 - October 31,P/M,Y,Y,42.08294,-78.45503,"(42.08294, -78.45503)"
Cattaraugus,R.E.A.P. Olean Farmers' Market,"Jamestown Community College Olean Campus parking lot, 260 N Union St.",260 North Union Street,Olean,NY,14760,Mark Schindlbeck,7166769181,http://www.reapfarmersmarket.com,Saturday  8am-1pm,May 17 - October 25,P/M,Y,Y,42.08078,-78.42744,"(42.08078, -78.42744)"
Cattaraugus,Salamanca Farmers' Market,"12 Park Ave., Jefferson Park",12 Park Ave,Salamanca,NY,14779,Phyllis Couture,7169423710,,Tuesday  11am-5pm,May 20 - October 28,P/M,Y,Y,42.15497,-78.71739,"(42.15497, -78.71739)"
Cattaraugus,The Master's Plan Caf√© Farmers' Market,9586 Railroad St.,9586 Railroad Street,Dayton,NY,14041,Angie Mardino-Miller,7167259229,,Saturday  9am-1pmTuesday 10am-3pm,June 14 - November 15,M,Y,N,42.41871,-78.97532,"(42.41871, -78.97532)"
Cayuga,Auburn Farmers' Market,96 State StreetCurley's Restaurant Pkg Lot,96 State Street,Auburn,NY,13021,Mark Soper,3152556871,http://www.auburnfarmerscoopmarketinc.com,Tue/Thu/Sat  7am-2pm,June 3 - October 30,M,Y,Y,42.93406,-76.56977,"(42.93406, -76.56977)"
Cayuga,Moravia Farmers' Market,Kinney Drug Store parking lot 130 Main St.,130 Main St,Moravia,NY,13118,Tammy Riker,3154963545,,Thursday  10am-5pm,June 12 - October 30,M,Y,N,42.71209,-76.42079,"(42.71209, -76.42079)"
Cayuga,Niles Farmers' Market,"Niles Town Hall,5923 New Hope Rd., Moravia",5923 New Hope Rd.,Moravia,NY,13118,John DeWitt,3154970142,,Saturday  10am-1pm,May 31 - October 25,P/M,Y,N,42.79748,-76.36609,"(42.79748, -76.36609)"
Chautauqua,Downtown Jamestown Farmers' Market,Cherry St. btwn 2nd & 3rd Sts.,119 West 3rd St,Jamestown,NY,14701,Christina King,7166642477,http://www.jamestownrenaissance.org,Thursday  12 Noon-6pm,June 5 - October 30,M,Y,Y,42.09602,-79.24315,"(42.09602, -79.24315)"
Chautauqua,Downtown Jamestown WINTER Farmers' Market,Renaissance Center119-121 W Third Street,119 West Third Street,Jamestown,NY,14701,Tiffani Conti,7166642477,http://www.jamestownrenaissance.org,Thursday 12am - 6pmMonthly,November 7 - February 27,X/W,N,N,42.09602,-79.24315,"(42.09602, -79.24315)"
Chautauqua,Dunkirk Farmers' Market,"Dunkirk Senior Center,45 Cliffstar Court",45 Cliffstar Avenue,Dunkirk,NY,14048,Steve Nerrato,7163669877,,Wednesday  9am-2pm,June 18 - September 24,M,Y,N,42.48463,-79.32644,"(42.48463, -79.32644)"
Chautauqua,Falconer Farmers' Market,Davis Park W. Main & Homestead Sts.,W Main St and Homestead St,Falconer,NY,14733,DeEtte Dispenza,7166654400,,Saturday  9am-2pm,June 7 - October 25,M,Y,N,42.11763,-79.19952,"(42.11763, -79.19952)"
Chautauqua,Fredonia Farmers' Market,9-11 Church St. Village Hall in Baker Commons,11 Church St,Fredonia,NY,14063,Margaret Bruegel,7169652716,http://www.fredoniafarmersmarket.org,Saturday  9am-1pm,May - October,P/M,Y,Y,42.44064,-79.33235,"(42.44064, -79.33235)"
Chautauqua,Fredonia WINTER Farmers' Market,321 East Main St. (Rt 20)Masonic Forest Lodge,321 East Main St. (Rte 20),Fredonia,NY,14063,Margaret Bruegel,7169652716,http://www.fredoniafarmersmarket.org,Saturday 10am - 1pm,November - May,X/W/P,N,Y,42.44071,-79.33227,"(42.44071, -79.33227)"
Chautauqua,Lakewood Farmers' Market,Chautauqua Ave.,Chautauqua Ave and West Second St,Lakewood,NY,14750,Joe Johnson,7167638557,http://www.lakewoodny.com,Tuesday  1pm-5pm,June 3 - August 26,M,Y,Y,42.10189,-79.3262,"(42.10189, -79.3262)"
Chautauqua,Westfield Farmers' Market,Rt 20 & Rt 394,Main St and Portage St,Westfield,NY,14787,Arianne Correll,7166401166,http://www.westfieldny.com/farmersmarket,Saturday  9am-2pm,May 31 - September 27,P/M,Y,N,42.32203,-79.57812,"(42.32203, -79.57812)"
Chemung,Elmira Eastside Farmers' Market,"West Lawn of Holiday Inn 760 E. Water St., Elmira",760 East Water St,Elmira,NY,14901,Andrew Fagan,6077344453,http://www.ccechemung.org,Friday  3pm-6pm,June 27 - October 17,M,Y,Y,42.08905,-76.7922,"(42.08905, -76.7922)"
Chemung,Elmira Grove Park Farmers' Market,4th St. & Walnut Ave. Grove Park,Walnut Ave and West 4th St,Elmira,NY,14901,Liz Martin,6075464535,,Monday  3pm-6pm,June 2 - October 27,M,Y,Y,42.0921,-76.82013,"(42.0921, -76.82013)"
Chemung,Elmira Wisner Park Farmers' Market,Wisner Park Church & Main Sts.,North Main St and West Church St,Elmira,NY,14901,Jennifer Herrick,6077340341,http://www.wisnermarket.org,Thursday  10am-2pm,May 29 - September 25,M,Y,Y,42.08984,-76.80826,"(42.08984, -76.80826)"
Chemung,Horseheads/Teal Park Farmers' Market,"Teal Park, HorseheadsCorner S. Main and Steuben Sts.",Corner S. Main and Steuben St.,Horseheads,NY,14845,Debbie Gessick,6077397698,,Saturday  10am-1pm,June 28 - September 27,M,Y,N,42.16417,-76.81919,"(42.16417, -76.81919)"
Chenango,Bull Thistle Farmers' Market,East Park Norwich,1 East Park Place,Norwich,NY,13815,Ann Coe,6073361811,,Saturday  9am-1pm,May 24 - October 25,P/M,Y,Y,42.53181,-75.5238,"(42.53181, -75.5238)"
Chenango,Coventry Farmers' Market,"Coventry Fire Station, North Rd.Town Hall NYS Route 235",North Rd and Volunteer Ln,Coventry,NY,13778,Ellen Evans,6076567319,,Sun  12 Noon-6pm Thu  2:30pm-6pm,June 1 - November 6,M,Y,N,42.31667,-75.63847,"(42.31667, -75.63847)"
Chenango,Norwich Farmers' Market,East Park,98 East Park Place,Norwich,NY,13815,Drew Piaschyk,6073344928,,Wednesday  10am-6pm,Year-round,YR,N,Y,42.53136,-75.52262,"(42.53136, -75.52262)"
Clinton,Chateaugay Lake Farmers' Market,"Hollywood Inn, Rt 374 lake narrows, west of Merrill",4939 State Route 374,Merrill,NY,12955,Vicky Rayl,5187721064,http://www.adirondackfarmersmarket.com,Saturday  10am-2pm,June 21 - September 6,M,Y,N,44.78075,-73.98214,"(44.78075, -73.98214)"
Clinton,Keeseville Farmers Market,Riverside Park behind Library on Front St.,1721 Front St,Keeseville,NY,12944,Vicky Rayl,5187721064,http://www.adirondackfarmersmarket.com,Wednesday  10am-2pm,June 11 - August 27,M,Y,N,44.50436,-73.48061,"(44.50436, -73.48061)"
Clinton,Plattsburgh Farmers & Crafters Market,City parking lotDurkee & Broad Sts.,Broad St and Durkee St,Plattsburgh,NY,12901,Patricia Parker,5183100719,,Sat  9am-2pmWed  10am-2pm,May 10 - October 11,P/M,Y,N,44.69535,-73.45226,"(44.69535, -73.45226)"
Clinton,Plattsburgh WINTER Farmers' Market,Plattsburgh City Recreation Center Old Base Oval,52 U.S. Oval,Plattsburgh,NY,12903,Beth Spaugh,5186437822,http://www.plattsburghfarmersmarket.com,"Saturday 10am - 1pmEvery Sat, Oct - Dec1st & 3rd Sat, Jan - May",October 18 - May 2,X/W/P,Y,N,44.68659,-73.44546,"(44.68659, -73.44546)"
Columbia,Copake Hillsdale Farmers' Market,"Roeliff Jansen Park, 9140 Route 22",9140 Route 22,Hillsdale,NY,12529,Diane Creed,5183251430,http://www.facebook.com/copakehillsdalefarmersmarket,Saturday  9am-1pm,May 31 - October 25,P/M,Y,N,42.16548,-73.51686,"(42.16548, -73.51686)"
Columbia,Hudson Farmers' Market,"DMV parking lot, Sixth & Columbia Sts.",Columbia St and North 6th St,Hudson,NY,12534,Eugene Shetsky,5188287217,http://www.hudsonfarmersmarketny.com,Saturday  9am-1pm,May 3 - November 22,P/M,Y,Y,42.24866,-73.78369,"(42.24866, -73.78369)"
Columbia,Kinderhook Farmers' Market,"Village Green, Center of Village",US Route 9 and Hudson St,Kinderhook,NY,12106,Kim Voltz,5187559293,http://www.kinderhookfarmersmarket.com,Sat  8:30am-12:30pm,May 3 - October 11,P/M,Y,N,42.3954,-73.69817,"(42.3954, -73.69817)"
Columbia,New Lebanon Country Farmers' Market,36 Old Route 20,"36 Old Route 20, East Nassau, NY",New Lebanon,NY,12125,Tistrya Houghtling,5185051535,http://www.facebook.com/newlebanoncountrymarket,Sunday  10am-2pm,June 1 - September 28,M,Y,Y,42.50837,-73.56138,"(42.50837, -73.56138)"
Columbia,Philmont Farmers' Market,116 Main Street,116 Main St,Philmont,NY,12565,Sally Baker,5186727556,http://www.pbinc.org/revitalization,Sunday  10am-2pm,May 25 - October 12,P/M,Y,Y,42.24868,-73.65097,"(42.24868, -73.65097)"
Cortland,Cincinnatus Farmers' Market,Cortland-Chenango Rural Services 2704 Lower Cincinnatus Rd.,2704 Lower Cincinnatus Rd,Cincinnatus,NY,13040,Sister Kathleen Heffron,6078633828,,Saturday  9am-12 Noon,May 10 - November 1,P/M,Y,N,42.54094,-75.8959,"(42.54094, -75.8959)"
Cortland,City of Cortland Farmers' Market,Main St. btwn Court & Orchard Sts.,Main St and Orchard St,Cortland,NY,13045,Joan Franklin,6077493424,,Tue/Sat  8am-2pm,June 3 - October 28,M,Y,Y,42.60028,-76.18044,"(42.60028, -76.18044)"
Cortland,Homer Farmers' Market,Homer Village GreenBtwn Cayuga & Park Sts.,South Main St and Central Park Pl,Homer,NY,13077,Tina Minervini,6075915979,http://www.homerfarmersmarket.com,Sat  9am-1pmWed  4:30pm-7pm,May 10 - October 25,P/M,Y,Y,42.63595,-76.17869,"(42.63595, -76.17869)"
Cortland,Virgil Farmers' Market,4 Corners,Route 215 and Route 392,Virgil,NY,13045,Christine Applegate,6078356205,,Saturday  9am-12 Noon,June 14 - October 11,M,Y,Y,42.51057,-76.19472,"(42.51057, -76.19472)"
Delaware,Deposit Farmers' Market,"First United Methodist ChurchWIC Clinic, 107 Second St.",107 Second St,Deposit,NY,13754,Jeanne Darling,6078656531,http://www.ccedelaware.org,Thursday  10am-2pm,Aug 21 & Sep 18,M,Y,N,42.06233,-75.4249,"(42.06233, -75.4249)"
Delaware,Hobart Community Farmers' Market,"Stamford Town Hall Green,101 Maple Ave., Village of Hobart",101 Railroad Ave,Hobart,NY,12167,Andrew Flach,9178854490,http://www.hobartfarmersmarket.com,Friday  4pm-7pm,June 6 - September 26,M,Y,N,42.40471,-74.6262,"(42.40471, -74.6262)"
Delaware,Pakatakan Farmers' Market,Round Barn of Halcottville 46696 State Hwy 30btwn Margaretville & Roxbury,46696 State Route 30,Margaretville,NY,12455,Georgianna Fairlie,8452544290,http://roundbarnfarmersmkt.org,Saturday  9am-2pm,May 17 - October 11,P/M,Y,N,42.14907,-74.64738,"(42.14907, -74.64738)"
Delaware,Sidney Farmers' Market,Video Entertainment Plus parking lot 89 Main St.,89 Main St,Sidney,NY,13838,Jeanne Darling,6078656531,http://www.ccedelaware.org,Tuesday  10am-2pm,July 1 - September 30,M,Y,N,42.31426,-75.39045,"(42.31426, -75.39045)"
Delaware,Walton Farmers' Market,UHS Delaware Valley Hospital 2 Titus Place,2 Titus Place,Walton,NY,13856,Jeanne Darling,6078656531,http://www.ccedelaware.org,1st & 3rd Wed 10am-2pm,July 2 - October 15,M,Y,N,42.16464,-75.12792,"(42.16464, -75.12792)"
Dutchess,Amenia WINTER Farmers' Market,"Gymnasium, Town Hall",4988 Route 22,Amenia,NY,12501,Sophie Purdy Meili,8453734411,http://www.ameniafarmersmarket.com,"Saturday 10am - 2pm Every Saturday, Nov-Dec 1st &3rd Saturday, Jan-Apr",November - April,X/W/P,N,N,41.85134,-73.55493,"(41.85134, -73.55493)"
Dutchess,Arlington Farmers' Market,"Vassar College Alumni Lawn, 123 Raymond Ave. Poughkeepsie",123 Raymond Ave,Poughkeepsie,NY,12603,Bob Legacy,8454712863,http://www.arlingtonhasit.org,Thursday  3pm-7pm,June 5 - October 30,M,Y,N,41.68187,-73.89636,"(41.68187, -73.89636)"
Dutchess,Beacon Farmers' Market,"Riverside, pier across from train stationBy Long Dock Park, near Red Barn(Indoor - Scenic Hudson River Center)",55 Red Flynn Dr,Beacon,NY,12508,Dana O'Malley,8452349325,http://www.thebeaconfarmersmarket.com,Sunday  11am-3pm,Year-round,YR,N,Y,41.50576,-73.9854,"(41.50576, -73.9854)"
Dutchess,Hyde Park Farmers' Market,"Hyde Park Town Hall,4383 Route 9",4383 Route 9,Hyde Park,NY,12538,Dot Chenevert,8452299336,http://www.hydeparkfarmersmarket.org,Saturday  9am-2pm,June 6 - October 25,M,N,N,41.79069,-73.93645,"(41.79069, -73.93645)"
Dutchess,Millerton WINTER Farmers' Market,North East Community Ctr51 South Center Street,51 South Center Street,Millerton,NY,12546,Betsey McCall,5187894259,http://www.neccmillerton.org,"Saturday 10am - 2pmEvery Saturday, Nov - Dec2nd & 4th Saturday, Jan - Apr",November - April,X/W/P,N,Y,41.95288,-73.51083,"(41.95288, -73.51083)"
Dutchess,Pawling Farmers' Market,Pawling Village Green Charles Colman Blvd.,"Village Green, Charles Colman Blvd.",Pawling,NY,12564,Terry Deegan,9172244801,http://www.pawlingfarmersmarket.org,Saturday  9am-12 Noon,June 21 - September 20,M,Y,N,41.56315,-73.60143,"(41.56315, -73.60143)"
Dutchess,Rhinebeck Farmers' Market,"Municipal lot, 61 E. Market St.",61 East Market St,Rhinebeck,NY,12572,Cheryl Paff,9176921274,http://www.rhinebeckfarmersmarket.com,Sunday  10am-2pm,May 11 - November 23,P/M,Y,N,41.92738,-73.91021,"(41.92738, -73.91021)"
Dutchess,Rhinebeck WINTER Farmers' Market,"Town Hall, 80 E. Market St",80 East Market Street,Rhinebeck,NY,12572,Cheryl Paff,9176921274,http://www.rhinebeckfarmersmarket.com,Alternate Sundays 10am - 2pm,December 7 - April 26,X/W/P,N,N,41.92677,-73.90896,"(41.92677, -73.90896)"
Dutchess,Vassar College Winter Sun Farms WINTER Farmers' Market,"Vassar College, Raymond Ave.Poughkeepsie",124 Raymond Ave,Poughkeepsie,NY,12601,Mary Woodburn,3477217386,,"Monthly, 3rd Saturday 10am - 1pmDec 17, Jan 21, Feb 18, Mar 17, Apr 21",December - April,X/W/P,N,N,41.686,-73.89745,"(41.686, -73.89745)"
Erie,Alden Farmers' Market,13119 Broadway (Route 20)btwn Tractor Supply & Save a Lot,13119 Broadway,Alden,NY,14004,Nancy Hughes,7169370103,http://www.aldenny.org,Saturday  8:30am-1pm,May 17 - October 11,P/M,Y,N,42.89784,-78.49904,"(42.89784, -78.49904)"
Erie,Buffalo/Clinton Bailey Farmers' Market,1443-1517 Clinton St. corner of Clinton & Bailey Sts.,Bailey Ave and Clinton St,Buffalo,NY,14206,Sharon Baldi,7168222466,,Saturday* 6am - 3pmSun - Friday 8am - 5pm(Winter-Sat* Only 6-12)(* EBT/FMNP Accepted),Year-round,YR,Y,Y,42.87205,-78.81998,"(42.87205, -78.81998)"
Erie,Buffalo/University Community Farmers' Market,University at Buffalo - South Campus Main Street at Englewood Ave.,Main St and Kenmore Ave,Buffalo,NY,14214,Linwood Roberts,7168293524,http://www.ourheights.org/farmersmarket,Saturday  8am-1pm,May 17 - October 18,P/M,Y,N,42.95764,-78.81852,"(42.95764, -78.81852)"
Erie,Clarence Hollow Farmers' Market,Town parking lot 10717 Main St. (Rt. 5),10717 Main St,Clarence,NY,14031,Cheryl Anthony,7167591075,http://www.clarencehollow.org,Saturday  8am-1pm,June 7 - October 25,M,Y,N,42.9808,-78.58904,"(42.9808, -78.58904)"
Erie,Downtown Buffalo Country Market,"Buffalo Place, Main St. btwn Court & Church Sts.",Main St and Church St,Buffalo,NY,14202,Jackie Jonmaire,7168563150,http://www.buffaloplace.com,Tue/Thu  8am-2:30pm,May 15 - October 23,P/M,Y,N,42.88316,-78.87526,"(42.88316, -78.87526)"
Erie,East Aurora Farmers' Market,Aurora Village (TOPS) Plaza Grey St.,123 Grey St,East Aurora,NY,14052,Carolyn Husarek,7166520951,http://www.eastaurorafarmersmarket.com,Sat/Wed  7am-1pm,May - November,P/M,Y,N,42.76593,-78.63413,"(42.76593, -78.63413)"
Erie,Elmwood-Bidwell Farmers' Market,Elmwood Village Elmwood Ave & Bidwell Pkwy,Elmwood Ave and Bidwell Pkwy,Buffalo,NY,14222,Karen Vilonen,7166915388,http://www.elmwoodmarket.org,Saturday  8am-1pm,May 10 - November 29,P/M/X,Y,Y,42.92371,-78.87702,"(42.92371, -78.87702)"
Erie,Holland Farmers' Market,"Municipal lot, Route 16btwn Fire Hall & Ronnie's Pizzeria",49 North Main St,Holland,NY,14080,Marg Wnek,7165379590,,Sunday  8:30am-2pm,May 4 - November 23,P/M,Y,N,42.64204,-78.543,"(42.64204, -78.543)"
Erie,Kenmore Farmers' Market,"2919 Delaware Ave.,at Delaware Rd.",2919 Delaware Ave,Buffalo,NY,14217,Katie Burd,7168741784,,Saturday  8am-12:30pm,June 22 - October 26,M,N,N,42.96362,-78.8698,"(42.96362, -78.8698)"
Erie,MAP Delevan Grider Mobile Market,877 East Delevan Ave. Buffalo,877 E Delavan Avenue,Buffalo,NY,14215,Danielle Rovillo,7168825327,http://www.mass-ave.org,Alt. Wed 12 Noon-3pm,June 4 - October 29,M,Y,Y,42.92207,-78.82407,"(42.92207, -78.82407)"
Erie,MAP ELIM Mobile Market,70 Chalmers Ave Buffalo,70 Chalmers Avenue,Buffalo,NY,14214,Danielle Rovillo,7168825327,http://www.mass-ave.org,Thursday  4:30pm-6:30pm,June 5 - October 30,M,Y,Y,42.93819,-78.8358,"(42.93819, -78.8358)"
Erie,MAP Farmers' Market,Massachusetts Ave.,389 Massachusetts Avenue,Buffalo,NY,14213,Diane Picard,7168825327,http://www.mass-ave.org,Tuesday 3:30pm-6:30pmSaturday 10am-1pm,May 3 - November 1,P/M,Y,N,42.9128,-78.88781,"(42.9128, -78.88781)"
Erie,MAP Harmac Mobile Market,2201 Bailey Ave Buffalo,2201 Bailey Ave,Buffalo,NY,14211,Danielle Rovillo,7168825327,http://www.mass-ave.org,Alt. Friday  11am-1pm,June 6 - October 31,M,Y,Y,42.91408,-78.81292,"(42.91408, -78.81292)"
Erie,MAP Resurrection Mobile Market,3 Doat Street Buffalo,3 Doat Street,Buffalo,NY,14211,Danielle Rovillo,7168825327,http://www.mass-ave.org,Alt. Friday  11am-1pm,June 6 - October 31,M,Y,Y,42.90973,-78.8208,"(42.90973, -78.8208)"
Erie,MAP St. Lawrence Mobile Market,1520 East Delevan Ave Buffalo,1520 East Delavan Avenue,Buffalo,NY,14215,Danielle Rovillo,7168825327,http://www.mass-ave.org,Alt. Wed  12 Noon-3pm,June 4 - October 29,M,Y,Y,42.92326,-78.80043,"(42.92326, -78.80043)"
Erie,Springville/Gentner Farmers' Market,"Gentner Auction, 341 W. Main St. (Rt. 39)",341 West Main St,Springville,NY,14141,Donna Goldhawk,7165600198,,Wed  7am - 3pm,Year-round,YR,Y,N,42.50906,-78.67989,"(42.50906, -78.67989)"
Erie,Williamsville Mill Farmers' Market,56 E. Spring St. Williamsville,56 East Spring St,Williamsville,NY,14221,Ellie Grenauer,7169846572,http://www.williamsvillefarmersmarket.com,Saturday  8am-12:30pm,May 17 - October 25,P/M,Y,N,42.96368,-78.74459,"(42.96368, -78.74459)"
Essex,Elizabethtown Farmers' Market,Behind Adirondack Center Museum,7590 Court St,Elizabethtown,NY,12932,Vicky Rayl,5187721064,http://www.adirondackfarmersmarket.com,Friday  9am-1pm,May 16 - October 10,P/M,Y,N,44.21505,-73.59094,"(44.21505, -73.59094)"
Essex,Farm Fresh Fridays,"Green Goddess Natural Market 2051 Saranac Avenue, Lake Placid",2051 Saranac Avenue,Lake Placid,NY,12946,Beth Spaugh,5186437822,http://www.plattsburghfarmersmarket.com,Every other Friday 3pm -7pm,June 7 - September 24,M,N,N,44.29559,-73.99913,"(44.29559, -73.99913)"
Essex,Keene Farmers' Market,"Rt. 73, Marcy Airfield 1 mi S of Rt. 9N jct.",2253 State Route 73,Keene Valley,NY,12943,Vicky Rayl,5187721064,http://www.adirondackfarmersmarket.com,Sunday  9:30am-2pm,June 15 - October 12,M,Y,N,44.22067,-73.78561,"(44.22067, -73.78561)"
Essex,Lake Placid Farmers' Market,"Lake Placid Center for the Arts 17 Algonquin Dr., upper parking lot",17 Algonquin Dr,Lake Placid,NY,12946,Ian Ater,5188345012,http://www.ausablevalleygrange.com,Wednesday  9am-1pm,June 25 - October 8,M,Y,N,44.29367,-73.99766,"(44.29367, -73.99766)"
Essex,Lake Placid Tri-Lakes Online WINTER Market,"Drop-off at Green Goddess Foods183 Newman Road, Lake Placid",183 Sentinel Rd,Lake Placid,NY,12946,Sam Hendren,5185247247,http://www.ausablevalleygrange.com,2nd & 4th Wednesday12 Noon - 6:30pm,November - May,X/W/P,N,N,44.2703,-73.98212,"(44.2703, -73.98212)"
Essex,Port Henry Farmers' Market,Bonnie's Bistro parking lot 4264 Main St.,4264 Main St,Port Henry,NY,12974,Vicky Rayl,5187721064,http://www.adirondackfarmersmarket.com,Wednesday  9am-1pm,June 25 - August 27,M,Y,N,44.0445,-73.45837,"(44.0445, -73.45837)"
Essex,Schroon Lake Farmers' Market,Town Hall parking lot 15 Leland Ave,15 Leland Ave,Scroon Lake,NY,12870,Ian Ater,5188345012,http://www.ausablevalleygrange.com,Monday  9am-1pm,June 30 - September 1,M,Y,N,43.83669,-73.76065,"(43.83669, -73.76065)"
Essex,Ticonderoga Farmers' Market,Rt 9N at Moses Circle near Liberty Monument,State Route 9N and Hague Rd,Ticonderoga,NY,12883,Matt Courtright,5185856619,,Saturday  10am-1pm,July 5 - October 11,M,Y,N,43.84791,-73.43552,"(43.84791, -73.43552)"
Essex,Willsboro Farmers' Market,Route 22 - South of Champlain Bank,Maple St and NY Rt 22,Willsboro,NY,12996,Vicky Rayl,5187721064,http://www.adirondackfarmersmarket.com,Thursday  9am-1pm,June 19 - September 4,M,Y,N,44.36556,-73.39408,"(44.36556, -73.39408)"
Franklin,Malone Farmers' Market,"Malone Airport, Rt. 11across from Wal-Mart",Airport Road and US 11,Malone,NY,12953,Vicky Rayl,5187721064,http://www.adirondackfarmersmarket.com,Wed  12 Noon-4:30pm,June 11 - October 15,M,Y,Y,44.84733,-74.32773,"(44.84733, -74.32773)"
Franklin,Paul Smiths Farmers' Market,Visitor's Interpretive Center Route 30,8023 New York 30,Paul Smiths,NY,12970,Vicky Rayl,5187721064,http://www.adirondackfarmersmarket.com,Friday  2pm-5pm,June 27 - September 12,M,Y,N,44.4485,-74.25941,"(44.4485, -74.25941)"
Franklin,Saranac Lake Farmers' Market,Fusion Market across from boat launch,111 River St,Saranac Lake,NY,12983,Vicky Rayl,5187721064,http://www.adirondackfarmersmarket.com,Tuesday  10am-2pm,May 13 - September 30,P/M,Y,N,44.32413,-74.12598,"(44.32413, -74.12598)"
Franklin,Saranac Lake Village Farmers' Market,Riverside Park Main St. & River Sts.,River St and Main St,Saranac Lake,NY,12983,Ian Ater,5188345012,http://www.ausablevalleygrange.com,Saturday  9am-2pm,June 7 - October 25,M,Y,N,44.32503,-74.13178,"(44.32503, -74.13178)"
Franklin,Saranac Lake WINTER Farmers' Market,Harrietstown Hall,39 Main street,Saranac Lake,NY,12983,Ian Ater,5188345012,http://www.ausablevalleygrange.com,TBA,Nov 1 - Dec 27,X,N,N,44.32557,-74.13232,"(44.32557, -74.13232)"
Franklin,Tupper Lake Farmers' Market,Wild Center Museum,1 Museum Drive,Tupper Lake,NY,12986,Vicky Rayl,5187721064,http://www.adirondackfarmersmarket.com,Thursday  11am-3pm,June 5 - September 18,M,Y,N,44.21956,-74.43693,"(44.21956, -74.43693)"
Fulton,Gloversville Farmers' Market,Elm Street Pavilion btwn Church & Spring Sts.,9 Elm St,Gloversville,NY,12078,Anne Marie Johnson,5188636104,,Sat  8:30am-12:30pm,May 10 - October 18,P/M,Y,Y,43.05261,-74.34578,"(43.05261, -74.34578)"
Fulton,Johnstown Farmers' Market,"Sir William Park, parking lotbtwn Main and Church Sts.",Main and William,Johnstown,NY,12095,Anne Marie Johnson,5188636104,,Tuesday  3pm-6pm,May 20 - October 14,P/M,Y,Y,43.00636,-74.37421,"(43.00636, -74.37421)"
Fulton,Northville Farmers' Market,Waterfront Park behind Timeless Tavern,162 South Main St,Northville,NY,12134,Wendy Reu,5188634211,,Tue/Fri  2pm-5pm(Tue runs July 5-Sept 27),May 23 - October 10,P/M,Y,N,43.22568,-74.17102,"(43.22568, -74.17102)"
Genesee,Batavia Farmers' Market,K-Mart parking lot 8363 Lewiston Rd.,8363 Lewiston Rd,Batavia,NY,14020,Scott Christ,5853306161,,Tue/Fri  8am-4pm,June 3 - October 31,M,Y,Y,43.00952,-78.2072,"(43.00952, -78.2072)"
Genesee,Downtown Batavia Farmers' Market,Bank Street and Alva Place In parking lot across from Jerome Center,Bank Street and Alva Place,Batavia,NY,14020,Don Burkel,5853440900,http://www.downtownbataviany.com,Thursday  9am-3:30pm,June 19 - September 25,M,Y,N,42.99906,-78.18152,"(42.99906, -78.18152)"
Genesee,Genesee Country Farmers' Market,"Batavia Downs Casino parking lot 8315 Park Rd., Batavia",8315 Park Rd,Batavia,NY,14020,Sharon Brent,7165600853,http://www.gcfarmersmarket.com,Tue/Fri  8am-5pm,June 10 - October 31,M,Y,Y,43.01001,-78.20528,"(43.01001, -78.20528)"
Genesee,LeRoy Farmers' Market,"Trigon Park, Route 5 (Main St.)",Trigon Park,Le Roy,NY,14482,Sharon Jeary,5857682527,,Saturday  9am-12:30pm,June 21 - October 11,M,Y,N,42.97756,-77.98592,"(42.97756, -77.98592)"
Greene,Coxsackie Riverside Farmers' Market,Coxsackie Riverside Park,1 Betke Blvd,Coxsackie,NY,12051,Kimberly Bender,5183303008,,Wednesday  4pm-7pm,May 28 - October 22,P/M,Y,N,42.3524,-73.79703,"(42.3524, -73.79703)"
Hamilton,Speculator Farmers & Crafters Farmers' Market,Speculator Village Pavilion,State Route 30 and Elliot Ln,Speculator,NY,12164,Anna Smith,5185484521,http://www.speculatorchamber.com,Thursday  2pm-5pm,June 26 - September 18,M,Y,N,43.49679,-74.36073,"(43.49679, -74.36073)"
Herkimer,Dolgeville Farmers' Market,Kinney Drugs parking lotMain Street,55 North Main Street,Dolgeville,NY,13329,Carolyn Chavez,3157258999,,Saturday  8am-12 Noon,May 17 - October 31,P/M,Y,N,43.10522,-74.77016,"(43.10522, -74.77016)"
Herkimer,Herkimer Farmers' Market,Herkimer Arc Association parking lot 420 E. German St.,420 East German St,Herkimer,NY,13350,Cat Macera,3158950138,,Monday  1pm-5pm,TBD,,Y,Y,43.03464,-74.9865,"(43.03464, -74.9865)"
Herkimer,Ilion Farmers' Market,"Clapsaddle Farm, heated barns437 Otsego St. (State Rt 51 S)",437 Otsego St,Ilion,NY,13357,James Parker,3158944660,,Friday  12 Noon-6pmSaturday  10am-5pm,Year-round,YR,Y,N,43.00028,-75.04423,"(43.00028, -75.04423)"
Herkimer,Little Falls Farmers' Market,M&T Bank parking lot Albany St.,501 East Main St,Little Falls,NY,13365,Mary Davis,3158662619,,Saturday  8am-12 Noon,May 3 - October 25,P/M,Y,N,43.04308,-74.8589,"(43.04308, -74.8589)"
Herkimer,Mohawk Farmers' Market,Weller Park 41 West Main St.,41 West Main St,Mohawk,NY,13407,Marilyn Bridger,3158661671,,Wednesday  2pm-5pm,May 21 - October 8,P/M,Y,N,43.01075,-75.00846,"(43.01075, -75.00846)"
Herkimer,Old Forge Farmers' Market,Park Ave. behind Old Forge Hardware,Crosby Blvd and Park Ave,Old Forge,NY,13420,Nicholas Rose,3153693353,,Friday  1pm-5pm,June 27 - October 10,M,Y,Y,43.70893,-74.97286,"(43.70893, -74.97286)"
Herkimer,West Winfield Farmers' Market,"The Federated Church parking lot, 452 E. Main St.",452 E. Main St.,West Winfield,NY,13491,Patti Laymon,3157948154,,Wednesday  4pm-7pm,June 18 - October 22,M,Y,N,42.88486,-75.18946,"(42.88486, -75.18946)"
Jefferson,Alexandria Bay Farmers' Market,Kinney Drugs Parking Lot Rt. 12,21 New York 12,Alexandria Bay,NY,13607,Susan Boyer,3154829531,http://www.visitalexbay.org,Friday  9am-3pm,May 23 - September 19,P/M,Y,N,44.33191,-75.91425,"(44.33191, -75.91425)"
Jefferson,Cape Vincent Farmers' Market,Village Green  Broadway St. (Rt. 12),Broadway St and James St,Cape Vincent,NY,13618,Shelley Higgins,3156542481,http://www.capevincent.org,Saturday  8am-2pm,June 21 - October 11,M,Y,N,44.12838,-76.33472,"(44.12838, -76.33472)"
Jefferson,Carthage Farmers' Market,"Farmers Market Pavilion, Riverside Dr.(behind Carthage Rescue Squad)",215 Spring St,Carthage,NY,13619,Lori Boland,3154933590,http://www.carthageny.com,Friday  7am-2pm,May 30 - October 31,P/M,Y,Y,43.97798,-75.61225,"(43.97798, -75.61225)"
Jefferson,Greater Watertown-North Country Market,317 Washington St. Dulles State Office Bldg.,317 Washington Street,Watertown,NY,13601,Toni Miller,3157884400,http://www.watertownny.com,Wed  6:30am-3pm,May 28 - TBD,P/M,Y,Y,43.97173,-75.91116,"(43.97173, -75.91116)"
Jefferson,Stone Mills Farmers' Market,"Agricultural Museum, 30950 NY Rt. 180 off Rt. 12, S. of LaFargeville, W from I-81 Ex. 49",30950 Route 180,Stone Mills,NY,13656,Marguerite Raineri,3156582353,,Tuesday 4pm -7pm,June 19 - September 18,M,N,N,44.1127,-75.9755,"(44.1127, -75.9755)"
Jefferson,The Cheese Store Farmers' Market,"19401 NYS Rt. 3, Outer Arsenal St. Jefferson Bulk Milk Co-op, Watertown",State Route 3 and Old Rome Rd,Watertown,NY,13634,Brian Gorman,3157885257,,Friday  2:30pm-6:30pm,June 20 - October 3,M,Y,N,43.96974,-75.98619,"(43.96974, -75.98619)"
Jefferson,Watertown Saturday Farmers' Market,J.B. Wise Pavilion parking lot 175 Black River Parkway,175 Black River Parkway,Watertown,NY,13601,Samuel J. Biondolillo,3157732345,,Saturday  9am-2pm,June 14 - November 1,M,Y,Y,43.97651,-75.90988,"(43.97651, -75.90988)"
Kings,Albee Square Farmers' Market,"Fulton St., corner of Bond St.",Fulton Street and Bond Street,Brooklyn,NY,11201,Johanna Safar,9143181067,,Friday  11am-4pm,June 13 - October 31,P/M,Y,Y,40.6897,-73.98296,"(40.6897, -73.98296)"
Kings,Bartel-Pritchard Square Greenmarket,"Prospect Park West, at 15th St. (inside park entrance)",Bartel Pritchard Square,Brooklyn,NY,11215,Chelsea Whittaker,2127887476,http://www.grownyc.org,Wednesday  8am-3pm,May 7 - November 26,P/M,Y,Y,40.66094,-73.97979,"(40.66094, -73.97979)"
Kings,Bay Ridge Greenmarket,"Third Ave. & 95th St.,inside Walgreen's parking lot",Third Ave and 95th St,Brooklyn,NY,11209,Chelsea Whittaker,2127887476,http://www.grownyc.org,Saturday  8am-3pm,June 7 - November 22,M,Y,Y,40.61724,-74.03362,"(40.61724, -74.03362)"
Kings,Bensonhurst Greenmarket,18th Ave btwn 81st & 82nd Sts.,8112 Cristoforo Colombo Blvd,Brooklyn,NY,11214,Chelsea Whittaker,2127887476,http://www.grownyc.org,Sunday  9am-4pm,June 8 - November 23,M,Y,Y,40.60971,-73.99971,"(40.60971, -73.99971)"
Kings,Boro Park Greenmarket,14th Ave. btwn 49th & 50th Sts.,14th Ave and 49th St,Brooklyn,NY,11219,Chelsea Whittaker,2127887476,http://www.grownyc.org,Thursday  8am-3pm,July 10 - November 20,M,Y,Y,40.6337,-73.98992,"(40.6337, -73.98992)"
Kings,Brooklyn Borough Hall Greenmarket,"Court & Montague Sts.,Supreme Court Plaza",Court St and Montague St,Brooklyn,NY,11201,Chelsea Whittaker,2127887476,http://www.grownyc.org,Tue/Thu/Sat  8am-6pm,Year-round,YR,Y,Y,40.69375,-73.99047,"(40.69375, -73.99047)"
Kings,Brower Park Farmers' Market,"Brower Park, Crown Heights",Brower Park,Brooklyn,NY,12213,Phil Hawkins,9172736209,,Saturday  8am-4pm,June 14 - November 15,M,Y,N,40.67528,-73.94865,"(40.67528, -73.94865)"
Kings,Brownsville Community Farmers' Market,"514 Rockaway Ave.,Corner of Rockaway & Sutter Ave.",514 Rockaway Ave,Brooklyn,NY,11212,Taylor Gordon,3473884875,http://www.bmsfhc.org,Saturday  8am-4pm,July 19 - November 8,M,Y,Y,40.66746,-73.91048,"(40.66746, -73.91048)"
Kings,Brownsville Pitkin Ave Youthmarket,Pitkin Ave & Thomas S. Boyland St.,Thomas Boyland St and Pitkin Ave,Brooklyn,NY,11212,Jackie Bach,2127883818,http://www.grownyc.org/youthmarket,Saturday  9am-4pm,July 12 - November 22,M,Y,Y,40.66925,-73.91358,"(40.66925, -73.91358)"
Kings,Brownsville Rockaway Youthmarket,Rockaway & Livonia Aves. (corner),Rockaway Ave and Livonia Ave,Brooklyn,NY,11212,Jackie Bach,2127883818,http://www.grownyc.org/youthmarket,Friday  1pm-7pm,July 11 - November 21,M,Y,Y,40.66255,-73.90895,"(40.66255, -73.90895)"
Kings,Bushwick Broadway Farmers' Market,"Broadway, Halsey St. & Thomas Boyland",Halsey St and Broadway Ave.,Brooklyn,NY,11385,Travis Tench,5024940628,http://www.bushwickfarmersmarket.org,Thursday  10am-6pm,June 12 - November 13,M,Y,Y,40.69952,-73.91106,"(40.69952, -73.91106)"
Kings,Bushwick Campus Farmers' Market,Irving Ave. & Woodbine St.,Irving Ave and Woodbine Ave,Brooklyn,NY,11237,Travis Tench,5024940628,http://www.bushwickfarmersmarket.org,Thursday  2pm-5pm,June 12 - November 13,M,Y,Y,40.69755,-73.9118,"(40.69755, -73.9118)"
Kings,Bushwick Farmers' Market,"Bushwick Ave, btwn Boerum & Mckibbin Sts.",291 Bushwick Ave,Brooklyn,NY,11221,Travis Tench,5024940628,http://www.bushwickfarmersmarket.org,Wednesday  12 Noon-6pm,June 4 - November 12,M,Y,Y,40.7057,-73.93919,"(40.7057, -73.93919)"
Kings,Bushwick Maria Hernandez Farmers' Market,corner of Knickerbocker Ave. & Starr St.outside Maria Hernandez Park,Knickerbocker Ave and Starr St,Brooklyn,NY,11237,Travis Tench,5024940628,http://www.bushwickfarmersmarket.org,Saturday  9am-4pm,June 7 - November 15,M,Y,Y,40.70281,-73.92539,"(40.70281, -73.92539)"
Kings,Bushwick Myrtle Ave. Farmers' Market,Myrtle Ave. & Grove St.,Myrtle Ave and Grove St,Brooklyn,NY,11237,Travis Tench,5024940628,http://www.bushwickfarmersmarket.org,Friday 12 Noon-5 pm,June 6 - November 14,M,Y,Y,40.69916,-73.91492,"(40.69916, -73.91492)"
Kings,Carroll Gardens Greenmarket,"Carroll St., btwn Court & Smith Sts.",Carroll St and Court St,Brooklyn,NY,11231,Chelsea Whittaker,2127887476,http://www.grownyc.org,Sunday  8am-3pm,Year-round,YR,Y,Y,40.68106,-73.99653,"(40.68106, -73.99653)"
Kings,Coney Island Farmers' Market,Surf Ave. & W. 16th St.,Surf Ave and West 16th Street,Brooklyn,NY,11224,Lisa Jones,7182664653,http://www.astelladevelopment.org,Sunday  9am-3pm,June 22 - November 23,M,Y,Y,40.57542,-73.98337,"(40.57542, -73.98337)"
Kings,Cooper Park Farmers' Market,"Cooper Park, Maspeth Ave. & Olive St.,",Cooper Park,Brooklyn,NY,11211,Doug Ornstein,9149234837,http://www.downtoearthmarkets.com,Sunday  11am-4pm,May 25 - November 23,P/M,Y,Y,40.71607,-73.93868,"(40.71607, -73.93868)"
Kings,Cortelyou Greenmarket,"Cortelyou Rd., btwn Argyle & Rugby Rds.",Cortelyou Rd and Argyle Rd,Brooklyn,NY,11226,Chelsea Whittaker,2127887476,http://www.grownyc.org,Sunday  8am-4pm,Year-round,YR,Y,Y,40.64044,-73.96617,"(40.64044, -73.96617)"
Kings,Crown Heights Hamilton Metz Farmers' Market,"Hamilton Metz Park, Albany & Lefferts Aves.",Albany Ave and Lefferts Ave,Brooklyn,NY,11213,Nancie Katz,9176973745,http://www.seedsinthemiddle.org,Thursday  1pm-7pm,May 15 - November 13,P/M,Y,Y,40.66303,-73.94001,"(40.66303, -73.94001)"
Kings,Crown Heights Parkside Plaza Farmers' Market,"Parkside Ave.,btwn Ocean & Flatbush Aves.",1-199 Parkside Ave,Brooklyn,NY,11226,Nancie Katz,9176973745,http://www.seedsinthemiddle.org,Friday  9am-7pm,May 16 - November 14,P/M,Y,N,40.65531,-73.96123,"(40.65531, -73.96123)"
Kings,Crown Heights Prospect Park Farmers' Market,"Empire Blvd., entrance of Prospect Park",Empire Boulevard and Flatbush Ave,Brooklyn,NY,11225,Nancie Katz,9176973745,http://www.seedsinthemiddle.org,Saturday  9am-4pm,June - November,P/M,Y,N,40.66309,-73.96237,"(40.66309, -73.96237)"
Kings,Cypress Hills Youthmarket,"Fulton St., btwn Richmond & Logan Sts.",Fulton St and Logan St,Brooklyn,NY,11208,Jackie Bach,2127883818,http://www.grownyc.org/youthmarket,Friday  2pm-6pm,July 11 - November 21,M,Y,Y,40.68206,-73.87788,"(40.68206, -73.87788)"
Kings,East New York Farmers' Market I,"Schenck Ave., United Comm. Centersbtwn New Lots & Livonia",New Lots Ave and Schenck Ave,Brooklyn,NY,11207,Heather Horgan,7186497979,http://www.eastnewyorkfarms.org,Saturday  9am-3pm,June 28 - November 15,M,Y,Y,40.6647,-73.88658,"(40.6647, -73.88658)"
Kings,East New York Farmers' Market II,New Lots & Georgia Aves.,New Lots Ave and Alabama Ave,Brooklyn,NY,11207,Heather Horgan,7186497979,http://www.eastnewyorkfarms.org,Wed  3:30pm- 6:30pm,July 9 - October 29,M,Y,Y,40.66075,-73.8955,"(40.66075, -73.8955)"
Kings,East Williamsburg Youthmarket,Grand St. and Graham Ave.,Grand Street and Graham Avenue,Brooklyn,NY,11211,Jackie Bach,2127883818,http://www.grownyc.org/youthmarket,Thursday  9pm-4pm,July 10 - November 20,M,Y,Y,40.71165,-73.94391,"(40.71165, -73.94391)"
Kings,Fort Greene Park Greenmarket,"Washington Park,btwn Dekalb Ave. & Willoughby St.",Washington Park and DeKalb Ave,Brooklyn,NY,11205,Chelsea Whittaker,2127887476,http://www.grownyc.org,Saturday  8am-4pm,Year-round,YR,Y,Y,40.68962,-73.97313,"(40.68962, -73.97313)"
Kings,Graham Avenue Farmers' Market,"Cook St., east of Graham Ave.",Graham Ave and Cook St,Brooklyn,NY,11206,Betty Cooney,7183876643,http://www.grahamavebid.com,Saturday  8am-4pm,July 12 - October 25,M,Y,Y,40.70235,-73.94238,"(40.70235, -73.94238)"
Kings,Grand Army Plaza Greenmarket,Flatbush Ave. & Prospect Park West,Flatbush Ave and Grand Army Plaza,Brooklyn,NY,11238,Chelsea Whittaker,2127887476,http://www.grownyc.org,Saturday  8am-4pm,Year-round,YR,Y,Y,40.67412,-73.9695,"(40.67412, -73.9695)"
Kings,Greenpoint/ McCarren Park Greenmarket,Driggs St. at Union Ave.,Union Ave & Driggs Ave,Brooklyn,NY,11222,Chelsea Whittaker,2127887476,http://www.grownyc.org,Saturday  8am-3pm,Year-round,YR,Y,Y,40.72046,-73.95269,"(40.72046, -73.95269)"
Kings,Greenpoint/ McGolrick Park Farmers' Market,"McGolrick Park, Russel St. off Nassau Ave.,",McGolrick Park,Brooklyn,NY,11222,Doug Ornstein,9149234837,http://www.downtoearthmarkets.com,Sunday  11am-4pm,Year-round,YR,Y,Y,40.72444,-73.94336,"(40.72444, -73.94336)"
Kings,Harvest Home Coney Island Farmers' Market,"Ocean Parkway,btwn Ave Z & Shore Rd.",Ocean Pkwy and Avenue Z,Brooklyn,NY,11235,Maritza Owens,2128283361,http://www.harvesthomefm.org,Wed/Fri  8am-4pm,June 25 - November 26,M,Y,Y,40.58669,-73.96578,"(40.58669, -73.96578)"
Kings,Harvest Home Marcy Park Farmers' Market,Myrtle & Marcy Aves,Myrtle Ave and Marcy Ave,Brooklyn,NY,11206,Maritza Owens,2128283361,http://www.harvesthomefm.org,Thursday  8am-4pm,July 10 - November 20,M,Y,Y,40.69537,-73.94922,"(40.69537, -73.94922)"
Kings,Hattie Carthan After Church Farmers' Market,"49 Van Buren St., Hattie Carthan Herban Farm",49 Van Buren St,Brooklyn,NY,11221,Yonnette Fleming,7186383566,http://www.hattiecarthancommunitymarket.com,Sunday  1pm-6pm,July 27 - November 23,M,Y,Y,40.69024,-73.94359,"(40.69024, -73.94359)"
Kings,Hattie Carthan Community Farmers' Market,"363-365 Clifton Pl., Nostrand & Marcy Aves.",365 Clifton Pl,Brooklyn,NY,11216,Yonnette Fleming,7186383566,http://www.hattiecarthancommunitymarket.com,Saturday  9am-3pm,July 12 - November 22,M,Y,Y,40.68965,-73.94879,"(40.68965, -73.94879)"
Kings,High School for Public Service Youth Market,"600 Kingston Ave., Rutland & Winthrop Aves.",600 Kingston Ave,Brooklyn,NY,11203,Steve Frillman,2125942155,http://www.hspsfarm.blogspot.com,Wed  2:30pm-6:30pm,June 25 - October 29,M,Y,Y,40.65866,-73.94384,"(40.65866, -73.94384)"
Kings,Isabahlia Farmers' Market,"Ponell Street Garden, 410 Livonia Ave.",410 Livonia Ave,Brooklyn,NY,11212,Brenda Thompson-Duchene,7184983174,http://www.isabahlialoefinc.org,Saturday  8am-4pm,June 28 - November 1,M,Y,Y,40.6635,-73.90234,"(40.6635, -73.90234)"
Kings,Kensington Youthmarket,"Ft. Hamilton Pkwy, near librarybtwn E. 4th & E. 5th Sts.",Fort Hamilton Pkwy and East 5th St,Brooklyn,NY,11218,Jackie Bach,2127883818,http://www.grownyc.org/youthmarket,Saturday  9am-4pm,July 12 - November 22,M,Y,Y,40.64915,-73.97662,"(40.64915, -73.97662)"
Kings,Malcolm X Blvd. Community Farmers' Market,"Jackie Robinson Park,btwn Chauncy & Marion Sts.",Malcolm X Blvd and Marion St,Brooklyn,NY,11233,Rev. Robert Jackson,7183633085,http://www.brooklynrescuemission.org,Saturday  8am-3pm,July 12 - November 8,M,Y,Y,40.67975,-73.92865,"(40.67975, -73.92865)"
Kings,Marcy Plaza Community Farmers' Market,"1368 Fulton Street, Bedford Stuyvesantbtwn Marcy & Brooklyn Aves.,",1368 Fulton Street,Brooklyn,NY,11216,Rev. Robert Jackson,7183633085,http://www.brooklynrescuemission.org,Wednesday  9am-5pm,July 9 - October 29,M,Y,Y,40.68007,-73.94565,"(40.68007, -73.94565)"
Kings,Park Slope Farmers' Market,"Fourth St., off Fifth Ave., near PS 51",Fourth Street and Fifth Avenue,Brooklyn,NY,11215,Doug Ornstein,9149234837,http://www.downtoearthmarkets.com,"Sun  10am-5pm    Wed  3pm-7pm, May-Nov",Year-round,YR,Y,N,40.6722,-73.98379,"(40.6722, -73.98379)"
Kings,Project EATS Brownsville Farmers' Market,"Amboy St. Garden, Amboy St. & Blake Ave.",Amboy St and Blake Ave,Brooklyn,NY,11212,TBA TBA,5184576880,,Saturday  10am-4pm,June 7 - November 22,M,Y,N,40.66507,-73.91348,"(40.66507, -73.91348)"
Kings,PS 295 Farmers' Market,"330 18th St., btwn 6th & 7th Aves.",330 18th Street,Brooklyn,NY,11215,Jean Dykstra,9178877304,,Thursday  2:30pm-5pm,April 17 - November 13,P/M,Y,Y,40.66141,-73.98903,"(40.66141, -73.98903)"
Kings,Sunset Park Greenmarket,4th Ave. btwn 59th & 60th Sts.,4th Ave and 60th St,Brooklyn,NY,11220,Chelsea Whittaker,2127887476,http://www.grownyc.org,Saturday  8am-3pm,July 12 - November 22,M,Y,Y,40.64081,-74.01836,"(40.64081, -74.01836)"
Kings,Urban Oasis Farmers' Market,"Kingsboro Psychiatric Center,681 Clarkson Ave., btwn Troy Ave & 43rd St.",681 Clarkson Ave,Brooklyn,NY,11203,Beatrix McLeod,7182217132,,Wed  2pm-5:30pm,June 18 - November 12,M,Y,Y,40.65621,-73.93741,"(40.65621, -73.93741)"
Kings,Walt Shamel Farmers' Market,Walt Shamel Comm. Garden 1095 Dean Street,1095 Dean Street,Brooklyn,NY,11217,Desiree Ortiz,7186854816,,Saturday  8am-3pm,June 28 - October 25,M,Y,Y,40.67725,-73.95377,"(40.67725, -73.95377)"
Kings,Weeksville Heritage Center Youth Market,1698 Bergen St.,1698 Bergen St.,Brooklyn,NY,11213,Yemi Amu,7187565250,,Saturday  9am-2pm,July 5 - October 25,M,Y,Y,40.68121,-73.95661,"(40.68121, -73.95661)"
Kings,Williamsburg Greenmarket,Roebling & South 9th St.,Roebling Street and South 9th Street,Brooklyn,NY,11211,Chelsea Whittaker,2127887476,http://www.grownyc.org,Thursday  8am-4pm,July 10 - November 20,M,Y,Y,40.70836,-73.961,"(40.70836, -73.961)"
Kings,Windsor Terrace PS 154 Greenmarket,"11th Ave., btwn Sherman St. & Windsor Pl.",1625 11th Avenue,Brooklyn,NY,11215,Chelsea Whittaker,2127887476,http://www.grownyc.org,Sunday  9am-3pm,May 11 - December 21,P/M/X,Y,Y,40.65699,-73.97597,"(40.65699, -73.97597)"
Lewis,Lewis Co. General Hospital Farmers' Market,7785 N. State St. near Children's Clinic back parking lot,7785 North State St,Lowville,NY,13367,Tina Schell,3153765087,,Thursday  11am-3pm,June 19 - October 2,M,Y,Y,43.79588,-75.4981,"(43.79588, -75.4981)"
Lewis,Lowville Farmers' Market,Lewis County Fairgrounds 5473 Bostwick St.,5473 Bostwick Street,Lowville,NY,13367,Nichole Boucher,3152448616,,Saturday  8am-1pm,May 31 - October 25,P/M,Y,Y,43.79318,-75.49091,"(43.79318, -75.49091)"
Lewis,Lyons Falls Farmers' Market,Riverside Park 6904 Laura St.,6904 Laura St,Lyons Falls,NY,13368,Gary Mavis,3153485167,http://www.lyonsfallsalive.org,Tuesday  12 Noon-6pm,June 17 - October 7,M,Y,Y,43.61391,-75.35499,"(43.61391, -75.35499)"
Livingston,Avon Farmers' Market,Tops Market 270 E. Main St.,270 East Main St,Avon,NY,14414,Christine Quinlan,5852268118,http://www.avonfarmersmarket.org,Wednesday  3pm-6pm,June 18 - October 15,M,Y,N,42.91071,-77.73382,"(42.91071, -77.73382)"
Livingston,Dansville Farmers' Market,Airport Hanger parking lot 50 Maple St.,50 Maple St,Dansville,NY,14437,Gary Roth,5853352963,,Friday  11am-4pm,June 13 - October 10,M,Y,Y,42.56598,-77.70836,"(42.56598, -77.70836)"
Livingston,Geneseo Farmers' Market,Center St. at Main St.,Main St and Center St,Geneseo,NY,14454,Cate Concannon,5858804456,,Thursday  3pm-6:30pm,June 19 - October 16,M,Y,Y,42.79624,-77.81679,"(42.79624, -77.81679)"
Livingston,Lima Presbyterian Church Farmers' Market,Routes 5 & 20 corner of Route 15A,West Main St and Rochester St,Lima,NY,14485,Beverly Gillette,5855821737,,Tuesday  3pm-6pm,June 17 - October 28,M,Y,N,42.90496,-77.61175,"(42.90496, -77.61175)"
Livingston,Mount Morris Village Farmers' Market,36 N Main St.,36 North Main St,Mount Morris,NY,14510,Lisa Torcello,5856584160,,Tuesday  12 Noon-4pm,June 17 - October 7,M,Y,Y,42.73078,-77.87658,"(42.73078, -77.87658)"
Madison,Canastota Farmers' Market,Hickory & Main Sts.,South Main St and West Hickory St,Canastota,NY,13032,Lois Brown,3156979291,,Saturday  9am-2pm,July 12 - October 18,M,Y,N,43.07476,-75.75539,"(43.07476, -75.75539)"
Madison,Cazenovia Farmers' Market,Memorial ParkAlbany St.,Albany St and Sullivan St,Cazenovia,NY,13035,Aileen Randolph,3156554429,http://www.cazenoviachamber.com,Saturday  9am-2pm,May 10 - November 1,P/M,Y,N,42.92987,-75.8552,"(42.92987, -75.8552)"
Madison,Cazenovia WINTER Farmers' Market,"American Legion Hall, 26 Chenango St",26 Chenango Street,Cazenovia,NY,13035,Andy Shepard,3152248122,http://www.cazenoviachamber.com,"Monthly, 3rd Sat 10am-1pm",November 15 - April 18,X/W/P,N,N,42.9243,-75.85111,"(42.9243, -75.85111)"
Madison,Circa Restaurant WINTER Farmers Market,"76 Albany Street, Cazenovia",76 Albany Street,Cazenovia,NY,13035,Alicyn Hart,3156558768,,"Monthly, 1st Saturday 9am - 12 Noon",December - April,X/W/P,N,N,42.92963,-75.85316,"(42.92963, -75.85316)"
Madison,Hamilton Farmers' Market,"Village Green, Broad & E. Broad Sts.",Broad St and Payne St,Hamilton,NY,13346,Kim Taranto,3158241111,,Saturday  8am-1pm,May 3 - November 1,P/M,Y,Y,42.82684,-75.54436,"(42.82684, -75.54436)"
Madison,Hamilton Parry's Hardware WINTER Farmers' Market,100 Union StreetHamilton,100 Utica Street,Hamilton,NY,13346,Gwenn Werner,3158240002,,"Monthly, 3rd Saturday 8am - 12pm",November - April,X/W/P,N,N,42.83406,-75.55009,"(42.83406, -75.55009)"
Madison,Morrisville WINTER Farmers' Market,"Madison Hall, Rt. 20, Second floorNear Morrisville State College","Madison Hall Association, Morrisville, NY",Morrisville,NY,13408,Duane Button,3156843402,,"Monthly, 1st Saturday 9am - 1pm",November 2 - April 5,X/W/P,N,N,42.89868,-75.64018,"(42.89868, -75.64018)"
Madison,Oneida Farmers' Market,Oneida & Main Sts.,Oneida Street and Main Street,Oneida,NY,13421,Marty Winchell,3153634308,,Thursday  9am-2pm,June 5 - October 30,M,Y,Y,43.09617,-75.65251,"(43.09617, -75.65251)"
Madison,Poolville WINTER Farmers' Market,"Poolville Community Center (PCC), 7484 Willey Road",7484 Willey Road,Poolville,NY,13346,Susan Tallman,3158241720,,2nd & 4th  Saturday 10am - 12 Noon,November - April,X/W/P,N,N,42.77282,-75.50631,"(42.77282, -75.50631)"
Monroe,Brighton Farmers' Market,Brighton High School lot 1150 Winton Rd. South,1150 Winton Rd South,Rochester,NY,14618,Sue Gardner-Smith,5852698918,,Sunday  9am-1pm,May 25 - October 26,P/M,Y,Y,43.12204,-77.56808,"(43.12204, -77.56808)"
Monroe,Brighton WINTER Farmers' Market,Brookside Center220 Idlewood Rd.,220 Idlewood Road,Rochester,NY,14618,Sue Gardner-Smith,5852698918,,Sunday 1pm - 4pm,November 3 - April 13,X/W/P,N,N,43.11275,-77.56809,"(43.11275, -77.56809)"
Monroe,Brockport Farmers' Market,Market St. off Main St.,Main St and Market St,Brockport,NY,14420,Charlene Veltz,5856373602,,Sunday  8am-1pm,June 15 - October 26,M,Y,N,43.21556,-77.9385,"(43.21556, -77.9385)"
Monroe,Fairport Farmers' Market,"58 S. Main St., parking lotbehind Bank of America",58 South Main St,Fairport,NY,14450,Fritz May,5854213209,,Saturday  7am-12 Noon,May 3 - November 22,P/M,Y,N,43.09992,-77.44214,"(43.09992, -77.44214)"
Monroe,Foodlink Mobile Market-Affinity Place,"1 Affinity Ln, Rochester",1 Affinity Lane,Rochester,NY,14616,Mitch Gruber,5853283380,http://www.foodlinkny.org,Friday  3:45pm-4:30pm,July 7 - November 28,M,Y,Y,43.24028,-77.67841,"(43.24028, -77.67841)"
Monroe,Foodlink Mobile Market-AJHC Brown Sq,"322 Lake Ave., Rochester",322 Lake Ave,Rochester,NY,14608,Mitch Gruber,5853283380,http://www.foodlinkny.org,Monday  2:45pm-3:30pm,July 7 - November 28,M,Y,Y,43.17101,-77.62734,"(43.17101, -77.62734)"
Monroe,Foodlink Mobile Market-AJHC Holland,"82 Holland St., Rochester",82 Holland Street,Rochester,NY,14605,Mitch Gruber,5853283380,http://www.foodlinkny.org,Wed  10:45am-11:15am,July 7 - November 28,M,Y,Y,43.1693,-77.60223,"(43.1693, -77.60223)"
Monroe,Foodlink Mobile Market-AJHC Woodward,"480 Genesee St., Rochester",480 Genesee Street,Rochester,NY,14611,Mitch Gruber,5853283380,http://www.foodlinkny.org,Thursday  11am-11:45am,July 7 - November 28,M,Y,Y,43.14061,-77.63585,"(43.14061, -77.63585)"
Monroe,Foodlink Mobile Market-Andrews Terrace,"125 St. Paul St., Rochester",125 Saint Paul Street,Rochester,NY,14604,Mitch Gruber,5853283380,http://www.foodlinkny.org,Tuesday  1:30pm-2:30pm,July 7 - November 28,M,Y,Y,43.15872,-77.61047,"(43.15872, -77.61047)"
Monroe,Foodlink Mobile Market-Bronson Court,"51 Bronson Court, Rochester",51 Bronson Court,Rochester,NY,14608,Mitch Gruber,5853283380,http://www.foodlinkny.org,Tuesday  10:45am-11:15am,July 7 - November 28,M,Y,Y,43.14696,-77.62402,"(43.14696, -77.62402)"
Monroe,Foodlink Mobile Market-Buena Vista,"229 Avenue A, Rochester",229 Avenue A,Rochester,NY,14621,Mitch Gruber,5853283380,http://www.foodlinkny.org,Friday  10am-10:45am,July 7 - November 28,M,Y,Y,43.17777,-77.61842,"(43.17777, -77.61842)"
Monroe,Foodlink Mobile Market-Calvary Tabernacle,"324 Catherine St., Medina",324 Catherine Street,Medina,NY,14103,Mitch Gruber,5853283380,http://www.foodlinkny.org,Tuesday  2:45pm-3:30pm,July 7 - November 28,M,Y,Y,43.22179,-78.39424,"(43.22179, -78.39424)"
Monroe,Foodlink Mobile Market-Carlson Commons,"70 Coretta Scott Crossing, Rochester",70 Coretta Scott Crossing,Rochester,NY,14608,Mitch Gruber,5853283380,http://www.foodlinkny.org,Friday  10:45am-11:15am,July 7 - November 28,M,Y,Y,43.14336,-77.61973,"(43.14336, -77.61973)"
Monroe,Foodlink Mobile Market-Charles House,"71 Parkway, Rochester",71 Parkway,Rochester,NY,14608,Mitch Gruber,5853283380,http://www.foodlinkny.org,Wed  11am-11:45am,July 7 - November 28,M,Y,Y,43.16603,-77.63234,"(43.16603, -77.63234)"
Monroe,Foodlink Mobile Market-Charlotte Harbortown,"4575 Lake Ave, Rochester",4575 Lake Avenue,Rochester,NY,14612,Mitch Gruber,5853283380,http://www.foodlinkny.org,Friday  1:30pm-2:30pm,July 7 - November 28,M,Y,Y,43.25492,-77.61411,"(43.25492, -77.61411)"
Monroe,Foodlink Mobile Market-Charlotte Harbortown II,"60 River St., Rochester",60 River Street,Rochester,NY,14612,Mitch Gruber,5853283380,http://www.foodlinkny.org,Friday  2:45pm-3:30pm,July 7 - November 28,M,Y,Y,43.2444,-77.61607,"(43.2444, -77.61607)"
Monroe,Foodlink Mobile Market-Clifton Springs Hospital,"2 Coulter Rd.,Clifton Springs",2 Coulter Road,Rochester,NY,14432,Mitch Gruber,5853283380,http://www.foodlinkny.org,Monday  2:45pm-3:30pm,July 7 - November 28,M,Y,Y,42.96042,-77.13637,"(42.96042, -77.13637)"
Monroe,Foodlink Mobile Market-Danforth Towers,"140 West Ave, Rochester",140 West Avenue,Rochester,NY,14611,Mitch Gruber,5853283380,http://www.foodlinkny.org,Wed  1:30pm-2:30pm,July 7 - November 28,M,Y,Y,43.15038,-77.64166,"(43.15038, -77.64166)"
Monroe,Foodlink Mobile Market-DePaul Ridgeview,"109 Marburger St., Rochester",109 Marburger Street,Rochester,NY,14621,Mitch Gruber,5853283380,http://www.foodlinkny.org,Thursday  2:45pm-3:30pm,July 7 - November 28,M,Y,Y,43.19459,-77.60782,"(43.19459, -77.60782)"
Monroe,Foodlink Mobile Market-Dunn Tower,"Dunn Tower, Rochester",Dunn Tower Drive,Rochester,NY,14606,Mitch Gruber,5853283380,http://www.foodlinkny.org,Monday  1:30pm-2:30pm,July 7 - November 28,M,Y,Y,43.16924,-77.69727,"(43.16924, -77.69727)"
Monroe,Foodlink Mobile Market-Fairfield Village,"Luther Circle, Rochester",Luther Circle,Rochester,NY,14611,Mitch Gruber,5853283380,http://www.foodlinkny.org,Friday  10am-10:30am,July 7 - November 28,M,Y,Y,43.13379,-77.6285,"(43.13379, -77.6285)"
Monroe,Foodlink Mobile Market-Genesee County CAP,"5073 Clinton St., Batavia",5073 Clinton Street,Batavia,NY,14020,Mitch Gruber,5853283380,http://www.foodlinkny.org,Friday  2:45pm-3:30pm,July 7 - November 28,M,Y,Y,43.00299,-78.14748,"(43.00299, -78.14748)"
Monroe,Foodlink Mobile Market-Glenwood Gardens,"Glenwood Ave, Rochester",41 Kestrel Street,Rochester,NY,14613,Mitch Gruber,5853283380,http://www.foodlinkny.org,Thursday  10am-10:45am,July 7 - November 28,M,Y,Y,43.17522,-77.64432,"(43.17522, -77.64432)"
Monroe,Foodlink Mobile Market-Glide Court,"133 Glide Court, Rochester",133 Glide Street,Rochester,NY,14611,Mitch Gruber,5853283380,http://www.foodlinkny.org,Tuesday  10am-10:30am,July 7 - November 28,M,Y,Y,43.15426,-77.65409,"(43.15426, -77.65409)"
Monroe,Foodlink Mobile Market-Harriet Tubman,"100 William Warfield Drive, Rochester",100 William Warfield Drive,Rochester,NY,14605,Mitch Gruber,5853283380,http://www.foodlinkny.org,Thursday  10am-10:30am,July 7 - November 28,M,Y,Y,43.17128,-77.60973,"(43.17128, -77.60973)"
Monroe,Foodlink Mobile Market-Hudson Ridge,"401 Seneca Manor, Rochester",401 Seneca Manor Drive,Rochester,NY,14621,Mitch Gruber,5853283380,http://www.foodlinkny.org,Thursday  1:30pm-2:30pm,July 7 - November 28,M,Y,Y,43.19309,-77.60324,"(43.19309, -77.60324)"
Monroe,Foodlink Mobile Market-Lena Gantt,"86 Vienna St., Rochester",86 Vienna Street,Rochester,NY,14605,Mitch Gruber,5853283380,http://www.foodlinkny.org,Tuesday  3:45pm-4:30pm,July 7 - November 28,M,Y,Y,43.17032,-77.60607,"(43.17032, -77.60607)"
Monroe,Foodlink Mobile Market-Lexington Ct,"Lexington Court, Rochester",Lexington Court,Rochester,NY,14606,Mitch Gruber,5853283380,http://www.foodlinkny.org,Monday  11am-11:45am,July 7 - November 28,M,Y,Y,43.17848,-77.66563,"(43.17848, -77.66563)"
Monroe,Foodlink Mobile Market-Los Flamboyanes,"100 Borinquen Plaza, Rochester",100 Borinquen Plaza,Rochester,NY,14605,Mitch Gruber,5853283380,http://www.foodlinkny.org,Thursday  3:45pm-4:30pm,July 7 - November 28,M,Y,Y,43.17086,-77.61262,"(43.17086, -77.61262)"
Monroe,Foodlink Mobile Market-Lyndonville Town Hall,"8 South Main St., Lyndonville",8 South Main Street,Lyndonville,NY,14098,Mitch Gruber,5853283380,http://www.foodlinkny.org,Tuesday  1:30pm-2:15pm,July 7 - November 28,M,Y,Y,43.32099,-78.38955,"(43.32099, -78.38955)"
Monroe,Foodlink Mobile Market-Maplewood YMCA,"25 Driving Park Ave, Rochester",25 Driving Park Ave,Rochester,NY,14613,Mitch Gruber,5853283380,http://www.foodlinkny.org,Tuesday  11am-11:45am,July 7 - November 28,M,Y,Y,43.18033,-77.63015,"(43.18033, -77.63015)"
Monroe,Foodlink Mobile Market-Oak Orchard Health,"300 West Ave., Brockport",300 West Avenue,Rochester,NY,14420,Mitch Gruber,5853283380,http://www.foodlinkny.org,Thursday  2:45pm-3:30pm,July 7 - November 28,M,Y,Y,43.221,-77.95066,"(43.221, -77.95066)"
Monroe,Foodlink Mobile Market-Pinnacle Place,"919 S Clinton Ave., Rochester",919 Clinton Ave South,Rochester,NY,14620,Mitch Gruber,5853283380,http://www.foodlinkny.org,Tuesday  10am-10:45am,July 7 - November 28,M,Y,Y,43.14006,-77.59637,"(43.14006, -77.59637)"
Monroe,Foodlink Mobile Market-Royal Apartments,"103 W Main St., LeRoy",103 West Main Street,Leroy,NY,14482,Mitch Gruber,5853283380,http://www.foodlinkny.org,Friday  1:30pm-2:15pm,July 7 - November 28,M,Y,Y,42.97689,-78.00219,"(42.97689, -78.00219)"
Monroe,Foodlink Mobile Market-Sandy Creek,"Visions Pathstone Housing Lydon St. Extension, Albion",7 Lydun Drive,Albion,NY,14411,Mitch Gruber,5853283380,http://www.foodlinkny.org,Thursday  1:30pm-2:15pm,July 7 - November 28,M,Y,Y,43.25639,-78.17898,"(43.25639, -78.17898)"
Monroe,Foodlink Mobile Market-Savannah Towers I,"Savannah St., Rochester",Savannah Street,Rochester,NY,14607,Mitch Gruber,5853283380,http://www.foodlinkny.org,Monday  3:45pm-4:30pm,July 7 - November 28,M,Y,Y,43.15361,-77.59897,"(43.15361, -77.59897)"
Monroe,Foodlink Mobile Market-Savannah Towers II,"15 Savannah St., Rochester",15 Savannah Street,Rochester,NY,14607,Mitch Gruber,5853283380,http://www.foodlinkny.org,Thu  10:45am-11:15am,July 7 - November 28,M,Y,Y,43.1543,-77.59886,"(43.1543, -77.59886)"
Monroe,Foodlink Mobile Market-Seneca Manor,"145 Seneca Manor, Rochester",145 Seneca Manor Drive,Rochester,NY,14621,Mitch Gruber,5853283380,http://www.foodlinkny.org,Monday  10:45am-11:15am,July 7 - November 28,M,Y,Y,43.19269,-77.60545,"(43.19269, -77.60545)"
Monroe,Foodlink Mobile Market-St. Ann's,"1500 Portland Ave., Rochester",1500 Portland Avenue,Rochester,NY,14621,Mitch Gruber,5853283380,http://www.foodlinkny.org,Wed  10am-10:45am,July 7 - November 28,M,Y,Y,43.19411,-77.5813,"(43.19411, -77.5813)"
Monroe,Foodlink Mobile Market-St. Simons,"360 St. Paul St., Rochester",360 Saint Paul Street,Rochester,NY,14605,Mitch Gruber,5853283380,http://www.foodlinkny.org,Tuesday  2:45pm-3:30pm,July 7 - November 28,M,Y,Y,43.16357,-77.61088,"(43.16357, -77.61088)"
Monroe,Foodlink Mobile Market-Susan B. Anthony Apts,"127 First St., Rochester",127 First Street,Rochester,NY,14605,Mitch Gruber,5853283380,http://www.foodlinkny.org,Wed  10am-10:30am,July 7 - November 28,M,Y,Y,43.16893,-77.58809,"(43.16893, -77.58809)"
Monroe,Foodlink Mobile Market-The Hamilton,"185 Mt. Hope Ave, Rochester",185 Mount Hope Avenue,Rochester,NY,14620,Mitch Gruber,5853283380,http://www.foodlinkny.org,Monday  10:45am-11:15am,July 7 - November 28,M,Y,Y,43.14573,-77.61013,"(43.14573, -77.61013)"
Monroe,Foodlink Mobile Market-University Tower,"625 University Tower, Rochester",625 University Avenue,Rochester,NY,14607,Mitch Gruber,5853283380,http://www.foodlinkny.org,Wed 1:30pm-2:15pm,July 7 - November 28,M,Y,Y,43.15607,-77.58624,"(43.15607, -77.58624)"
Monroe,Foodlink Mobile Market-Van Auker Apts.,"150 Van Auker St., Rochester",150 Van Auker Street,Rochester,NY,14608,Mitch Gruber,5853283380,http://www.foodlinkny.org,Wed  3:45pm-4:30pm,July 7 - November 28,M,Y,Y,43.14997,-77.62109,"(43.14997, -77.62109)"
Monroe,Foodlink Mobile Market-Voter's Block Community,"431 W Main St., Rochester",431 West Main Street,Rochester,NY,14608,Mitch Gruber,5853283380,http://www.foodlinkny.org,Wed  2:45pm-3:30pm,July 7 - November 28,M,Y,Y,43.15245,-77.62424,"(43.15245, -77.62424)"
Monroe,Foodlink Mobile Market-Wilson Community,"251 Joseph Ave, Rochester",251 Joseph Avenue,Rochester,NY,14605,Mitch Gruber,5853283380,http://www.foodlinkny.org,Friday  11am-11:45am,July 7 - November 28,M,Y,Y,43.16813,-77.60731,"(43.16813, -77.60731)"
Monroe,Foodlink Mobile Market-YMCA SW,"597 Thurston Rd., Rochester",597 Thurston Road,Rochester,NY,14619,Mitch Gruber,5853283380,http://www.foodlinkny.org,Monday  10am-10:45am,July 7 - November 28,M,Y,Y,43.13297,-77.65096,"(43.13297, -77.65096)"
Monroe,Genesee Valley RMA Farmers' Market,"Administration Bldg. (south parking lot) 900 Jefferson Rd., Henrietta",900 Jefferson Rd.,Henrietta,NY,14623,"William Mulligan, Jr.",5854244600,http://www.geneseevalleyregionalmarketauthority.com,Friday  11am-5pm,May 30 - October 31,M,Y,N,43.09005,-77.61401,"(43.09005, -77.61401)"
Monroe,Greece Ridge Mall Farmers' Market,"Ridge & Long Pond Rds. Sears overflow Parking Lot, Rochester",317 Greece Ridge Center Dr,Greece,NY,14626,Melanie Fazio,5852251140,http://www.themallatgreeceridge.com,Thu/Sat  9am-3pm,June 7 - October 25,M,Y,N,43.20477,-77.6959,"(43.20477, -77.6959)"
Monroe,Highland Park WINTER Farmers' Market,"Cornell Cooperative Ext249 Highway Ave, 14620",249 Highland Avenue,Rochester,NY,14620,Del Ippolito,5855687835,,Wednesday 3pm - 6pm,November 2 - May 2,X/W/P,N,Y,43.12867,-77.6075,"(43.12867, -77.6075)"
Monroe,Irondequoit Farmers' Market,"Town Hall Lawn 1280 Titus Ave., Rochester",1280 Titus Ave,Rochester,NY,14617,Dianne Schleifer,5853366085,http://www.irondequoit.org,Thursday  4pm-Dusk,May 29 - October 23,P/M,Y,Y,43.21118,-77.58154,"(43.21118, -77.58154)"
Monroe,Monroe Village Farmers' Market,"Blessed Sacrament Church lot 534 Oxford St., Rochester",534 Oxford St.,Rochester,NY,14607,Allen Krisiloff,5854734470,http://www.monroevillagefarmersmarket.org,Wednesday  4pm-7pm,June 11 - October 15,M,Y,Y,43.14443,-77.58914,"(43.14443, -77.58914)"
Monroe,North Chili Farmers' Market,"Methodist Church 2200 Westside Drive, Rochester",2200 Westside Dr,North Chilli,NY,14514,James Miller,5852930841,,Saturday  8am-1pm,June 14 - October 25,M,Y,N,43.12648,-77.78969,"(43.12648, -77.78969)"
Monroe,Penfield Farmers' Market,Grossman's Garden & Home1801 Fairport Nine Mile Point Rd,1801 Fairport 9 Mile Point Rd,Fairport,NY,14526,Rebecca Ward,5853771982,,Sunday 10am - 2pm,Year-round,YR,N,N,43.12338,-77.44146,"(43.12338, -77.44146)"
Monroe,Pittsford Farmers' Market,"Pittsford Colony Plaza,3400 Monroe Ave.",3400 Monroe Ave,Rochester,NY,14618,Cindy Christ,5857338104,,Tue/Sat  9am-1pm,May 6 - November 25,P/M,Y,N,43.10222,-77.53524,"(43.10222, -77.53524)"
Monroe,Rochester/441  Ministries Youth Market,441 Parsells Ave.,441 Paresells Ave,Rochester,NY,14609,Mitch Gruber,5853283380,http://www.foodlinkny.org,Wednesday  4pm-7pm,July 9 - September 10,M,Y,Y,43.16583,-77.5666,"(43.16583, -77.5666)"
Monroe,Rochester/Aenon Baptist Youth Market,175 Genesee St.,175 Genesee St,Rochester,NY,14611,Mitch Gruber,5853283380,http://www.foodlinkny.org,Wednesday  11am-2pm,July 9 - September 10,M,Y,Y,43.1466,-77.63608,"(43.1466, -77.63608)"
Monroe,Rochester/Bridges to Wellness Youth Market,700 North St. (Gantt Comm Ctr),700 North Street,Rochester,NY,14605,Mitch Gruber,5853283380,http://www.foodlinkny.org,Tuesday  11am-2pm,July 8 - September 9,M,Y,Y,43.17027,-77.59682,"(43.17027, -77.59682)"
Monroe,Rochester/Cathedral Community Youth Market,296 Flower City Park,296 Flower City Park,Rochester,NY,14615,Mitch Gruber,5853283380,http://www.foodlinkny.org,Wednesday  2pm-6pm,July 9 - September 10,M,Y,Y,43.19312,-77.63275,"(43.19312, -77.63275)"
Monroe,Rochester/Deaf Club Youth Market,1564 Lyell Ave.,1564 Lyell Ave,Rochester,NY,14606,Mitch Gruber,5853283380,http://www.foodlinkny.org,Saturday  10am-1pm,July 12 - September 13,M,Y,Y,43.165,-77.66715,"(43.165, -77.66715)"
Monroe,Rochester/East Side WINTER Farmers' Market,"2555 Baird Rd., Penfield, NY",255 Baird Road,Penfield,NY,14526,Mary Bartolotta,5853489022,,Tuesday 3pm - 6pm,November - April,X/W/P,N,N,43.1347,-77.46387,"(43.1347, -77.46387)"
Monroe,Rochester/Jefferson Ave. Youth Market,309 Jefferson Ave.,309 Jefferson Ave,Rochester,NY,14611,Mitch Gruber,5853283380,http://www.foodlinkny.org,Thursday  3pm-7pm,July 10 - September 11,M,Y,Y,43.14878,-77.62944,"(43.14878, -77.62944)"
Monroe,Rochester/Project Hope Youth Market,92 Conkey Ave.,Clifford Ave and Conkey Ave,Rochester,NY,14621,Mitch Gruber,5853283380,http://www.foodlinkny.org,Saturday  12 Noon-3pm,July 12 - September 13,M,Y,Y,43.17472,-77.6196,"(43.17472, -77.6196)"
Monroe,Rochester Public Market,280 N. Union St.off East Main St.,280 North Union St.,Rochester,NY,14609,Cindy De Coste,5854286907,http://www.cityofrochester.gov/publicmarket,Tue/Thu  6am-1pm    Sat  5am-3pm,Year-round,YR,Y,Y,43.1657,-77.59016,"(43.1657, -77.59016)"
Monroe,Rochester/Seedfolk Youth Market,2271 East Main St.,2271 East Main St,Rochester,NY,14609,Mitch Gruber,5853283380,http://www.foodlinkny.org,Friday  3pm-6pm,July 11 - September 12,M,Y,Y,43.15884,-77.55016,"(43.15884, -77.55016)"
Monroe,Rochester/South Wedge Farmers' Market,100 Alexander St. lot at S. Clinton Ave.,100 Alexander St,Rochester,NY,14620,Sue Gardner-Smith,5852698918,,Thursday  4pm-7pm,June 12 - October 16,M,Y,Y,43.14598,-77.60243,"(43.14598, -77.60243)"
Monroe,Rochester/St. Mark's & St. John's Youth Market,1245 Culver Road,1245 Culver Rd,Rochester,NY,14609,Mitch Gruber,5853283380,http://www.foodlinkny.org,Saturday  9:30am-12:30pm,July 12 - September 13,M,Y,Y,43.16807,-77.56219,"(43.16807, -77.56219)"
Monroe,Rochester/St. Stephen's Youth Market,350 Chili Ave.,350 Chili Avenue,Rochester,NY,14611,Mitch Gruber,5853283380,http://www.foodlinkny.org,Thursday  5pm-8pm,July 10 - September 11,M,Y,Y,43.1473,-77.64607,"(43.1473, -77.64607)"
Monroe,Rochester/Washington Square Farmers' Market,"Washington Square Park,181 S. Clinton Ave.",181 South Clinton Ave,Rochester,NY,14604,Mitch Gruber,5853283380,http://www.foodlinkny.org,Wednesday  11am-2pm,June 25 - September 3,M,Y,Y,43.15352,-77.60533,"(43.15352, -77.60533)"
Monroe,Rochester/Westside Farmers' Market,St. Monica's Church parking lot 831 Genesee St.,831 Genesee St,Rochester,NY,14611,Jackie Farrell,5854368999,http://www.westsidemarketrochester.com,Tuesday  4pm-7:30pm,June 10 - October 14,M,Y,Y,43.13373,-77.636,"(43.13373, -77.636)"
Monroe,Scottsville Midweek Farmers' Market,61 Main Street American Legion Pkg Lot,61 Main St,Scottsville,NY,14546,Marcy McCall,5858893981,,Wednesday  4pm -7pm,June 4 - September 24,M,Y,N,43.0193,-77.75548,"(43.0193, -77.75548)"
Monroe,Webster Joe Obbie Farmers' Market,Webster Town Center Holt & Ridge Rd.,Holt Road and Ridge Road,Webster,NY,14580,Fedele Noto,3155898703,,Wednesday  2pm - 6pmSaturday  8am - 1pm,June 14 - November 1,M,Y,Y,43.21035,-77.44665,"(43.21035, -77.44665)"
Montgomery,Amsterdam Sanford Farm Farmers' Market,"Sanford Stud Farm, Rt 30 Nbtwn Walmart & Walgreens",110 Town Square Dr,Amsterdam,NY,12010,Anne Marie Johnson,5188636104,,Wednesday  3pm-6pm,May 14 - October 29,P/M,Y,Y,42.96078,-74.18542,"(42.96078, -74.18542)"
Montgomery,Canajoharie Farmers' Market,Arkell Museum lot 2 Erie Blvd.,2 Erie Blvd,Canajoharie,NY,13317,Dolores Jacksland,5186734434,http://www.canajohariefarmersmarket.com,Saturday  10am-1pm,June 7 - October 25,M,Y,N,42.90736,-74.572,"(42.90736, -74.572)"
Montgomery,Fort Plain Farmers' Market,Parking lot on 12 Willet St.,12 Willet Street,Fort Plain,NY,13339,Annette Bayes,5189934271,,Thursday  1pm-5pm,May 29 - November 27,P/M,Y,N,42.93177,-74.62118,"(42.93177, -74.62118)"
Nassau,Anna House Farmers' Market,2150 Hempstead Tkpe Elmont,2150 Hempstead Turnpike,Elmont,NY,11003,Dana Youkilis,5163589250,,Tuesday  10:30am-1:30pm,July 1 - September 23,M,Y,Y,40.7125,-73.72211,"(40.7125, -73.72211)"
Nassau,Baldwin WINTER Farmers' Market,American Legion Hall2754 Grand Ave.,2754 Grand Avenue,Baldwin,NY,11510,Jaime Greci,5162977997,http://www.longislandfarmersmarkets.com,Saturday 9am - 1pm,December 7 - April 26,X/W/P,N,N,40.64249,-73.6128,"(40.64249, -73.6128)"
Nassau,Children's Nest Farmers' Market,2350 Merrick Ave. Merrick,2350 Merrick Avenue,Merrick,NY,11566,Dana Youkilis,5163589250,,Thursday  3:30pm-6:30pm,July 3 - September 25,M,Y,Y,40.6601,-73.55131,"(40.6601, -73.55131)"
Nassau,Crossroads Farmers' Market,"Crossroads Farm 480 Hempstead Ave., Malverne",480 Hempstead Ave,Malverne,NY,11565,Jaime Greci,5162977997,http://www.longislandfarmersmarkets.com,Thursday  10am-4pm,June 5 - November 20,M,Y,N,40.6805,-73.66384,"(40.6805, -73.66384)"
Nassau,Freeport Community Youth Market,Freeport Recreation Center Parking Lot 130 East Merrick Rd.,130 East Merrick Rd,Freeport,NY,11520,Debra Wheat-Williams,5163783415,http://www.cedarmore.org,Saturday  11am-4pm,July 12 - October 25,M,Y,Y,40.65449,-73.57474,"(40.65449, -73.57474)"
Nassau,Garden City Farmers' Market,"101 Co. Seat Dr., off Old Country Rd3rd parking lot behind Supreme Ct. Bldg.",County Seat Dr and Supreme Court Dr,Garden City,NY,11530,Ethel Terry,6313233653,http://www.longislandgrowersmarket.com,Tuesday  7am-1pm,May 27 - November 25,P/M,Y,N,40.73609,-73.63505,"(40.73609, -73.63505)"
Nassau,Kennedy Plaza Farmers' Market,"1 West Chester St., Long BeachCorner of National Blvd. & Park Ave.,",1 West Chester St,Long Beach,NY,11561,Bernadette Martin,6316785227,http://www.ligreenmarket.org,Wed  10am-4pmSaturday 9am-2pm,May 3 - November 26,P/M,Y,Y,40.58941,-73.66594,"(40.58941, -73.66594)"
Nassau,Kennedy Plaza WINTER Farmers' Market,"Kennedy Plaza City Hall, One West Chester Street, Long Beach",1 Westchester Street,Long Beach,NY,11561,TBA TBA,5184576880,,Saturday 10am - 2pm,December 7 - February 22,X/W,N,Y,40.5896,-73.66636,"(40.5896, -73.66636)"
Nassau,Kings Park Farmers' Market,"Route 25A, Main St. Municipal LotAcross from Fire Dept., 2 Main St.",1 E. Main St.,Kings Park,NY,11754,Bernadette Martin,6316785227,http://www.ligreenmarket.org,Sunday  9am-2pm,May 18 - November 23,P/M,Y,Y,40.88422,-73.25243,"(40.88422, -73.25243)"
Nassau,Locust Valley Farmers' Market,115 Forest Ave.across from Post Office,115 Forest Ave,Locust Valley,NY,11560,Ethel Terry,6313233653,http://www.longislandgrowersmarket.com,Saturday  7am-12 Noon,June 7 - November 22,M,Y,N,40.87555,-73.59994,"(40.87555, -73.59994)"
Nassau,New Cassel Youth Market,"First Baptist Church parking lot 211 Garden St., Westbury",211 Garden St,Westbury,NY,11590,Traci Caines,5169979399,,Saturday  11am-3pm,July 12 - November 22,M,Y,Y,40.76179,-73.56789,"(40.76179, -73.56789)"
Nassau,New Hyde Park Farmers' Market,"Municipal parking lot, near Village Hall 1441 Jericho Turnpike",1441 Jericho Turnpike,New Hyde Park,NY,11040,Jaime Greci,5162977997,http://www.longislandfarmersmarkets.com,Saturday  8am-1pm,May 31 - November 22,P/M,Y,Y,40.73386,-73.68046,"(40.73386, -73.68046)"
Nassau,Port Washington Organic Farmers' Market,Port Washington Town Dock Main St.,Main St and Covert St,Port Washington,NY,11050,Patti Wood,5168830887,,Saturday  8am-12 Noon,June 7 - October 25,M,Y,N,40.83153,-73.7019,"(40.83153, -73.7019)"
Nassau,Rockville Centre Farmers' Market,Sunrise Hgwy & Longbeach Rd.,Sunrise Hwy and Long Beach Rd,Rockville Centre,NY,11570,Ethel Terry,6313233653,http://www.longislandgrowersmarket.com,Sunday  7am-12 Noon,May 25 - November 23,P/M,Y,N,40.65712,-73.6321,"(40.65712, -73.6321)"
Nassau,Roosevelt Community Youth Market,380 Nassau Rd. Family Health Clinic parking lot,380 Nassau Rd,Roosevelt,NY,11575,Clara Gillens,5165442955,http://www.rooseveltfarmersmarket.com,Sunday  11am-4pm,July 13 - October 26,M,Y,Y,40.68185,-73.59092,"(40.68185, -73.59092)"
Nassau,Roslyn-North Hills Farmers' Market,Christopher Morley Park 500 Searing Town Rd.,500 Searingtown Rd,Roslyn Heights,NY,11577,Ethel Terry,6313233653,http://www.longislandgrowersmarket.com,Wednesday  7am-1pm,May 28 - November 26,P/ M,Y,N,40.78188,-73.66277,"(40.78188, -73.66277)"
Nassau,Seaford Farmers' Market,"Seaford Railroad Station, Parking Lot 3Sunrise Highway, Across from 7-Eleven",Seaford Railroad Station,Seaford,NY,11783,Ethel Terry,6313233653,http://www.longislandgrowersmarket.com,Saturday  7am-12 Noon,May 24 - November 22,P/M,Y,N,40.67572,-73.48657,"(40.67572, -73.48657)"
Nassau,Spinney Hill Farmers' Market,"125 Community Drive,Northshore LIJ parking lot, Great Neck",125 Community Drive,Great Neck,NY,11021,Bernadette Martin,6316785227,http://www.ligreenmarket.org,Sunday  10am-2pm,July 13 - October 26,M,Y,Y,40.78414,-73.70454,"(40.78414, -73.70454)"
Nassau,YALE Farmers' Market,"Yale Child Care Center 160 Baldwin Rd., Hempstead",160 Baldwin Road,Hempstead,NY,11550,Dana Youkilis,5163589250,,Tuesday  3:30pm-6:30pm,July 1 - September 23,M,Y,Y,40.69657,-73.61598,"(40.69657, -73.61598)"
New York,Abingdon Square Greenmarket,West 12th St  & 8th Ave,Hudson St and 8th Ave,New York,NY,10014,Chelsea Whittaker,2127887476,http://www.grownyc.org,Saturday  8am-2pm,Year-round,YR,Y,Y,40.73691,-74.00557,"(40.73691, -74.00557)"
New York,Bowling Green Greenmarket,"Broadway, at Battery Place",Broadway and Bowling Green,New York,NY,10004,Chelsea Whittaker,2127887476,http://www.grownyc.org,Tue/Thu  8am-5pm,Year-round,YR,Y,Y,40.70453,-74.01327,"(40.70453, -74.01327)"
New York,Broadway French Farmers' Market,"Broadway, btwn 35th & 36th Sts.",Broadway and 35th Street,Manhattan,NY,10018,Johanna Safar,9143181067,,Tue/Wed/Fri  11am-6pm,May 2 - November 26,P/M,Y,N,40.75069,-73.98783,"(40.75069, -73.98783)"
New York,Chelsea Farmers' Market,"23rd Street & Ninth Ave., N. of 23rd St.",23rd Street and 9th Avenue,New York,NY,10011,Doug Ornstein,9149234837,http://www.downtoearthmarkets.com,Saturday  9am-5pm,June 7 - November 22,M,Y,N,40.74651,-74.00137,"(40.74651, -74.00137)"
New York,City Hall Park Greenmarket,"Broadway, at Chambers St.",Broadway and Chambers St,New York,NY,10007,Chelsea Whittaker,2127887476,http://www.grownyc.org,Tue/Fri  8am-4pm,March 11 - December 23,P/M/X,Y,Y,40.71419,-74.0063,"(40.71419, -74.0063)"
New York,Columbia Greenmarket,"Broadway, btwn 114th & 116th Sts.",Broadway and West 116th St,New York,NY,10027,Chelsea Whittaker,2127887476,http://www.grownyc.org,Thu/Sun  8am-5pm,Year-round,YR,Y,Y,40.80738,-73.96449,"(40.80738, -73.96449)"
New York,Dag Hammarskjold Plaza Greenmarket,"E. 47th St., btwn 2nd & First Aves.",East 47th St and Second Ave,New York,NY,10017,Chelsea Whittaker,2127887476,http://www.grownyc.org,Wednesday  8am-4pm,Year-round,YR,Y,Y,40.75298,-73.96989,"(40.75298, -73.96989)"
New York,Downtown PATH Greenmarket,"West Broadway, btwn Barclay & Park Pl.",Broadway and Park Pl,New York,NY,10007,Chelsea Whittaker,2127887476,http://www.grownyc.org,Tuesday  8am-6pm,Year-round,YR,Y,N,40.71257,-74.00765,"(40.71257, -74.00765)"
New York,East 82 St./St. Stephens Greenmarket,"82nd St., btwn First & York Aves.",408 East 82nd Street,New York,NY,10028,Chelsea Whittaker,2127887476,http://www.grownyc.org,Saturday  9am-2:30pm,Year-round,YR,Y,Y,40.77394,-73.9506,"(40.77394, -73.9506)"
New York,East 92 St. Greenmarket,"First Ave., btwn 92nd & 93rd Sts.",East 92nd St and First Ave,New York,NY,10128,Chelsea Whittaker,2127887476,http://www.grownyc.org,Sunday  9am-4pm,June 29 - November 23,M,Y,Y,40.78071,-73.94658,"(40.78071, -73.94658)"
New York,Fort Washington Greenmarket,Fort Washington Ave. & 168th St.,Fort Washington Ave and West 168th St,New York,NY,10032,Chelsea Whittaker,2127887476,http://www.grownyc.org,Tuesday  8am-4pm,June 3 - November 25,M,Y,Y,40.84217,-73.94229,"(40.84217, -73.94229)"
New York,Grass Roots Farmers' Market,"Around Jackie Robinson Park, 145th St., btwn Edgecomb & Bradhurst Aves.",West 145th St and Edgecombe Ave,New York,NY,10030,Fred Wilson,9175158046,,Sat/Tue  9am-4pm,July 12 - November 25,M,Y,Y,40.82365,-73.94385,"(40.82365, -73.94385)"
New York,Hamilton Heights Green Youth Market,"Johnny Hartman Plaza, 143rd & 144th Sts.",143rd Street and Amsterdam Ave,Manhattan,NY,10031,Lorisse Bentine,2122837044,http://www.brotherhood-sistersol.org,Wednesday  11am-5pm,July 2 - November 26,M,Y,Y,40.82396,-73.94855,"(40.82396, -73.94855)"
New York,Harlem State Office Building Farmers' Market,"163 W 125 St, Adam Clayton Powell Jr. State Office Bldg",163 West 125 Street,New York,NY,10027,Tupacamaru Tiwoni,6463517611,http://www.125thstreetfarmersmarket.com,Tuesday  10am-7pm,June 10 - November 25,M,Y,Y,40.80898,-73.94755,"(40.80898, -73.94755)"
New York,Harvest Home East Harlem Farmers' Market,E. 104th St. & Third Ave.,East 104th St and Third Ave,New York,NY,10029,Maritza Owens,2128283361,http://www.harvesthomefm.org,Thursday  8am-4pm,June 26 - November 25,M,Y,N,40.79024,-73.94564,"(40.79024, -73.94564)"
New York,Harvest Home Harlem Hospital Farmers' Market,"506 Lenox Ave., W 135th & W 137th Aves.",137th Street and Lennox Avenue,New York,NY,10037,Maritza Owens,2128283361,http://www.harvesthomefm.org,Friday  8am-4pm,June 27 - November 21,M,Y,Y,40.81539,-73.93985,"(40.81539, -73.93985)"
New York,Harvest Home Lenox Ave. Farmers' Market,Lenox Ave btwn W 117th & W 118th Sts.,150 Lenox Avenue,New York,NY,10027,Maritza Owens,2128283361,http://www.harvesthomefm.org,Saturday  8am-4pm,June 28 - November 22,M,Y,Y,40.80295,-73.9489,"(40.80295, -73.9489)"
New York,Harvest Home Metropolitan Farmers' Market,99th St. & 3rd Ave.,East 99th St and Third Ave,New York,NY,10029,Maritza Owens,2128283361,http://www.harvesthomefm.org,Friday  8am-4pm,June 27 - November 21,M,Y,Y,40.78713,-73.94792,"(40.78713, -73.94792)"
New York,Harvest Home West Harlem Farmers' Market,"137th St. & Broadway,",137th St and Broadway,New York,NY,10031,Maritza Owens,2128283361,http://www.harvesthomefm.org,Tuesday  8am-4pm,June 24 - November 25,M,Y,Y,40.82136,-73.95404,"(40.82136, -73.95404)"
New York,Herban Farmers' Market at Mt. Morris,"Marcus Garvey Park, 124th St. & 5th Ave.",18 Mt Morris Park W,New York,NY,10027,Tupacamaru Tiwoni,6463517611,http://www.125thstreetfarmersmarket.com,Saturday  10am-5pm,June 28 - November 15,M,Y,Y,40.80502,-73.9449,"(40.80502, -73.9449)"
New York,Inwood Park Greenmarket,"Isham St., btwn Seaman & Cooper Sts.",Isham St and Seaman St,New York,NY,10034,Chelsea Whittaker,2127887476,http://www.grownyc.org,Saturday  8am-3pm,Year-round,YR,Y,Y,40.86988,-73.9209,"(40.86988, -73.9209)"
New York,La Marqueta Farmers' Market,"East 115th St. & Park Ave., East Harlem1590 Park Ave",East 115th St and Park Ave,New York,NY,10029,Lisa Thompson,2123123621,,Thu - Sat 8am - 5pm,Year-round,YR,N,N,40.79868,-73.94388,"(40.79868, -73.94388)"
New York,Lower East Side Youthmarket,"Grand St. btwn Pitt & Bialystoker Sts.,",Grand St and Pitt St,New York,NY,10002,Jackie Bach,2127883818,http://www.grownyc.org/youthmarket,Thursday  1pm-7pm,July 10 - November 20,M,Y,Y,40.71523,-73.9843,"(40.71523, -73.9843)"
New York,Morningside Park Farmers' Market,"W. 110th St. & Manhattan Ave.,",West 110th St and Manhattan Ave,New York,NY,10025,Doug Ornstein,9149234837,http://www.downtoearthmarkets.com,Saturday  9am-5pm,May 24 - December 6,P/M/X,Y,Y,40.80116,-73.95965,"(40.80116, -73.95965)"
New York,Mount Sinai Hospital Greenmarket,Madison Ave. at 99th St.,East 99th St and Madison Ave,New York,NY,10029,Chelsea Whittaker,2127887476,http://www.grownyc.org,Wednesday  8am-5pm,June 25 - November 26,M,Y,Y,40.78918,-73.95276,"(40.78918, -73.95276)"
New York,Port Authority Bus Terminal Greenmarket,"42nd St. & 8th Ave., inside Bus Terminal",8th Ave and West 42nd St,New York,NY,10036,Chelsea Whittaker,2127887476,http://www.grownyc.org,Thursday  8am-5pm,Year-round,YR,Y,N,40.75723,-73.98979,"(40.75723, -73.98979)"
New York,Project EATS Frederick Douglass Farmers' Market,"Frederick Douglass Houses,101 Street, btwn Columbus & Amsterdam Aves.,",830 Amsterdam Ave,New York,NY,10025,Kadeesha Williams,2126121528,,Saturday  10am-4pm,May 31 - November 22,P/M,Y,N,40.79703,-73.96822,"(40.79703, -73.96822)"
New York,PS 11 WINTER Farmers' Market,"320 West 21st St.,",320 West 21st Street,New York,NY,10011,Deborah Osbourne,9176530594,,"Monthly, Wednesday 8am - 10am",December - April,X/W/P,N,Y,40.74455,-74.00073,"(40.74455, -74.00073)"
New York,Rockefeller Center Greenmarket,"Rockefeller Plaza, at 50th St.",Rockefeller Plaza and West 50th St,New York,NY,10112,Chelsea Whittaker,2127887476,http://www.grownyc.org,Wed/Thu/Fri  8am-5pm,September - October,M,Y,N,40.75907,-73.97846,"(40.75907, -73.97846)"
New York,Saint Mark's Church Greenmarket,"E. 10th St., at 2nd Ave.",East 10th St and Second Ave,New York,NY,10003,Chelsea Whittaker,2127887476,http://www.grownyc.org,Tuesday  8am-6pm,June 3 - November 25,M,Y,Y,40.72975,-73.98682,"(40.72975, -73.98682)"
New York,SoHA Square Farmers' Market,"W. 117th St. & 8th Ave.,2171 Frederick Douglass Blvd.",W 117th and Frederick Douglass Blvd,Manhattan,NY,10026,Tiffany Simone,6312137642,http://www.sohasquare.com,Thu/Fri  11am-7pm,June 5 - December 18,M/X,Y,Y,40.80511,-73.95487,"(40.80511, -73.95487)"
New York,Staten Island Ferry Whitehall Greenmarket,"4 South St., inside Ferry Terminal Bldg.",4 South St,New York,NY,10005,Chelsea Whittaker,2127887476,http://www.grownyc.org,Tue/Fri  8am-7pm,Year-round,YR,Y,Y,40.70155,-74.01213,"(40.70155, -74.01213)"
New York,Stuyvesant Town Greenmarket,"14th St. loop & Ave. A, southend of Oval",1 Stuyvesant Oval,New York,NY,10009,Chelsea Whittaker,2127887476,http://www.grownyc.org,Sunday  9:30am-4pm,May 4 - November 23,P/M/X,Y,Y,40.73108,-73.97889,"(40.73108, -73.97889)"
New York,Tompkins Square Greenmarket,"Tompkins Square Park, Ave. A & E. 7th St.",Avenue A and East 7th St,New York,NY,10009,Chelsea Whittaker,2127887476,http://www.grownyc.org,Sunday  9am-6pm,Year-round,YR,Y,Y,40.72602,-73.98353,"(40.72602, -73.98353)"
New York,Tribeca Greenmarket,"Greenwich St., Chambers & Duane Sts.",Greenwich St and Chambers St,New York,NY,10007,Chelsea Whittaker,2127887476,http://www.grownyc.org,Wed/Sat  8am-3pm,Year-round,YR,Y,Y,40.7163,-74.01097,"(40.7163, -74.01097)"
New York,Tucker Square Greenmarket,"Columbus Ave., at 66th Street",Columbus and West 66th St,New York,NY,10023,Chelsea Whittaker,2127887476,http://www.grownyc.org,Thu/Sat  8am-5pm,Year-round,YR,Y,Y,40.77361,-73.98158,"(40.77361, -73.98158)"
New York,Union Square Greenmarket,E. 17th St. & Broadway,Broadway and West 17th St,New York,NY,10003,Chelsea Whittaker,2127887476,http://www.grownyc.org,M/W/F/Sat  8am-6pm,Year-round,YR,Y,Y,40.73712,-73.99029,"(40.73712, -73.99029)"
New York,West 175th St. Greenmarket,"175th St., btwn Wadsworth & Broadway",West 175th St and Broadway,New York,NY,10033,Chelsea Whittaker,2127887476,http://www.grownyc.org,Thursday  8am-5pm,June 26 - November 20,M,Y,Y,40.84622,-73.93847,"(40.84622, -73.93847)"
New York,West 57th St. Greenmarket,"Ninth Ave., btwn 56th & 57th Sts.",West 57th St and Ninth Ave,New York,NY,10019,Chelsea Whittaker,2127887476,http://www.grownyc.org,Sat/Wed  8am-5pm,April 19 - December 20,P/M/X,Y,Y,40.76792,-73.98572,"(40.76792, -73.98572)"
New York,West 79th St. Greenmarket,"Columbus Ave., W. 78th &  W. 81st Sts.",West 79th St and Columbus Ave,New York,NY,10024,Chelsea Whittaker,2127887476,http://www.grownyc.org,Sunday  9am-5pm,Year-round,YR,Y,Y,40.78195,-73.97548,"(40.78195, -73.97548)"
New York,West 97th Street Greenmarket,"97th St., Amsterdam & Columbus Aves.",West 97th St and Columbus Ave,New York,NY,10025,Chelsea Whittaker,2127887476,http://www.grownyc.org,Friday  8am-2pm,Year-round,YR,Y,Y,40.79356,-73.96701,"(40.79356, -73.96701)"
Niagara,Lockport Farmers' Market,South lot on Walnut St.West of Pine St.,Walnut St and Pine St,Lockport,NY,14094,Richelle Pasceri,7164396776,,Daily  9am-9pm,Year-round,YR,Y,N,43.16882,-78.69197,"(43.16882, -78.69197)"
Niagara,Middleport Community Farmers' Market,7 Eleven parking lot 81 Rochester Rd.,81 Rochester Road,Middleport,NY,14105,Lynn & Stacey McAvoy,7165149645,,Wednesday  2pm-6pm,June 11 - October 29,M,Y,Y,43.20528,-78.48445,"(43.20528, -78.48445)"
Niagara,Niagara Falls City Market,"Pine Ave., Market Squarebtwn 18th & 19th Sts.",Pine Ave and 18th St,Niagara Falls,NY,14301,Victor Muto,7167540798,,Mon/Wed/Fri  9am-5pm,Year-round,YR,Y,N,43.0951,-79.04017,"(43.0951, -79.04017)"
Niagara,North Tonawanda City Farmers' Market,Robinson & Bryant Streets (Corner),Robinson St and Bryant Street,North Tonawanda,NY,14120,John Long,7168306025,,Tue/Thu/Sat  7am-1pm,Year-round,YR,Y,Y,43.03386,-78.86971,"(43.03386, -78.86971)"
Niagara,Pendleton Farmers' Market,Pendleton Town Park 6570 Campbell Bvld. (Rt. 270),6570 Campbell Blvd,Pendleton,NY,14120,Cynthia Aldridge,7166258833,http://www.pendletonfm.com,Thursday  3pm-7:30pm,June 5 - October 16,M,Y,N,43.07588,-78.77023,"(43.07588, -78.77023)"
Oneida,Boonville Farmers' Market,"222 Schuyler St., fair grounds",222 Schuyler St,Boonville,NY,13309,Kelly Ulrich,3153359851,http://www.boonvillefarmersmarket.com,Thursday 12 Noon-6pm,June 19 - October 23,M,Y,N,43.48178,-75.34404,"(43.48178, -75.34404)"
Oneida,City of Sherrill Farmers' Market,377 Sherrill Rd Next to the Gazebo,Sherrill Rd and Park St,Sherrill,NY,13461,Sara Getman,3153636525,http://www.sherrillny.org/farmersmarket,Tuesday  12 Noon-5pm,June 10 - October 7,M,Y,N,43.0725,-75.5984,"(43.0725, -75.5984)"
Oneida,Clinton Farmers' Market,Village Green West Park Row,Village Green,Clinton,NY,13323,Ferris Betrus Jr.,3158531735,http://www.clintonnychamber.org,Thursday  10am-4pm,June 5 - October 16,M,Y,N,43.04823,-75.37883,"(43.04823, -75.37883)"
Oneida,Oneida County Public Market,"Downtown Utica, 321 Main St.",1st St. and Main St.,Utica,NY,13501,Elizabeth Irons,3157983639,http://www.oneidacountymarket.com,Saturday  9am-1pm,May 17 - October 25,P/M,Y,Y,43.10364,-75.223,"(43.10364, -75.223)"
Oneida,Oneida County WINTER Public Market,"Inside Historic Union Station, Downtown Utica",321 Main Street,Utica,NY,13501,Brian Noonan,3157985800,http://www.oneidacountymarket.com,"Saturday 9am - 1pmBi-weekly, Nov - DecMonthly, 2nd Sat, Jan-Apr",November 8 - April 11,X/W/P,N,Y,43.10393,-75.2239,"(43.10393, -75.2239)"
Oneida,Rome Vendors Market,101 W. Dominick St. Berkshire Bank parking lot,101 West Dominick Street,Rome,NY,13440,Judith Wagner,3153395182,,Friday  9am-5pm,May 2 - November 7,P/M,Y,Y,43.21208,-75.46034,"(43.21208, -75.46034)"
Oneida,Trenton Farmers' Market,"Village Green, Holland Patent",Main St and Church St,Holland Patent,NY,13354,Nick Keblish,3158654423,,Saturday  9am-1pm,June 14 - October 11,M,Y,Y,43.24132,-75.25754,"(43.24132, -75.25754)"
Oneida,Utica Farmers' Market,"Chancellor Park, Elizabeth Street",Bleeker St and 1st St,Utica,NY,13501,Thalia Hunter,3157920114,,Wednesday  8am-5pm,June 4 - November 5,M,Y,Y,43.10043,-75.22483,"(43.10043, -75.22483)"
Oneida,Vernon Center Park Farmers' Market,"Route 26,Vernon Center",8 Ruth Street,Vernon,NY,13476,Tom Geer,3153359635,,Thursday  12 Noon - 5:30pm,June 6 - October 10,M,N,N,43.07713,-75.53837,"(43.07713, -75.53837)"
Oneida,Village of Waterville Farmers' Market,122 Barton Ave.,Village Green,Waterville,NY,13480,Debra Atkinson,3157505785,,Wednesday  11am-6pm,June 4 - October 29,M,Y,N,42.91417,-75.37875,"(42.91417, -75.37875)"
Oneida,Westmoreland Farmers' Market,Seymour's Diner Route 233,4834 State Route 233,Westmoreland,NY,13490,Denise & Bernie Szarek,3158535901,,Sat  9am-12 NoonSun  9am-1pm,June 1 - October 5,M,Y,N,43.16332,-75.41752,"(43.16332, -75.41752)"
Oneida,Westmoreland WINTER Farmers' Market,"Fire House Station, Station Rd.Westmoreland, 13490",1 Station Road,Westmoreland,NY,13490,Denise & Bernie Szarek,3158535901,,"Monthly, 1st Saturday 9am - 12 Noon",November - April,X/W/P,N,N,43.11626,-75.40006,"(43.11626, -75.40006)"
Onondaga,Camillus Farmers' Market,Municipal Bldg. lawn 4600 W. Genesee St.,4600 West Genesee St,Camillus,NY,13219,Sue Lucio,3154881234,,Friday  8am-2pm,June 6 - October 24,M,Y,N,43.04568,-76.24872,"(43.04568, -76.24872)"
Onondaga,Downtown Syracuse Farmers' Market,Clinton Square,Clinton St and Water St,Syracuse,NY,13202,Charles McFadden,3154228284,http://www.downtownsyracuse.com,Tuesday  7am-3pm,June 10 - October 14,M,Y,Y,43.05054,-76.15354,"(43.05054, -76.15354)"
Onondaga,Fayetteville Farmers' Market,Fayetteville Town Center,102 Salt Springs Road,Fayetteville,NY,13066,Stephanie Lipsey,3156912327,http://www.fayettevillefarmersmarketcny.com,Thursday  3pm-7pm,June 5 - October 30,M,Y,N,43.0295,-76.00504,"(43.0295, -76.00504)"
Onondaga,Liverpool Bayberry Plaza Farmers' Market,Kinney lot 7608 Oswego Rd.,Blackberry Rd and Oswego Rd,Liverpool,NY,13090,Sheila Perrotti,3156521463,,Wednesday  8am-3pm,May 15 - November 1,P/M,Y,N,43.14036,-76.22751,"(43.14036, -76.22751)"
Onondaga,Skaneateles Farmers' Market,One East Austin StreetAustin Park Pavilion,Austin St and Jordan St,Skaneateles,NY,13152,Sue Murphy,3157279320,http://www.townofskaneateles.com,Thursday  3:30-6:30Saturday 10am-1pm,May 15 - October 11,P/M,Y,N,42.95089,-76.4309,"(42.95089, -76.4309)"
Onondaga,Syracuse/CNY Regional Market,2100 Park St.,Park St and Farmers Market Pl,Syracuse,NY,13208,Eugene Elemos,3154228647,,"Sat/Sun  7am-2pm &Thu 7am-2pm, May-Nov",Year-round,YR,Y,Y,43.07269,-76.16835,"(43.07269, -76.16835)"
Onondaga,Syracuse Farm Fresh Mobile Market,(315) 345-0600 www.ssinterfaithcdc.orgContact for locations & times,Syracuse Inner-city Neighborhoods,Syracuse,NY,13205,Diane Turner,3154758136,http://www.southsideinterfaithcdc.org,Mon-Fri  9am-5pm,Year-round,YR,Y,Y,42.99798,-76.13779,"(42.99798, -76.13779)"
Ontario,Canandaigua Farmers' Market,Mills & Bemon Sts. East side of Main St.,Beeman St and Mill St,Canandaigua,NY,14424,Phillip Munson,5853297666,http://www.canandaiguafarmersmarket.com,Sat  8:30am-12:30pm,June 7 - October 25,M,Y,N,42.88534,-77.27837,"(42.88534, -77.27837)"
Ontario,Geneva Farmers' Market,"Municipal parking lot, Exchange St.",400 Exchange St,Geneva,NY,14456,Marie Milligan,3157897811,,Thursday  7am-1:30pm,June 12 - October 23,M,Y,N,42.8691,-76.98096,"(42.8691, -76.98096)"
Ontario,VA Farmers' Market Canandaigua,"VA Medical Center 400 Fort Hill Ave., Canandaigua",400 Fort Hill Ave,Canandaigua,NY,14424,Debbie Brahm,5853937803,,Tuesday  1:30pm-5:00pm,June 17 - October 14,M,Y,N,42.90096,-77.27033,"(42.90096, -77.27033)"
Ontario,Victor Farmers' Market,"Village Hall Parking Lot,60 East Main St.",60 East Main St,Victor,NY,14564,Kathy Rayburn,5857425073,http://www.victorldc.org,Wednesday  3pm-7pm,June 4 - October 29,M,N,N,42.98134,-77.40859,"(42.98134, -77.40859)"
Orange,Florida Farmers' Market,Routes 17 A & 94 across from Dollar Tree,133 N Main Street,Florida,NY,10921,Louise Schultz,8456414482,http://warwickinfo.net/floridafarmersmarket,Tuesday  11:30am-5:30pm,June 17 - October 28,M,Y,N,41.33775,-74.35873,"(41.33775, -74.35873)"
Orange,Goshen Farmers' Market,Village Square,Main St and Church St,Goshen,NY,10924,Lynn Cione,8452947741,http://www.goshennychamber.com,Friday  10am-5pm,May 23 - October 31,P/M,Y,N,41.40219,-74.32408,"(41.40219, -74.32408)"
Orange,Middletown Farmers' Market,"Erie Way, btwn Montgomery & Cottage Sts.",32-48 Cottage Street,Middletown,NY,10940,Anne Kelly,8453438075,,Saturday  8am-1pm,June 7 - October 25,M,Y,N,41.44814,-74.41459,"(41.44814, -74.41459)"
Orange,Monroe Museum Village Farmers' Market,"Rt. 17M, Museum Village parking lot",1010 State Route 17M,Monroe,NY,10950,Diana Lupinski,8452945557,http://www.villageofwalden.org,Wednesday  9am-2pm,June 11 - October 29,M,Y,N,41.344,-74.19742,"(41.344, -74.19742)"
Orange,Newburgh/Downing Park Farmers' Market,"Rts. 9W & 52, Robinson Ave. & South St.",Robinson Ave and South St,Newburgh,NY,12550,Anthony Sculley,8455655559,,Friday  10am-3pm,July 11 - October 31,M,Y,Y,41.50754,-74.02051,"(41.50754, -74.02051)"
Orange,Newburgh/Healthy Orange Farmers' Market,"House of Refuge parking lot, 131 Broadway",131 Broadway,Newburgh,NY,12550,Meg Oakes,8455685247,,Tuesday  10am-2pm,July 1 - October 14,M,Y,N,41.50009,-74.01254,"(41.50009, -74.01254)"
Orange,Newburgh Mall Farmers' Market,Newburgh Mall Parking lot,1401 New York 300,Newburgh,NY,12550,Katie Levato,8455641400,,Saturday  10am-2pm,July 5 - September 27,M,Y,N,41.51758,-74.0714,"(41.51758, -74.0714)"
Orange,Pine Bush Farmers' Market,"62 Main St., municipal parking lotbehind Town Hall",62 Main St,Pine Bush,NY,12566,Jacquelyn Carter,8459780273,http://www.pinebushfarmersmarket.com,Saturday  9am-2pm,May 31 - October 18,P/M,Y,N,41.60953,-74.30034,"(41.60953, -74.30034)"
Orange,Pine Island WINTER Farmers' Market,"W. Rogowski Farm327-329 Glenwood Rd, Pine Island",327 Glenwood Road,Pine Island,NY,10969,Wendy Vandercliff,8452588152,,2nd & 3rd Saturday 10am - 3pm,December - March,X/W,N,N,41.27899,-74.47705,"(41.27899, -74.47705)"
Orange,Tuxedo Farmers' Market,Tuxedo Train Station lot 240 Rt. 17,240 State Route 17,Tuxedo,NY,10987,Christina Tremblay,8459154058,http://www.tuxedofarmersmarket.com,Saturday  9am-2pm,June 14 - October 25,M,Y,N,41.19447,-74.18447,"(41.19447, -74.18447)"
Orange,Village of Chester Farmers' Market,1 Winkler Place,Winkler Place,Chester,NY,10918,Kerri-Ann Lynch,8454766241,,Sunday  9am-3pm,June 1 - October 26,M,Y,N,41.36259,-74.27068,"(41.36259, -74.27068)"
Orange,Walden Farmers' Market,Village Square,5 Scofield St,Walden,NY,12586,Kerri-Ann Lynch,8454766241,,Thursday  2pm-7pm,June 19 - October 2,M,Y,Y,41.55983,-74.1895,"(41.55983, -74.1895)"
Orange,Warwick Valley Farmers' Market,"South St. parking lot Municipal lot, 1 block east of Main St.",South St and Bank St,Warwick,NY,10990,Penny Steyer,8459860043,http://www.warwickvalleyfarmersmarket.org,Sunday  9am-2pm,May 11 - November 23,P/M,Y,N,41.25656,-74.35858,"(41.25656, -74.35858)"
Orange,West Point/Town of Highlands Farmers' Market,"Main St, Municipal lot across from Visitor's Center",Main St and Cozzens Ave,Highlands,NY,10928,Joanne Devereaux,8454462459,,Sunday  9am-2pm,June 15 - October 26,M,Y,N,41.3723,-73.96434,"(41.3723, -73.96434)"
Orleans,Albion/Orleans County Farmers' Market,Save-A-Lot parking lot 320 West Ave.,320 West Ave,Albion,NY,14411,Ann Nice,5857983986,,Saturday  9am-2pm,June 7 - November 1,M,Y,N,43.24081,-78.20337,"(43.24081, -78.20337)"
Orleans,Medina/Orleans County Farmers' Market,Erie Canal Basin - municipal parking lot behind main street,Main St and Manilla Pl,Medina,NY,14103,Ann Nice,5857983986,,Thursday  12 Noon-5pm,June 12 - October 30,M,Y,N,43.22167,-78.387,"(43.22167, -78.387)"
Oswego,Fulton Farmers' Market,Canalview Park & Shop lot South Second St. (Rt. 481),South Second St and Canalview Mall,Fulton,NY,13069,Nate Emmons,3153457681,,Saturday  8am-1pm,May 24 - October 25,P/M,Y,Y,43.32321,-76.41577,"(43.32321, -76.41577)"
Oswego,Hillside Farmers' Market,7753 State Route 3 (Seaway Trail)Pulaski,7753 State Route 3,Pulaski,NY,13142,Dennis Palmer,3152984085,http://www.hillsidefleamarkets.com,Friday 10am-2pmSat/Sun  9am-5pm,May 3 - September 28,P/M,Y,N,43.58759,-76.17348,"(43.58759, -76.17348)"
Oswego,New Haven Farmers' Market,Town Hall Route 104,4279 State Route 104,New Haven,NY,13121,Debra Allen,3159633900,http://www.newhavenny.com,Monday  3pm-6pm,June 2 - September 15,M,Y,N,43.47981,-76.31714,"(43.47981, -76.31714)"
Oswego,Oswego Farmers' Market,West First St. btwn Bridge & W. Oneida Sts.,West Bridge St and West 1st St,Oswego,NY,13126,Nate Emmons,3153457681,,Thursday  4:30pm-8pm,May 22 - October 9,P/M,Y,Y,43.45656,-76.51127,"(43.45656, -76.51127)"
Oswego,Pulaski Farmers' Market,South Park Main St.,Lake St and Broad St,Pulaski,NY,13142,Tammy Knapp,3156955589,http://www.pulaskifarmersmarket.org,Friday  4pm-8pm,June 6 - September 26,M,Y,N,43.56714,-76.12813,"(43.56714, -76.12813)"
Oswego,Volney Farmers' Market,State Route 3,1445 Co. Rt. 6,Fulton,NY,13069,Barbara MacEwen,3155938288,,Tuesday  3pm-6pm,June 3 - September 30,M,Y,N,43.34151,-76.35841,"(43.34151, -76.35841)"
Otsego,Cooperstown Farmers' Market,Pioneer Alley 101 Main St.,101 Main St,Cooperstown,NY,13326,Ellen Pope,6075478881,http://www.cooperstownfarmersmarket.org,"Saturday  9am-2pm &Tue 12 Noon-5pm, Jul-Aug",Year-round,YR,Y,Y,42.70001,-74.92526,"(42.70001, -74.92526)"
Otsego,Morris Farmers' Market,Main St. behind Firehouse,Main St and Church St,Morris,NY,13808,Paul Tourtellotte,6072635423,,Thursday  3pm-6pm,May 29 - October 9,P/M,Y,N,42.54813,-75.24686,"(42.54813, -75.24686)"
Otsego,Oneonta Farmers' Market,"Main St. Plaza (Rt. 7)near Key Bank, 202 Main St.",202 Main Street,Oneonta,NY,13820,Dana LaCroix,6074370158,,Saturday  9am-1pm,May 17 - October 25,P/M/X,Y,N,42.454,-75.06185,"(42.454, -75.06185)"
Otsego,Oneonta WINTER Farmers' Market,"Main St. Garage Walkwaynear Latte Lounge, 196 Main St.",196 Main Street,Oneonta,NY,13820,Dana LaCroix,6074370158,,"Saturday 9am-1pmEvery Saturday, Nov 1-Dec 202nd & 4th Saturday, Jan-May",November - May,W/P,N,N,42.45386,-75.06202,"(42.45386, -75.06202)"
Otsego,Richfield Springs Area Farmers' Market,"Spring Park, Main St. (Rt. 20)across from Post Office",Main St and Church St,Richfield Springs,NY,13439,Ronald Bayzon,3158582703,,Thursday  2pm-6pmSaturday 8am - 1pm,June 21 - October 25,M,Y,N,42.85342,-74.98512,"(42.85342, -74.98512)"
Putnam,Brewster Farmers' Market,"Municipal lot, 208 E. Main St. Rts. 22 & 6 & 202",208 E. Main St,Brewster,NY,10509,K.C. Anderson,9146716262,http://www.brewsterfarmersmarket.org,Wed/Sat  9am-2pm,June 11 - November 22,M,Y,N,41.39526,-73.60705,"(41.39526, -73.60705)"
Putnam,Cold Spring Farmers' Market,"1601 Rt 9D, Boscobel House & Gardens",1601 State Route 9D,Cold Spring,NY,10516,Krystal Ford,8452145441,http://www.csfmmarket.org,Saturday  8:30am-1:30pm,May 10 - November 22,P/M,Y,N,41.41038,-73.9377,"(41.41038, -73.9377)"
Putnam,Cold Spring WINTER Farmers' Market,"St. Mary's Church, Parish Hall",Main and Chesnut,Cold Spring,NY,10516,Krystal Ford,8452145441,http://www.csfmmarket.org,Saturday  8:30am-1:30pm,November - April,X/W/P,N,N,41.42005,-73.95478,"(41.42005, -73.95478)"
Queens,Astoria Greenmarket,"14th St., btwn 31st Ave. & 31st Rd.",14th St and 31st Ave,Astoria,NY,11106,Chelsea Whittaker,2127887476,http://www.grownyc.org,Wednesday  8am-3pm,July 9 - November 26,M,Y,Y,40.76825,-73.93203,"(40.76825, -73.93203)"
Queens,Corona Greenmarket,Roosevelt Ave. at 103rd St.,Roosevelt Ave and 103rd St,Corona,NY,11368,Chelsea Whittaker,2127887476,http://www.grownyc.org,Friday  8am-3pm,July 11 - November 21,M,Y,Y,40.74988,-73.86271,"(40.74988, -73.86271)"
Queens,Culinary Kids Farmers' Market,"30-15 Seagirt Blvd. & Beach 31 St.,Far Rockaway",Seagirt Blvd and Beach 31st St,Far Rockaway,NY,11691,Malisa Rivera,3473210423,,Saturday  10am-3pm,July 5 - September 27,M,Y,Y,40.59581,-73.76384,"(40.59581, -73.76384)"
Queens,Culinary Kids Farm Rockaway Farmers' Market,444 Beach 58th St. & Beach Channel Dr.,58th Street and Beach Channel Drive,Queens,NY,11692,Marion Moses,3473210423,,Saturday  10am-5pm,June 21 - September 27,M,Y,Y,40.59446,-73.78804,"(40.59446, -73.78804)"
Queens,Elmhurst Hospital Greenmarket,"41st Ave., btwn 80th & 81st Sts.",41st Ave and 80th St,Elmhurst,NY,11373,Chelsea Whittaker,2127887476,http://www.grownyc.org,Tuesday  8am-4pm,June 3 - December 23,M/X,Y,Y,40.7458,-73.88548,"(40.7458, -73.88548)"
Queens,Forest Hills Greenmarket,South side of Queens Blvd at 70th Ave.,Queens Blvd and 70th Ave,Queens,NY,11375,Chelsea Whittaker,2127887476,http://www.grownyc.org,Sunday  8am-3pm,Year-round,YR,Y,Y,40.72188,-73.84639,"(40.72188, -73.84639)"
Queens,Jackson Heights Greenmarket,34th Ave. btwn 77th & 78th Sts.,34th Ave and 77th St,Jackson Heights,NY,11372,Chelsea Whittaker,2127887476,http://www.grownyc.org,Sunday  8am- 3pm,Year-round,YR,Y,Y,40.7532,-73.88968,"(40.7532, -73.88968)"
Queens,Jamaica Farmers' Market,160th St. off Jamaica Ave.,160th St and Jamaica Ave,Jamaica,NY,11432,Doug Ornstein,9149234837,http://www.downtoearthmarkets.com,Fri/Sat  8:30am-4pm,June 20 - November 22,M,Y,Y,40.70374,-73.79914,"(40.70374, -73.79914)"
Queens,Joseph Addabbo FHC Farmers' Market,"6200 Beach Channel Dr, parking lot, Arverne",6200 Beach Channel Dr,Arverne,NY,11692,Viviana Fajardo,7189457150,,Saturday  8am-2pm,July 12 - November 22,M,Y,N,40.59322,-73.79174,"(40.59322, -73.79174)"
Queens,Long Island City Youthmarket,Vernon Blvd. btwn 47th & 48th Aves.,Vernon Blvd and 48th Ave,Long Island City,NY,11101,Jackie Bach,2127883818,http://www.grownyc.org/youthmarket,Saturday  9am-4pm,July 12 - November 22,M,Y,Y,40.74401,-73.9537,"(40.74401, -73.9537)"
Queens,Pomonok Community Farmers' Market,"67-09 Kissena Blvd., FlushingBtwn Melbourne & 65 Aves.",67-09 Kissena Blvd,Flushing,NY,11365,Amy Tam-Liao,7185916060,http://www.qchnyc.org,Wed  9am-4pm,July 9 - November 26,M,Y,Y,40.73513,-73.8141,"(40.73513, -73.8141)"
Queens,Queens Botanical Garden Farmers' Market,"On sidewalk, Dahlia Ave., Flushing",Main St and Dahlia Ave,Flushing,NY,11355,Doug Ornstein,9149234837,http://www.downtoearthmarkets.com,Friday  8:30am-4pm,June 20 - November 21,M,Y,Y,40.75186,-73.82636,"(40.75186, -73.82636)"
Queens,Ridgewood Youthmarket,Myrtle & Cyrpess Aves.,Myrtle Ave and Cypress Ave,Ridgewood,NY,11385,Jackie Bach,2127883818,http://www.grownyc.org/youthmarket,Saturday  10am-3pm,July 12 - November 22,M,Y,Y,40.70011,-73.90619,"(40.70011, -73.90619)"
Queens,Rockaway Beach Youthmarket,Rockaway Beach Blvd. & Beach 67th St.,2-99-2-1 Beach 68th St,Arverne,NY,11692,Jackie Bach,2127883818,http://www.grownyc.org/youthmarket,Saturday  11am-3pm,July 12 - August 30,M,Y,Y,40.59087,-73.79707,"(40.59087, -73.79707)"
Queens,Socrates Sculpture Park Greenmarket,Vernon Blvd. & Broadway,Vernon Blvd and Broadway,Astoria,NY,11106,Chelsea Whittaker,2127887476,http://www.grownyc.org,Saturday  8am-4pm,June 7 - November 22,M,Y,Y,40.76769,-73.93618,"(40.76769, -73.93618)"
Queens,Sunnyside Greenmarket,"Skillman Ave., btwn 42nd & 43rd Sts.",Skillman Ave and 42nd St,Sunnyside,NY,11104,Chelsea Whittaker,2127887476,http://www.grownyc.org,Saturday  8am-3pm,May 10 - December 20,P/M/X,Y,Y,40.74699,-73.92173,"(40.74699, -73.92173)"
Rensselaer,Brunswick Farmers' Market,Brunswick Community Center18 Keyes Lane,18 Keyes Lane,Brunswick,NY,12180,Sheila Hyde,5182793461,http://www.townofbrunswick.org,Tuesday 5pm - 8pm,June 24 - August 26,M,Y,N,42.75263,-73.62021,"(42.75263, -73.62021)"
Rensselaer,CDCG Sprout - Thursday,"Franciscan Heights Senior Comm. Ctr. 1 St. Francis Pl., Rensselaer",1 Saint Francis Place,Rensselaer,NY,12144,EJ Krans,5182748685,http://www.cdcg.org,Thu 2pm-3pm,Year-round,YR,Y,Y,42.6616,-73.72084,"(42.6616, -73.72084)"
Rensselaer,CDCG Sprout - Thursday,"Burns Apartments 720 Federal St., Troy",720 Federal Street,Troy,NY,12180,EJ Krans,5182748685,http://www.cdcg.org,Thu 12:30pm-1:15pm,Year-round,YR,Y,Y,42.73256,-73.68429,"(42.73256, -73.68429)"
Rensselaer,CDCG Sprout - Thursday,"Unity Sunshine/Sweeney Apartments 4th & Jackson Sts., Troy",4th Street and Jackson Street,Troy,NY,12180,EJ Krans,5182748685,http://www.cdcg.org,Thu 4pm-5pm,Year-round,YR,Y,Y,42.71548,-73.69303,"(42.71548, -73.69303)"
Rensselaer,CDCG Sprout - Tuesday,"John P. Taylor Apartments Front & River St., Troy",River Street and Front Street,Troy,NY,12180,EJ Krans,5182748685,http://www.cdcg.org,Tue 1:45pm-2:15pm,Year-round,YR,Y,Y,42.73321,-73.68986,"(42.73321, -73.68986)"
Rensselaer,CDCG Sprout - Tuesday,"Martin Luther King Apartments 1 Eddys Lane, Troy",1 Eddys Lane,Troy,NY,12180,EJ Krans,5182748685,http://www.cdcg.org,Tue 2:45pm-3:30pm,Year-round,YR,Y,Y,42.75082,-73.67201,"(42.75082, -73.67201)"
Rensselaer,CDCG Sprout - Tuesday,"Blooming Grove Senior Housing 105 Bloomingrove Dr., Troy",105 Bloomingrove Drive,Troy,NY,12180,EJ Krans,5182748685,http://www.cdcg.org,Tue 12:30pm-1:15pm,Year-round,YR,Y,Y,42.68802,-73.68097,"(42.68802, -73.68097)"
Rensselaer,CDCG Sprout - Tuesday,"Brunswick Senior Housing 3 Country Way, Troy",3 Country Way,Troy,NY,12180,EJ Krans,5182748685,http://www.cdcg.org,Tue 3:45pm-4:30pm,Year-round,YR,Y,Y,42.74304,-73.6309,"(42.74304, -73.6309)"
Rensselaer,CDCG Sprout - Tuesday,"Barker Park Corner 3rd & State St., Troy",Barker Park,Troy,NY,12180,EJ Krans,5182748685,http://www.cdcg.org,Tue 11am-11:45am,Year-round,YR,Y,Y,42.72979,-73.69036,"(42.72979, -73.69036)"
Rensselaer,CDCG Sprout - Wednesday,"Lansingburgh Apartments 41 114th Street, Troy",41 114th Street,Troy,NY,12182,EJ Krans,5182748685,http://www.cdcg.org,Wed 11am-12:15pm,Year-round,YR,Y,Y,42.77277,-73.67227,"(42.77277, -73.67227)"
Rensselaer,CDCG Sprout - Wednesday,"Griswold Heights, Troy",Griswold Heights,Troy,NY,12180,EJ Krans,5182748685,http://www.cdcg.org,Wed 3pm-4:30pm,Year-round,YR,Y,Y,42.71129,-73.67599,"(42.71129, -73.67599)"
Rensselaer,CDCG Sprout - Wednesday,"O'Neil Apartments 2121 6th Ave., Troy",2121 6th Ave.,Troy,NY,12180,EJ Krans,5182748685,http://www.cdcg.org,Wed 1pm-2:15pm,Year-round,YR,Y,Y,42.73436,-73.68587,"(42.73436, -73.68587)"
Rensselaer,CDCG Veggie Mobile - Saturday,"Sanctuary for Independent Media6th Ave. & 101st St., Troy",6th Ave and 101st Street,Troy,NY,12180,EJ Krans,5182748685,http://www.cdcg.org,Sat 3pm-4pm,Year-round,YR,Y,Y,42.7537,-73.68127,"(42.7537, -73.68127)"
Rensselaer,CDCG Veggie Mobile - Thursday,"Renwyck Place18 4th Ave., Rensselaer",18 4th Ave,Troy,NY,12180,EJ Krans,5182748685,http://www.cdcg.org,Thu 11:30am-12 Noon,Year-round,YR,Y,Y,42.73315,-73.68824,"(42.73315, -73.68824)"
Rensselaer,CDCG Veggie Mobile - Thursday,"Kennedy Towers Apartments2100 6th Ave., Troy",2100 6th Avenue,Troy,NY,12180,EJ Krans,5182748685,http://www.cdcg.org,Thu 2:45pm-3:45pm,Year-round,YR,Y,Y,42.73471,-73.68416,"(42.73471, -73.68416)"
Rensselaer,CDCG Veggie Mobile - Thursday,"Van Rensselaer Heights460 Forbes Ave., Rensselaer",480 Forbes Avenue,Rensselaer,NY,12144,EJ Krans,5182748685,http://www.cdcg.org,Thu 10:45am-11:15am,Year-round,YR,Y,Y,42.65971,-73.72842,"(42.65971, -73.72842)"
Rensselaer,CDCG Veggie Mobile - Wednesday,"CDCG Office40 River St., Troy",40 River Street,Troy,NY,12180,EJ Krans,5182748685,http://www.cdcg.org,Wed 2pm-2:30pm,Year-round,YR,Y,Y,42.7251,-73.69536,"(42.7251, -73.69536)"
Rensselaer,North Greenbush Farmers' Market,Twin Town Little League Park Williams Rd.,95 Williams Rd,North Greenbush,NY,12180,Kathryn Conolly,5182834306,http://www.townofng.com,Thursday  2:30pm-6pm,June 12 - September 11,M,Y,N,42.69013,-73.67672,"(42.69013, -73.67672)"
Rensselaer,Troy Twilight Farmers' Market,Broadway & 2nd St. Downtown Troy,Monument Square,Troy,NY,12108,Monica Kurzejeski,5187084216,http://www.troymarket.org,Friday 6pm-9pm,June - September,P/M,Y,N,42.73183,-73.69251,"(42.73183, -73.69251)"
Rensselaer,Troy Waterfront Farmers' Market,282 River Street Downtown Troy,282 River St,Troy,NY,12180,Monica Kurzejeski,5187084216,http://www.troymarket.org,Saturday  9am-2pm,May 3 - October 31,P/M,Y,Y,42.73214,-73.6905,"(42.73214, -73.6905)"
Rensselaer,Troy Waterfront WINTER Farmers Market,"Uncle Sam Atrium, Downtown Troy49 4th Street",49 4th Street,Troy,NY,12180,Monica Kurzejeski,5187084216,http://www.troymarket.org,Saturday 9am - 2pm,November - April,X/W/P,N,Y,42.73211,-73.68897,"(42.73211, -73.68897)"
Richmond,Saint George Greenmarket,"St. Mark's Pl., Hyatt St., Theater parking lot",St Marks Pl and Hyatt St,Staten Island,NY,10301,Chelsea Whittaker,2127887476,http://www.grownyc.org,Saturday  8am-2pm,May 3 - November 22,P/M,Y,Y,40.64159,-74.07791,"(40.64159, -74.07791)"
Richmond,Staten Island Mall Greenmarket,"Richmond Ave. entrance, in parking lot",2655 Richmond Ave,Staten Island,NY,10314,Chelsea Whittaker,2127887476,http://www.grownyc.org,Saturday  8am-3pm,June 14 - November 22,M,Y,Y,40.58199,-74.16607,"(40.58199, -74.16607)"
Rockland,Nyack Farmers' Market,Municipal parking lot Main St. & Franklin Ave.,Main St and Franklin St,Nyack,NY,10960,Pam Moskowitz,8453532221,http://www.nyackchamber.org,"Thursday  8am-2pmSat  8am-1pm, Jun-Nov",April 3 - November 26,P/M,Y,N,41.09154,-73.92161,"(41.09154, -73.92161)"
Rockland,Palisades Indoor WINTER Farmers' Market,675 Oak Tree Rd Community Center,675 Oak Tree Road,Palisades,NY,10964,Carol Baxter,8453982521,,Saturday 9am - 1pm,January 18 - May 17,W/P,N,N,41.01152,-73.91767,"(41.01152, -73.91767)"
Rockland,Piermont Farmers' Market,"M & T Bank lot, Ash St. & Piermont Ave.",Ash St and Piermont Ave,Piermont,NY,10968,Doug Ornstein,9149234837,http://www.downtoearthmarkets.com,Sunday  9:30am-3pm,May 11 - November 23,P/M,Y,N,41.04136,-73.91642,"(41.04136, -73.91642)"
Rockland,Ramapo Farmers' Market,Eugene Levy Park,New York 45 and North Side Plaza,Pomona,NY,10970,Michelle Ancosca,8453576100,,Sunday  9am-4pm,June 8 - October 26,M,Y,N,41.1636,-74.03411,"(41.1636, -74.03411)"
Rockland,Spring Valley Farmers' Market,"Memorial Park, One Veterans Drive",Memorial Park,Spring Valley,NY,10977,Doug Ornstein,9149234837,http://www.downtoearthmarkets.com,Wednesday  8:30am-3pm,July 9 - November 19,M,Y,N,41.11506,-74.0425,"(41.11506, -74.0425)"
Rockland,Stony Point Farmers' Market,"Stony Point Town Hall,74 E Main St.",74 East Main Street,Stony Point,NY,10980,Jennifer Lima,9144199665,http://www.stonypointfarmersmarket.com,Saturday  9am-2pm,July 5 - October 25,M,Y,N,41.22845,-73.98485,"(41.22845, -73.98485)"
Rockland,Suffern WINTER Farmers' Market,Suffern Community Center41 Washington Ave,41 Washington Ave,Suffern,NY,10901,Alexandria Evans,6463394746,,"Twice a month, Saturday 9am - 2pm",December - May,X/W/P,N,N,41.11578,-74.14905,"(41.11578, -74.14905)"
Saratoga,Ballston Spa Farmers' Market,"Wiswall Park, Front & Low Sts.",Front St and Low St,Ballston Spa,NY,12020,Ellen Mottola,5188852772,http://www.ballston.org,Sat  9am-12 NoonThu  3pm-6pm,June 12 - October 18,M,Y,N,43.00256,-73.84964,"(43.00256, -73.84964)"
Saratoga,Burnt Hills Farmers' Market,Lakehill Rd. & Route 50 Burnt Hills,809 Saratoga Road,Burnt Hills,NY,12027,Gaynell Bliss,5183993488,,Saturday  9am-1pm,May 10 - October 25,P/M,Y,N,42.91021,-73.89848,"(42.91021, -73.89848)"
Saratoga,Clifton Park/Saratoga Farmers' Market,St. George's Church 912 Rt. 146 at Maxwell Drive,912 State Route 146,Clifton Park,NY,12065,Charles Holub,5188952701,,Thursday  2pm-5pm,June 26 - October 30,M,Y,N,42.866,-73.79782,"(42.866, -73.79782)"
Saratoga,Gansevoort Farmers' Market,Village Park Corner of Route 32,State Route 32 and Wilton-Gansevoort Rd,Gansevoort,NY,12831,Linda Gifford,5187920198,,Thursday  3pm-6pm,June 5 - October 30,M,Y,N,43.19612,-73.65167,"(43.19612, -73.65167)"
Saratoga,Greenfield Center Farmers' Market,"Middle Grove Park, near post officeMiddle Grove Rd., Greenfield Center",430 Middle Grove Rd,Greenfield,NY,12850,Anne Marie Johnson,5188636104,,Friday  4pm-7pm,June 13 - September 19,M,Y,N,43.09209,-73.89096,"(43.09209, -73.89096)"
Saratoga,Malta/Saratoga Farmers' Market,Allerdice parking lot 2570 Route 9,2570 Route 9,Ballston Spa,NY,12020,Charles Holub,5188952701,,Tuesday  3pm-6pm,June 3 - October 28,M,Y,N,42.97694,-73.78945,"(42.97694, -73.78945)"
Saratoga,Saratoga Farmers' Market,"High Rock Park, Saratoga Springs",High Rock Ave and Lake Ave,Saratoga Springs,NY,12866,Justine Denison,5186642510,http://www.saratogafarmersmarket.org,Sat  9am-1pm    Wed  3pm-6pm,May 3 - October 29,X,Y,Y,43.08288,-73.78304,"(43.08288, -73.78304)"
Saratoga,Saratoga WINTER Farmers' Market,"Lincoln Baths BuildingSaratoga Spa State Park, 65 South Broadway, Saratoga Springs",65 South Broadway,Saratoga,NY,12866,Justine Denison,5186642510,http://www.saratogafarmersmarket.org,Saturday 9am - 1:00pm,November - April,X/W/P,N,Y,43.06444,-73.78991,"(43.06444, -73.78991)"
Saratoga,South Glens Falls Farmers' Market,"Village Park, Spring St.",64 Spring St,South Glens Falls,NY,12803,Linda Gifford,5187920198,,Monday  10am-1pm,June 2 - October 27,M,Y,N,43.30035,-73.63221,"(43.30035, -73.63221)"
Saratoga,Town of Galway Farmers' Market,"Pavilion at Town playing fields 5078 Sacandaga Rd., Route 147",5078 Sacandaga Road,Galway,NY,12074,Susan Sutch,5188825367,http://www.galwayfarmersmarket.org,Friday  3pm-6pm,June 27 - September 26,M,Y,N,43.00913,-74.03011,"(43.00913, -74.03011)"
Saratoga,Waterford Harbor Farmers' Market,"One Tugboat Alley, along Erie Canal Waterford Harbor Visitor's Center",1 Tugboat Alley,Waterford,NY,12188,Mary Stalker,5186658344,http://www.waterfordmarket.org,Sunday  9am-1pm,June 1 - October 12,M,Y,N,42.79258,-73.68123,"(42.79258, -73.68123)"
Schenectady,CDCG Veggie Mobile - Friday,"Summit Towers720 Albany St., Schenectady",720 Albany street,Schenectady,NY,12307,EJ Krans,5182748685,http://www.cdcg.org,Fri 1:30pm-2:15pm,Year-round,YR,Y,Y,42.80923,-73.93822,"(42.80923, -73.93822)"
Schenectady,CDCG Veggie Mobile - Friday,"Ten Eyck Apartments375 Broadway, Schenectady",375 Broadway,Schenectady,NY,12305,EJ Krans,5182748685,http://www.cdcg.org,Fri 2:20pm-3:15pm,Year-round,YR,Y,Y,42.80919,-73.94511,"(42.80919, -73.94511)"
Schenectady,CDCG Veggie Mobile - Friday,"Hamilton Hill Arts Center409 Schenectady St., Schenectady",409 Schenectady Street,Schenectady,NY,12307,EJ Krans,5182748685,http://www.cdcg.org,Fri 3:20pm-4pm,Year-round,YR,Y,Y,42.80556,-73.9406,"(42.80556, -73.9406)"
Schenectady,CDCG Veggie Mobile - Saturday,"Steinmetz Homes120 Emmons St., Schenectady",120 Emmons Road,Schenectady,NY,12304,EJ Krans,5182748685,http://www.cdcg.org,Sat 11am-11:45am,Year-round,YR,Y,Y,42.79178,-73.92259,"(42.79178, -73.92259)"
Schenectady,Farm to Preschool I Farmers' Market,"YWCA NENY44 Washington Ave., Schenectady",44 Washington Ave,Schenectady,NY,12305,Darlene Yule,5184267181,http://www.facebook.com/Farm2Preschool,Tuesday  2:30pm-5:30pm,June 17 - September 16,M,Y,Y,42.81645,-73.9492,"(42.81645, -73.9492)"
Schenectady,Farm to Preschool II Farmers' Market,"Parsons Child and Family Center125 Bigelow Ave., Schenectady",125 Bigelow Ave,Schenectady,NY,12304,Darlene Yule,5184267181,http://www.facebook.com/Farm2Preschool,Thursday  2pm-5pm,June 19 - September 18,M,Y,Y,42.79534,-73.92505,"(42.79534, -73.92505)"
Schenectady,Schenectady Bellevue Farmers' Market,2176 Broadway,2176 Broadway,Schenectady,NY,12306,Jacqueline Hurd,5183930403,,Thursday  4pm-7pm,June 12 - September 25,M,Y,Y,42.797,-73.96735,"(42.797, -73.96735)"
Schenectady,Schenectady City Hall Farmers' Market,"City Hall, Franklin & Jay Sts.",Franklin St and Jay St,Schenectady,NY,12305,Steve Feeney,5183862225,http://www.schenectadyfarmersmarket.com,Thursday  9am-1:30pm,May 8 - October 30,P/M/W,Y,Y,42.81378,-73.94032,"(42.81378, -73.94032)"
Schenectady,Schenectady Greenmarket,"Jay & Franklin Sts., near City Hall",State St and Jay St,Schenectady,NY,12305,Jennifer Jennings,5189860318,http://www.schenectadygreenmarket.org,Sunday  10am-2pm,May 4 - October 26,P/M,Y,Y,42.81253,-73.94137,"(42.81253, -73.94137)"
Schenectady,Schenectady St. Luke's Farmers' Market,St. Luke's Church 1235 State Street,1235 State St,Schenectady,NY,12304,Steve Feeney,5183862225,http://www.schenectadyfarmersmarket.com,Tuesday  9am-1pm,June 17 - October 28,M,Y,Y,42.79894,-73.92413,"(42.79894, -73.92413)"
Schenectady,Schenectady Union St. Farmers' Market,"Caldwell & Bankers Real Estate parking1760 Union St, Niskayuna",1760 Union St,Niskayuna,NY,12309,Al Lansing,5184640889,,Saturday 9am - 1:30pm,May 3 - November 1,P/M,Y,N,42.8022,-73.8992,"(42.8022, -73.8992)"
Schenectady,Schenectady WINTER Greenmarket,"Proctors Theater, 432 State St.",432 State Street,Schenectady,NY,12305,Jennifer Jennings,5189860318,http://www.schenectadygreenmarket.org,Sunday 10am - 2pm,November - April,X/W/P,N,Y,42.81206,-73.94208,"(42.81206, -73.94208)"
Schoharie,Schoharie Co. Festival Farmers' Market,"McCarthy Tire Center parking lot 942 E. Main, Rt. 7E, Cobleskill",942 East Main St,Cobleskill,NY,12043,Donna Olsen,5182842609,,Saturday  10am-2pmWednesday  3pm-5pm,July 12 - October 11,M,Y,Y,42.67886,-74.46711,"(42.67886, -74.46711)"
Schoharie,Sharon Springs Farmers' Market,Main Street near Roseboro Hotel,Main Street and Washington Street,Sharon Springs,NY,13459,Kate Miller,5189350940,,Saturday  9am-1pm,May 24 - October 4,P/M,Y,Y,42.79545,-74.61721,"(42.79545, -74.61721)"
Schoharie,Sharon Springs WINTER Farmers' Market,Library,129 Main Street,Sharon Springs,NY,13459,Kate Miller,5189350940,,"Saturday 10am - 12 NOONMonthly, 1st Saturday",November - May,W/P,N,Y,42.79083,-74.61967,"(42.79083, -74.61967)"
Schuyler,Watkins Glen Farmers' Market,"Lafayette Park, 5th St.",Fifth St and Porter St,Watkins Glen,NY,14891,TBA TBA,5184576880,,Friday  3pm-7pm,May 23 - September 30,P/M,Y,Y,42.38096,-76.86954,"(42.38096, -76.86954)"
Schuyler,Watkins Glen WINTER Farmers' Market,St. James EpiscopalParish Hall 112 6th Street,112 6th Street,Watkins Glen,NY,14891,Liz Martin,6075464535,,Friday 3pm - 6pm,November 1 - February 28,X/W,N,N,42.37961,-76.87153,"(42.37961, -76.87153)"
Seneca,Seneca Falls Farmers' Market,"People's Park Water Street, by the Canal",Water St and Bridge St,Seneca Falls,NY,13148,Patti Battley,3155399251,,Wednesday  9am-1:30pm,June 11 - October 15,M,Y,Y,42.90412,-76.80005,"(42.90412, -76.80005)"
Steuben,Bath Saturday Farmers' Market,Pulteney Park Steuben St.,Steuben St and Liberty St,Bath,NY,14810,Phillip Glosick,6077763577,,Saturday  9am-2pm,May 10 - November 1,P/M,Y,N,42.33353,-77.31842,"(42.33353, -77.31842)"
Steuben,Bath Wednesday Farmers' Market,Pulteney Square Park Steuben St.,Steuben St and Liberty St,Bath,NY,14810,David Clarke,6075275045,,Wednesday  9am-3pm,May 7 - October 29,P/M,Y,Y,42.33353,-77.31842,"(42.33353, -77.31842)"
Steuben,Corning Farmers' Market,Riverfront Centennial Park Corning's Gaffer District,"Centennial Park, East Tioga Ave",Corning,NY,14830,Lin Kotlinski,6079376292,http://www.gafferdistrict.com,Thursday  10am - 2pm,June 5 - October 30,M,Y,N,42.1443,-77.05339,"(42.1443, -77.05339)"
Steuben,Hammondsport Farmers' Market,Liberty Street Park,Main St and Liberty St,Hammondsport,NY,14840,Larry Rizzo,6075456046,,Saturday  9am-5pm,July 5 - October 25,P/M,Y,N,42.40698,-77.22352,"(42.40698, -77.22352)"
Steuben,Hornell Farmers' Market,Broadway Park,13-17 Elm Street,Hornell,NY,14843,Shelly Stevens,6073249786,http://www.hornellhpg.com,Thursday  10am-6pm,May 1 - October 30,P/M,Y,N,42.32495,-77.66028,"(42.32495, -77.66028)"
St. Lawrence,Canton Farmers' Market,Village Green Main & Park Sts.,Main St and Park St,Canton,NY,13617,Zoe Baker,3152448475,http://www.cantonfarmersmarket.org,Tue/Fri  9am-2pm,May 9 - October 31,P/M,Y,Y,44.59564,-75.16921,"(44.59564, -75.16921)"
St. Lawrence,Fowler Farmers' Market,"Bob's Market Route 58, next to Tripp Fuels",Farm to Market Rd and Route 58,Fowler,NY,13642,Lorraine Taylor,3152120456,,Friday  3pm-6pm,June 6 - September 26,M,Y,N,44.28284,-75.39121,"(44.28284, -75.39121)"
St. Lawrence,Gouverneur Farmers' Market,Village Park Main St.,Church St and John St,Gouverneur,NY,13642,Lorraine Taylor,3152120456,,Thursday  9am-2pm,June 5 - October 16,M,Y,Y,44.33524,-75.46764,"(44.33524, -75.46764)"
St. Lawrence,Hammond Farmers and Artisans Market,"Hammond Museum, Rt 37",Hammond Museum,Hammond,NY,13646,Lori Thistle,3153245032,,Wed 3:30pm-7:00pm,July 2 - October 1,M,Y,N,44.44895,-75.69412,"(44.44895, -75.69412)"
St. Lawrence,Massena Sunday Farmers' Market,Main Street in front of Old Chamber of Commerce,60 Main St,Massena,NY,13662,Shirley Peck,3157695322,,Sunday  8am-3pm,July 6 - October 26,M,Y,Y,44.93114,-74.89334,"(44.93114, -74.89334)"
St. Lawrence,Massena Thursday Farmers' Market,Triple A parking lot,345 E Orvis St,Massena,NY,13362,Shirley Peck,3157695322,,Thursday  9am-5pm,July 10 - October 30,M,Y,Y,44.93605,-74.87095,"(44.93605, -74.87095)"
St. Lawrence,Norwood Farmers' Market,Park Square Main (Rt. 56) & Park Sts.,Main St and Park St,Norwood,NY,13668,Shirley Peck,3157695322,,Monday  10am-5pm,July 7 - October 27,M,Y,N,44.74905,-74.99353,"(44.74905, -74.99353)"
St. Lawrence,Ogdensburgh WINTER Saturday Green Market,"First Presbyterian Church311 Franklin St., Fellowship Hall",311 Franklin Street,Ogdensburg,NY,13669,David Porter,5186388530,http://www.glensfallsfarmersmarket.com,Saturday 9am - 1pm,October 5th - December 14th,M/X,N,Y,44.69805,-75.49022,"(44.69805, -75.49022)"
St. Lawrence,Ogdensburg Saturday Green Market,"Library Park, 300 block Riverside Ave.(Oct-Dec at First Presbyterian Church)",Riverside St and State St,Ogdensburg,NY,13669,Sandra Porter,5618013786,http://www.ogdensburgny.com,Saturday  9am-1pm,May 10 - September 27,P/M,Y,Y,44.69972,-75.49459,"(44.69972, -75.49459)"
St. Lawrence,Ogdensburg Thursday Green Market,CHMC King St. & Mansion Ave.,King St and Mansion Ave,Ogdensburg,NY,13669,Sandra Porter,5618013786,http://www.ogdensburgny.com,Thursday  2pm-5pm,May 15 - September 25,P/M,Y,Y,44.69189,-75.50066,"(44.69189, -75.50066)"
St. Lawrence,Potsdam Main Street Farmers' Market,Main St. Opposite Roxy Theater,Main St and Union St,Potsdam,NY,13676,Laura Popielski,7167257782,http://www.thepotsdamfarmersmarket.org,Sat/Wed  9am-2pm,May 10 - October 25,P/M,Y,Y,44.66865,-74.98493,"(44.66865, -74.98493)"
St. Lawrence,Potsdam WINTER Farmers' Market,"Cheel Arena,Clarkson University",8 Clarkson Ave,Potsdam,NY,13676,Marie Cook,3153447421,,Saturday 8:30am - 12 NOON,November - April,X/W/P,N,N,44.66391,-75.00202,"(44.66391, -75.00202)"
St. Lawrence,Whitten Mobile Farmers' Market,"various locations,contact Cherie Whitten @ 315-328-5559","Town of Massena, Select Communities",Massena,NY,13662,Cherie Whitten,3153285559,,Mon/Thu/Fri,June 23 - September 19,M,N,Y,44.9281,-74.89186,"(44.9281, -74.89186)"
St. Lawrence,Winthrop Farmers' Market,"Parking Lot, near old KeyBankacross from Agway",645 New York 11C,Winthrop,NY,13697,Shirley Peck,3157695322,,Friday  9am-5pm,July 11 - October 31,M,Y,N,44.79402,-74.78794,"(44.79402, -74.78794)"
Suffolk,Babylon Village Farmers' Market,LIRR Babylon Station parking lot Railroad and Deer Park Aves.,Railroad Ave and N Carll Ave,Babylon,NY,11702,Jaime Greci,5162977997,http://www.longislandfarmersmarkets.com,Sunday  8am-1pm,June 1 - November 23,M,Y,Y,40.6996,-73.32594,"(40.6996, -73.32594)"
Suffolk,Commack WINTER Farmers' Market,"74 Hauppauge Rd, Y JCC, near public library, across from Hamlet",74 Hauppauge Road,Commack,NY,11725,Alice Levy,6314629800,http://suffolkyjcc.org,Every Sunday 9am - 1pm,December 15 - February 23,X/W,N,Y,40.82922,-73.30334,"(40.82922, -73.30334)"
Suffolk,Deer Park/Tanger Outlets Farmers' Market,"152 The Arches Circle Tanger Outlets, Deer Park",152 The Arches Circle,Deer Park,NY,11729,Jim Thompson,5166942859,http://www.eatlocallongisland.com,Saturday  10am-3pm,June 7 - November 1,M,Y,Y,40.76401,-73.30346,"(40.76401, -73.30346)"
Suffolk,East Hampton Farmers' Market,Nick & Toni's lot 136 N. Main St.,136 North Main St,Easthampton,NY,11937,Katherine Plumb,6317259133,,Friday  9am-1pm,May 23 - September 26,P/M,Y,Y,40.97017,-72.18124,"(40.97017, -72.18124)"
Suffolk,Farmingdale Farmers' Market,"Village Green, Town Hall",211-A Main St.,Farmingdale,NY,11735,Jim Thompson,5166942859,http://www.eatlocallongisland.com,Sunday  10am-3pm,June 1 - November 23,M,Y,Y,40.73406,-73.44599,"(40.73406, -73.44599)"
Suffolk,Flanders Farm Fresh Youth Market,Crohan Community Senior Center 655 Flanders Road (Rt 24),655 Flanders Rd,Flanders,NY,11901,Nancy Lynott,6317022417,http://www.southamptontownny.gov,Saturday  10am-2pm,June 21 - October 18,M,Y,Y,40.90867,-72.63666,"(40.90867, -72.63666)"
Suffolk,Greater Bellport Community Youth Market,"Boys & Girls Club 471 Atlantic Ave., Bellport",471 Atlantic Avenue,Bellport,NY,11713,Tracie Romandetti,6312869090,,Saturday  11am-4pm,July 12 - October 18,M,Y,Y,40.77519,-72.94828,"(40.77519, -72.94828)"
Suffolk,Greater Bellport Farmers' Market,"685 Station Rd., near corner of Brookhaven Ave.",685 Station Road,Bellport,NY,11713,TBA TBA,5184576880,,Saturday 11 am - 4pm,July 7 - October,M,N,Y,40.77797,-72.94364,"(40.77797, -72.94364)"
Suffolk,Greenport Farmers' Market,"United Methodist Church lot, 624 1st St.",624 1st St,Greenport,NY,11944,Lara McNeil,6317743965,http://www.greenportfarmersmarket.com,Saturday  9am-1pm,May 24 - October 11,P/M,Y,Y,41.10717,-72.36245,"(41.10717, -72.36245)"
Suffolk,Hampton Bays Farmers' Market,165 Ponquogue Ave. St. Mary's Church lawn,165 Ponquogue Ave,Hampton Bays,NY,11946,Paula Godfrey,6317456160,,Saturday  9am-1pm,May 24 - August 30,P/M,Y,N,40.8593,-72.51301,"(40.8593, -72.51301)"
Suffolk,Huntington Village Farmers' Market,"Downtown Huntington Village Off of Elm St. municipal parking lot Main St. Rt. 25A, E. of Rt. 110",State Route 110 and Main St,Huntington,NY,11743,Ethel Terry,6313233653,http://www.longislandgrowersmarket.com,Sunday  7am-12 Noon,May 25 - November 23,P/M,Y,N,40.87121,-73.42629,"(40.87121, -73.42629)"
Suffolk,Huntington WINTER Farmers' Market,"Jack Abrams School155 Lowndes Ave, Huntington Station",115 Lowndes Road,Huntington Station,NY,11746,Jaime Greci,5162977997,http://www.longislandfarmersmarkets.com,Sunday  10am - 2pm,December 2 - April 27,X/W/P,N,N,40.8542,-73.41394,"(40.8542, -73.41394)"
Suffolk,Islip Farmers' Market,"Town Hall parking lot, west of Rt. 111Rt. 27A, Montauk Hwy.",State Route 27A and State Route 111,Islip,NY,11751,Ethel Terry,6313233653,http://www.longislandgrowersmarket.com,Saturday  7am-12 Noon,May 24 - November 22,P/M,Y,N,40.73028,-73.20731,"(40.73028, -73.20731)"
Suffolk,Mattituck East End Farmers' Market,"95 Love Lane,Mattituck",95 Love Lane,Mattutuck,NY,11952,Maryann Krupski,5166618874,,Friday  3pm-6pm,May 9 - October 31,P/M,Y,N,40.9914,-72.53463,"(40.9914, -72.53463)"
Suffolk,Montauk Farmers' Market,Montauk Village Green 743 Montauk Hwy,742 Montauk Hwy,Montauk,NY,11954,Laraine Creegan,6316682355,,Thursday  9am-2pm,June 12 - October 9,M,Y,N,41.03436,-71.94424,"(41.03436, -71.94424)"
Suffolk,Nesconset Plaza Farmers' Market,Nesconset Plaza 127 Smithtown Blvd.,127 Smithtown Boulevard,Nesconset,NY,11767,Bernadette Martin,6316785227,http://www.ligreenmarket.org,Saturday  9am-1pm,June 7 - November 22,M,Y,Y,40.83836,-73.16174,"(40.83836, -73.16174)"
Suffolk,Patchogue Farmers' Market,"7-Eleven parking lot Montauk Hwy., 225 E. Main St.",225 East Main Street,Patchogue,NY,11772,Ethel Terry,6313233653,http://www.longislandgrowersmarket.com,Friday  8am-1pm,July 4 - November 21,M,Y,N,40.76664,-73.00872,"(40.76664, -73.00872)"
Suffolk,Port Jefferson Farmers' Market,Steam Room parking lot Rts. 25A & 112,State Route 25A and State Route 112,Port Jefferson,NY,11776,Ethel Terry,6313233653,http://www.longislandgrowersmarket.com,Thursday  10am-4:30pm,July 12 - October 4,M,Y,N,40.93177,-73.05283,"(40.93177, -73.05283)"
Suffolk,Riverhead Saturday Farmers' Market,117 East Main St. & Peconic Riverfront,"117 East Main Street, Riverhead, NY",Riverhead,NY,11901,Chris Kempner,6317273200,https://www.facebook.com/RiverheadFarmersMarket,Saturday 10am-2pm,February - November,X/P/M,Y,N,40.91709,-72.66031,"(40.91709, -72.66031)"
Suffolk,Riverhead Thursday Farmers' Market,Downtown Riverhead near Aquarium at Peconic River,Main St and Peconic Ave,Riverhead,NY,11901,Ethel Terry,6313233653,http://www.longislandgrowersmarket.com,Thursday  11am-4pm,June 5 - November 6,M,Y,N,40.91696,-72.66253,"(40.91696, -72.66253)"
Suffolk,Rocky Point Farmers Market,"Old Depot Park (Broadway & Prince Rd.) Rocky Point, Long Island",Broadway and Prince Rd,Rocky Point,NY,11778,Charles Bevington,6318493488,http://www.rockypointfarmersandartisansmarket.org,Sunday  8am-1pm,May 11 - November 23,P/M,Y,N,40.94927,-72.92391,"(40.94927, -72.92391)"
Suffolk,Sag Harbor Farmers' Market,Breakwater Yacht Club parking lot Bay & Burke Sts.,Bay St and Burke St,Sag Harbor,NY,11963,Jean Gaul,6318994799,http://www.sagharborfarmersmarket.org,Saturday  9am-1pm,May 17 - October 25,P/M,Y,Y,41.00106,-72.29134,"(41.00106, -72.29134)"
Suffolk,Shiloh Community Youth Market,221 Merritt Ave. Wyandanch,221 Merritt Ave,Wyandanch,NY,11798,Sondra Cochran,6316434786,http://www.wyandanchcdc.org,Saturday  1pm-4pm,July 12 - October 4,M,Y,Y,40.75311,-73.36709,"(40.75311, -73.36709)"
Suffolk,TFCU Artisanal Farmers' Market,"Teachers Federal Credit Union 102 Motor Pkwy, Hauppauge",102 Motor Parkway,Hauppague,NY,11788,Cindy Sierra,6313970197,,Thu  11:30am-5:30pm,June 5 - October 30,M,Y,N,40.80711,-73.26663,"(40.80711, -73.26663)"
Sullivan,Bethel Woods Harvest Festival Farmers' Market,"Hurd & W. Shore Rds., Bethel",Hurd Rd and West Shore Rd,Bethel,NY,12783,Channyn Cullingan,8452952448,http://www.bethelwoodscenter.org,Sunday  11am-4pm,September 7 - October 5,M,Y,N,41.70295,-74.88208,"(41.70295, -74.88208)"
Sullivan,Callicoon Farmers' Market,"Callicoon Creek Park, Audrey Dorrer Dr.",Dorrer Dr,Callicoon,NY,12723,Danielle Gaebel,8662702015,http://www.sullivancountyfarmersmarkets.org,Sunday 11am - 2pm;,May 4 - November 16,P/M,Y,Y,41.76574,-75.05835,"(41.76574, -75.05835)"
Sullivan,Callicoon WINTER Farmers' Market,"Delaware Youth Center8 Creamery Road, Callicoon 12723",8 Creamery Road,Callicoon,NY,12723,Danielle Gaebel,8662702015,http://www.sullivancountyfarmersmarkets.org,"Sunday 11am - 2pmNov 23 & 30, every Sunday in December, Jan 4 & 18, Feb 1 & 22, Mar 8 & 27, Apr 12 & 26",November - April,X/W/P,N,Y,41.76418,-75.05712,"(41.76418, -75.05712)"
Sullivan,Eat Healthy Sullivan County Farmers' Market,Community Church of Wurtsboro,118 Sullivan Street,Wurtsboro,NY,12790,Michelle Lipari,8452926180,,"Monthly, Thu  11am-2pm",July 3 - September 4,M,Y,N,41.57577,-74.48462,"(41.57577, -74.48462)"
Sullivan,Liberty Farmers' Market,"Municipal Parking lot, Darbee Lane",Darbee Lane,Ferndale,NY,12754,Danielle Gaebel,8662702015,http://www.sullivancountyfarmersmarkets.org,Friday  3pm-6pm,June 13 - August 29,M,Y,Y,41.80003,-74.74447,"(41.80003, -74.74447)"
Sullivan,Monticello Eat Healthy Farmers' Market,Sullivan County Office Building,2 Pleasant Street,Monticello,NY,12701,Michelle Lipari,8452926180,,1st & 3rd Mon 11am-2pm,July 7 - October 20,M,Y,N,41.65467,-74.68137,"(41.65467, -74.68137)"
Sullivan,Rock Hill Farmers' Market,223 Rock Hill Drive,223 Rock Hill Drive,Rock Hill,NY,12775,Melinda Meddaugh,8458072034,,Saturday  10am-1pm,June 7 - September 6,M,Y,N,41.62515,-74.59634,"(41.62515, -74.59634)"
Tioga,Candor Farmers' Market,101 Owego Rd.,101 Owego Rd,Candor,NY,13743,Terry Carling,6075897367,,Thursday  4pm-7pm,June - October,M,Y,N,42.23249,-76.33317,"(42.23249, -76.33317)"
Tioga,Owego Farmers' Market,Rite Aid parking lot Main St. & Central Ave.,Main St and Central Ave,Owego,NY,13827,John Purdy,6076428439,,Tue/Fri  9am-1pm,June 13 - October 31,M,Y,N,42.10324,-76.26314,"(42.10324, -76.26314)"
Tioga,Owego Marketplace Farmers' Market,200-204 Front Street,200-204 Front Street,Owego,NY,13827,Laura Eberly,6076874094,http://www.owegolovesshoppers.com,Thursday  4pm-7pm,June 19 - October 16,M,Y,N,42.10242,-76.26011,"(42.10242, -76.26011)"
Tioga,Spencer-Van Etten Farmers' Market,"Nichols Park Pond, near Fire Dept.Route 34, Spencer",Owego Street Exd and N Main St,Spencer,NY,14883,Terry Carling,6075897367,,Saturday  9am-12 Noon,June - October,M,Y,N,42.21138,-76.49267,"(42.21138, -76.49267)"
Tioga,Waverly Farmers' Market,Muldoon Park Pennsylvania & Park Aves.,Pennsylvania Ave and Park Ave,Waverly,NY,14892,Andy Fagan,6076874020,,Monday  3:30pm-6:30pm,June 23 - October 13,M,Y,Y,42.00483,-76.53661,"(42.00483, -76.53661)"
Tompkins,Caroline Farmers' Market/Brooktondale,Brooktondale Community Center522 Valley Rd.,522 Valley Rd,Brooktondale,NY,14817,Donna Gilbert,6073519913,http://www.carolinefarmersmarket.com,Saturday  10am-2pm,May 3  - October 25,P/M,Y,Y,42.38322,-76.37118,"(42.38322, -76.37118)"
Tompkins,Groton Youth Market,Center Village Court Apts.  200 South St. (Rt. 38),200 South St,Groton,NY,13073,Avi Miner,6072275173,,Tuesday  3:30pm-6:30pm,July 1 - September 16,M,Y,Y,42.58532,-76.36848,"(42.58532, -76.36848)"
Tompkins,Ithaca Farmers' Market (Dewitt Park),Dewitt Park N. Cayuga & E. Buffalo Sts.,North Cayuga St and East Buffalo St,Ithaca,NY,14850,Rose Ryan,6072737109,http://www.ithacamarket.com,Tuesday  9am-2pm    Thursday  4pm-7pm,May 6 - October 28,P/M,Y,Y,42.44131,-76.49911,"(42.44131, -76.49911)"
Tompkins,Ithaca Farmers' Market (East Hill),East Hill Plaza380 Pine Tree Rd,380 Pine Tree Road,Ithaca,NY,14850,Rose Ryan,6072737109,http://www.ithacamarket.com,Wednesday  4pm-7pm,June 4 - October 29,M,Y,N,42.43837,-76.46638,"(42.43837, -76.46638)"
Tompkins,Ithaca Farmers' Market (Steamboat),Steamboat Landing 545 Third St. off Rt. 13,545 Third Street,Ithaca,NY,14850,Rose Ryan,6072737109,http://www.ithacamarket.com,Saturday  9am-3pmSunday  10am-3pm,April 5 - December 20,P/M/X,Y,Y,42.45098,-76.5073,"(42.45098, -76.5073)"
Tompkins,Ithaca WINTER Farmers' Market,"The Space@GreenStar700 West Buffalo, Ithaca","Greenstar Cooperative Market, West Buffalo Street",Ithaca,NY,14850,Cathy Koken,6073876952,http://www.ithacamarket.com,Saturday 10am - 2pm,January 10 - March 28,W,N,Y,42.44067,-76.51111,"(42.44067, -76.51111)"
Tompkins,Trumansburg Farmers' Market,Village Park corner of Main & Hector Sts.,State Route 96 and State Route 227,Trumansburg,NY,14886,Tammy Morse,6073876501,,Wednesday  4pm-7pm,May 14 - October 29,P/M,Y,Y,42.54224,-76.66579,"(42.54224, -76.66579)"
Ulster,Gardiner WINTER Farmers' Market,"Gardiner Library,133 Farmers Turnpike",133 Farmer's Turnpike,Gardiner,NY,12525,George Jacobs,4845534602,,"Monthly, 3rd Sat 11am - 2pm",November - December,X,N,N,41.67842,-74.15248,"(41.67842, -74.15248)"
Ulster,Highland Farmers' Market,199 Route 299,199 Route 299,Highland,NY,12528,Kate Jonietz,8456912144,http://www.townoflloyd.com,Wednesday  2pm-6pm,June 4 - October 8,M,Y,N,41.74365,-73.99148,"(41.74365, -73.99148)"
Ulster,Kingston Midtown Farmers' Market,"Broadway, btwn Henry & Cedar Sts.Lot next to the Performing Arts Center",Cedar St and Broadway,Kingston,NY,12401,Lori Hylton,3472762606,http://www.kingstonfarmersmarket.org,Tuesday  4pm-7pm,June 17 - September 30,P/M,Y,Y,41.92919,-74.0036,"(41.92919, -74.0036)"
Ulster,Kingston Uptown Farmers' Market,"Wall St., btwn Main & John Sts.,heart of Old Town Stockade district",Wall St and John St,Kingston,NY,12401,Lori Hylton,3472762606,http://www.kingstonfarmersmarket.org,Saturday  9am-2pm,May 24 - November 22,P/M,Y,Y,41.93384,-74.01968,"(41.93384, -74.01968)"
Ulster,Kingston WINTER Farmers' Market,"Bethany Hall, Old Dutch Church272 Wall Street, corner Wall & Main St.",272 Wall Street,Kingston,NY,12401,Lori Hylton,3472762606,http://www.kingstonfarmersmarket.org,Alternate Saturday 10am - 2pm,December 6 - April 18,X/W/P,N,N,41.93286,-74.01884,"(41.93286, -74.01884)"
Ulster,Milton/Heart of the Hudson Valley Farmers' Market,Cluett-Schantz Memorial Park1801-1805 Rt 9W,State Route 9W and St James Rd,Milton,NY,12547,Sheila Mannese,8454642789,http://www.hhvfarmersmarket.com,Saturday  9am-2pm,June 14 - October 22,M,Y,N,41.65722,-73.9609,"(41.65722, -73.9609)"
Ulster,New Paltz Winter Sun Farms WINTER Farmers' Markets,"New Paltz Community Ctr., Veteran Dr.Behind Town Hall, off Rt 32",1 Veterans Drive,New Paltz,NY,12561,Mary Woodburn,3477217386,,"Monthly, 2nd Saturday 10am - 3pmDec 14, Jan 11, Feb 8, Mar 8, Apr 12",December - April,X/W/P,N,N,41.75673,-74.08106,"(41.75673, -74.08106)"
Ulster,Saugerties Farmers' Market,"Cahill School Parking Lot, 115 Main St.",115 Main St,Saugerties,NY,12477,Barry Benepe,8452466491,http://www.saugertiesfarmersmarket.com,Saturday  10am-2pm,May 24 - October 25,P/M,Y,Y,42.07899,-73.94896,"(42.07899, -73.94896)"
Ulster,Saugerties WINTER Farmers' Market,Saugerties Senior Center207 Market Street,207 Market Street,Saugerties,NY,12477,Barry Benepe,8452466491,http://www.saugertiesfarmersmarket.com,"Monthly, Saturday  10am-2pmNov 22 & Dec 20",November - December,X,N,Y,42.08426,-73.95503,"(42.08426, -73.95503)"
Warren,Bolton Landing Farmers' Market,7 Goodman Ave.,7 Goodman Ave,Bolton Landing,NY,12814,Penelope Jewell,5184809118,,Friday 9am-1pm,June 27 - September 12,M,Y,Y,43.55641,-73.65629,"(43.55641, -73.65629)"
Warren,Chestertown Farmers' Market,Town Hall,6307 State Route 9,Chestertown,NY,12817,TBA TBA,5184576880,,Wednesday 10am - 2pm,June - October,M,N,N,43.64865,-73.80513,"(43.64865, -73.80513)"
Warren,Glens Falls Farmers' Market,South Street Market Pavilion,25 South Street,Glens Falls,NY,12801,Richard Sandora,5187920438,,Saturday  8am-12 Noon,May 3 - October 25,P/M,Y,Y,43.30993,-73.64698,"(43.30993, -73.64698)"
Warren,Glens Falls WINTER Farmers' Market,"Christ Church United, 54 Bay Street",54 Bay Street,Glens Falls,NY,12801,John Dickinson,5183076239,http://www.gffma.com,Saturday 9am - 12 NOON,November 30 - April 26,X/W/P,N,Y,43.31269,-73.64708,"(43.31269, -73.64708)"
Warren,Queensbury Farmers' Market,"Sport Zone, parking lotRoute 9 (across from Suttons)",1043 State Route 9,Queensbury,NY,12804,Richard Sandora,5187920438,,Monday  3pm-6pm,June 2 - October13,M,Y,Y,43.34352,-73.68632,"(43.34352, -73.68632)"
Washington,Cambridge Farmers' Market,"Grass area next to Cambridge Hotel, 4 West Main St.",4 West Main Street,Cambridge,NY,12816,Sarah Ashton,5182227191,,Sunday  10am-2pm,May 18 - October 12,P/M,Y,N,43.02848,-73.38146,"(43.02848, -73.38146)"
Washington,Cambridge WINTER Farmers' Market,"Lovejoy Building, Cambridge Freight Yard",5 Washington Ave,Cambridge,NY,12816,Fran Morrison,5182611877,,Sunday 10am - 2pm,November - December 22,X,N,N,43.02866,-73.37994,"(43.02866, -73.37994)"
Washington,Fort Edward Farmers' Market,"Broadway Bowl 359 Broadway, Route 4",359 Broadway,Fort Edward,NY,12828,Linda Gifford,5187920198,,Friday  10am-1pm,June 6 - October 24,M,Y,N,43.28393,-73.58721,"(43.28393, -73.58721)"
Washington,Granville Rt. 22 Farmers' Market,"Quacker St., Big Lots",70 Quacker St,Granville,NY,12832,George Armstrong,5184990209,,Monday  2pm-5pm,May 26 - October 20,P/M,Y,Y,43.39979,-73.2656,"(43.39979, -73.2656)"
Washington,Greenwich Farmers' Market,"70 Main St., historical bldg",70 Main Street,Greenwich,NY,12834,Julie Callahan,5189447149,,Wednesday  3pm-6pm,Year-round,YR,Y,N,43.08931,-73.49854,"(43.08931, -73.49854)"
Washington,Hudson Falls Farmers' Market,Sutherland Pet Store 1161 Dix Ave.,1161 Dix Ave,Hudson Falls,NY,12839,Linda Gifford,5187920198,,Tuesday  10am-1pm,June 3 - October 28,M,Y,N,43.32024,-73.58262,"(43.32024, -73.58262)"
Washington,Salem Rt. 22 Farmers' Market,Village Park Rt. 22,Route 22 and Park Drive,Salem,NY,12865,George Armstrong,5184990209,,Saturday  10am-1pm,May 25 - Mid October,P/M,Y,Y,43.17322,-73.32837,"(43.17322, -73.32837)"
Washington,Whitehall Rt. 22 Farmers' Market,Park on Boulevard across from canal,Route 22 and Poultney Street,Whitehall,NY,12887,George Armstrong,5184990209,,Tuesday  1pm-4pm,May 27 - October 21,P/M,Y,Y,43.54858,-73.4054,"(43.54858, -73.4054)"
Wayne,Ginegaw Farmers' Market,"Ginegaw Park 1980 Route 441, Walworth",1980 Route 441,Walworth,NY,14568,Jacqueline VanLare,3159861400,,Tuesday  2:30pm-6pm,June 17 - October 14,M,Y,N,43.13404,-77.28888,"(43.13404, -77.28888)"
Wayne,Macedon Farmers' Market,32 Main St. Rt 31,32 Main St,Macedon,NY,14502,William Hammond,3159865932,,Wed  3:30pm-6:30pm,June 18 - October 15,M,Y,N,43.06681,-77.30581,"(43.06681, -77.30581)"
Wayne,Newark Farmers' Market,Central Park Church Street,Church St and South Main St,Newark,NY,14513,Jessica Wells,3153319129,http://www.facebook.com/newarkfarmersmarket,Thursday  2:30pm-6pm,June 5 - October 16,M,Y,Y,43.04468,-77.09522,"(43.04468, -77.09522)"
Wayne,Sodus Farmers' Market,Sodus Methodist Church parking lot 58 W. Main St.,58 West Main St,Sodus,NY,14551,Sandy Hall,3154838029,http://sutmc.org/farmersMarket.html,Wednesday  2:30pm-6pm,June 11 - October 8,M,Y,Y,43.23615,-77.06587,"(43.23615, -77.06587)"
Wayne,Wolcott Area Farmers' Market,"Northup Park New Hartford St., Wolcott",Washington Street and New Hartford Street,Wolcott,NY,14590,Juli Bixby,5854025866,,Thursday  1pm-6pm,June 12 - October 16,M,Y,Y,43.21855,-76.81491,"(43.21855, -76.81491)"
Westchester,Bronxville Farmers' Market,Stone Place at Paxton Ave.,Stone Pl and Paxton Ave,Bronxville,NY,10708,Mary Liz Mulligan,9147792522,http://www.bronxvillefarmersmarket.com,Saturday  8:30am-1pm,May 10 - November 22,P/M,Y,N,40.94,-73.83779,"(40.94, -73.83779)"
Westchester,Chappaqua WINTER Farmers' Market,"Parish Hall, inside St. Mary's Church191 S. Greeley Ave.",191 South Greeley Ave,Chappaqua,NY,10514,Pascale Le Draoulec,9148063380,http://www.hastingsfarmersmarket.org,Saturday  8:30am-1pm,December - April,X/W/P,N,N,41.1558,-73.77339,"(41.1558, -73.77339)"
Westchester,Croton Farmers' Market,"Lot on Municipal Place, off Route 9 Exit",Municipal Pl and Riverside Ave,Croton-on-Hudson,NY,10520,Doug Ornstein,9149234837,http://www.downtoearthmarkets.com,Sunday  9am-2pm,May 11 - November 23,P/M,Y,N,41.20211,-73.88717,"(41.20211, -73.88717)"
Westchester,Dobbs Ferry Farmers' Market,Cedar & Main Sts.,Cedar St and Main St,Dobbs Ferry,NY,10522,Carol Avila,9146932935,,Friday  9am-4pm,June 6 - November 21,M,N,N,41.01628,-73.87365,"(41.01628, -73.87365)"
Westchester,Hartsdale Farmers' Market,"Hartsdale Train Station,East Hartsdale Ave.",East Hartsdale Ave and Fenimore Rd,Hartsdale,NY,10530,Carol Avila,9146932935,,Saturday  8am-3pm,June 7 - November 22,M,N,N,41.01072,-73.79656,"(41.01072, -73.79656)"
Westchester,Hastings Farmers' Market,Library lot off Maple Ave.,Maple Ave and Spring St,Hastings,NY,10706,Pascale Le Draoulec,9148063380,http://www.hastingsfarmersmarket.org,Saturday  8:30am-1:30pm,June 7 - November 22,M,Y,Y,40.99534,-73.88327,"(40.99534, -73.88327)"
Westchester,Hastings WINTER Farmers' Market,"James Harmon Community Center, 44 Main St.",44 Main Street,Hastings-on-Hudson,NY,10706,Pascale Le Draoulec,9148063380,http://www.hastingsfarmersmarket.org,2nd & 4th Saturday 9am - 1pm,December - March,X/W,N,Y,40.99413,-73.88071,"(40.99413, -73.88071)"
Westchester,Hudson Valley Hospital Farmers' Market,1980 Crompond Rd. Cortlandt Manor,1980 Crompond Rd.,Cortland,NY,10567,Michael Bulger,9147343780,http://www.hvhc.org,"Bi-monthly, Tue  11-4",May 13 - November 25,P/M,Y,N,41.29265,-73.89242,"(41.29265, -73.89242)"
Westchester,Larchmont Farmers' Market,"Metro North parking lot, Chatsworth Ave.",Chatsworth Ave and North Ave,Larchmont,NY,10538,Doug Ornstein,9149234837,http://www.downtoearthmarkets.com,Saturday  8:30am-1pm,May 10 - December 13,P/M/X,Y,N,40.93321,-73.75965,"(40.93321, -73.75965)"
Westchester,Mamaroneck WINTER Farmers' Market,"Saint Thomas Church, Heathcote Hall168 W. Boston Post Rd.",168 West Boston Post Road,Mamaroneck,NY,10543,Miriam Haas,9149234837,http://www.communitymarkets.biz,Saturday  9am - 1pm,January - May,W/P,N,N,40.94809,-73.73465,"(40.94809, -73.73465)"
Westchester,Mount Kisco WINTER Farmers' Market,St. Mark's Church85 East Main Street,351 East Main Street,Mount Kisco,NY,10549,Sandra Lena,9145896615,,Saturday 9am - 1pm,November - June,X/W/P,N,N,41.19839,-73.72415,"(41.19839, -73.72415)"
Westchester,New Rochelle Farmers' Market,Hugenot Park/Twin Lakes North Ave. next to Children's Library,Hugenot St and Lawton St,New Rochelle,NY,10801,Doug Ornstein,9149234837,http://www.downtoearthmarkets.com,Friday  8:30am-2:30pm,June 20 - November 21,M,Y,Y,40.91082,-73.78299,"(40.91082, -73.78299)"
Westchester,New Rochelle Grand Market,1 Library Green,Library Green,New Rochelle,NY,10801,Bo Kemp,9177446456,http://www.newrochellegrandmarket.com,Saturday  9am-2pm,May 31 - November 22,M,Y,N,40.91014,-73.78299,"(40.91014, -73.78299)"
Westchester,Ossining Farmers' Market,"Main & Spring Sts., Village Center",Main St and Spring St,Ossining,NY,10562,Doug Ornstein,9149234837,http://www.downtoearthmarkets.com,Saturday  9am-1pm,Year-round,YR,Y,N,41.16104,-73.86352,"(41.16104, -73.86352)"
Westchester,Peekskill Farmers' Market,Bank St. btwn Main (Rt. 6) & Park Sts.,Main St and Bank St,Peekskill,NY,10566,Corinna Makris,9144184920,,Saturday  8am-2pm,June 7 - November 22,M,Y,N,41.29179,-73.91906,"(41.29179, -73.91906)"
Westchester,Pleasantville Farmers' Market,"Parking lot at Memorial Plaza off Manville Rd., next to Train Station",Manville Rd and Wheeler Ave,Pleasantville,NY,10570,Steven Bates,9142054545,,Saturday  8:30am-1pm,May 24 - November 22,P/M/X,Y,N,41.13526,-73.79218,"(41.13526, -73.79218)"
Westchester,Pleasantville WINTER Farmers Market,"Middle School, 40 Romer Ave",40 Romer Ave,Pleasantville,NY,10570,Steven Bates,9142054545,,Saturday 9am - 1pm,December 6 - May 9,X/W/P,N,N,41.13451,-73.78538,"(41.13451, -73.78538)"
Westchester,Rye Farmers' Market,Parking lot on Theodore Fremd Ave. Behind Purchase Street Stores,Theodore Fremd Ave and Purchase St,Rye,NY,10580,Doug Ornstein,9149234837,http://www.downtoearthmarkets.com,Sunday  8:30am-2pm,May 11 - December 7,P/M/X,Y,N,40.98485,-73.68464,"(40.98485, -73.68464)"
Westchester,Saint John's Church - Yonkers Farmers' Market,Church Courtyard One Hudson St.,1 Hudson St,Yonkers,NY,10701,Father John Hamilton,9145128156,http://www.stjohnsfarmersmarket.blogspot.com,Thursday  8am-4:30pm,July 10 - November 20,M,Y,N,40.93364,-73.89879,"(40.93364, -73.89879)"
Westchester,Saw Mill River Youth Market,Van der Donck Park Larkin Plaza,Nepperhan St and Market Place,Yonkers,NY,10705,Curt Collier,9143752151,http://www.groundworkhv.org,Friday  3pm-7pm,June 6 - October 24,M,Y,Y,40.93523,-73.90136,"(40.93523, -73.90136)"
Westchester,Stone Barns Center WINTER Farmers' Market,"Stone Barns Center for Food & Agriculture 630 Bedford Rd., Tarrytown",630 Bedford Road,Tarrytown,NY,10591,Nina Johnson,9143666200,http://www.stonebarnscenter.org,"Monthly, 2nd Sunday 1pm - 4pm",January - April,W/P,N,N,41.10306,-73.82909,"(41.10306, -73.82909)"
Westchester,Tarrytown Farmers' Market,Patriots Park on Route 9,US Route 9 and College Ave,Tarrytown,NY,10591,Doug Ornstein,9149234837,http://www.downtoearthmarkets.com,Saturday  8:30am-1pm,May 24 - November 22,P/M,Y,N,41.08242,-73.85855,"(41.08242, -73.85855)"
Westchester,Westchester Indoor WINTER Farmers' Market,"Westchester County Center, lower level198 Central Ave, White Plains",198 N Central Ave,White Plains,NY,10606,Beth Bricker,9148647077,,"Monthly, Sunday 10am - 3pmNov 24, Dec 29, Jan 26, Feb 23, Mar 30",November - March,X/W,N,N,41.03707,-73.77886,"(41.03707, -73.77886)"
Westchester,White Plains (International) Farmers' Market,125 Court St. btwn Martine Ave. & Main St.,125 Court St,White Plains,NY,10601,Johanna Safar,9143181067,,Wednesday  8am-4pm,April 30 - November 26,P/M,Y,N,41.02904,-73.76627,"(41.02904, -73.76627)"
Wyoming,Perry Farmers' Market,"Perry Festival Plaza, S. Main Street, Downtown Perry",Main St and Borden Ave,Perry,NY,14530,Rick Hauser,5859913893,http://www.perryfarmersmarket.com,Sat  8:30am-12:30pm,June 21 - September 27,M,Y,N,42.71842,-78.00218,"(42.71842, -78.00218)"
Wyoming,Warsaw Farmers' Market,Full Gospel Church parking lot 2444 N. Main St.,2456-2444 New York State Bicycle Route 19,Warsaw,NY,14569,Patricia Reiter,5855911358,,Thursday  12 Noon-4pm,July 10 - October 16,M,Y,N,42.76344,-78.13047,"(42.76344, -78.13047)"
Yates,Branchport Farmers' Market,"Branchport Fire Dept., 3686 Rte 54A",3686 Rte 54A,Branchport,NY,14418,Natalie Baris,3157303981,,Tuesday  4pm-6:30pm,June 3 - October 28,M,Y,Y,42.59953,-77.15125,"(42.59953, -77.15125)"
Yates,Branchport WINTER Farmers' Market,Branchport Library,3699 New York 54A,Branchport,NY,14418,Natalie Baris,3157303981,,Alternate Tuesdays 4pm - 5:30pm,November - May,X/W/P,N,Y,42.60022,-77.14373,"(42.60022, -77.14373)"
Yates,The Windmill Farmers' Market,3900 Route 14A at Hobson Roadin Penn Yan,3900 State Route 14A,Penn Yan,NY,14527,Juanita Dombroski,3155363032,http://www.thewindmill.com,Saturday  8am-4:30pm,April 26 - December 13,P/M/X,Y,N,42.57687,-77.03609,"(42.57687, -77.03609)"
Yates,Yates Co. Co-op Farm & Craft Market,"Main St. north of Elm St. on sidewalk, Penn Yan",Main St and Elm St,Penn Yan,NY,14527,Rivka Davis,6072435234,http://www.pyfarmersmarket.wordpress.com,Saturday  7:30am-12 Noon,May 24 - October 18,P/M,Y,N,42.66095,-77.05365,"(42.66095, -77.05365)"
